name,address,floor,toilet_name,note,color,lng,lat
羽村市庁舎,東京都 羽村市緑ヶ丘五丁目2番地1,1F,西庁舎1階だれでもトイレ,"土曜日については、第2・4土曜日開庁時にのみ使用可能 | 設備: 車椅子対応, おむつ交換台",#00cc00,139.310911,35.76719
羽村市庁舎,東京都 羽村市緑ヶ丘五丁目2番地1,1F,東庁舎1階だれでもトイレ,"設備: 車椅子対応, オストメイト対応",#00cc00,139.311365,35.767
羽村市分庁舎,東京都 羽村市緑ヶ丘五丁目1番地30,1F,分庁舎1階だれでもトイレ,"設備: 車椅子対応, おむつ交換台",#00cc00,139.310455,35.766638
生涯学習センターゆとろぎ,東京都 羽村市緑ヶ丘一丁目11番地5,1F,ゆとろぎ１Ｆ市民活動ロビー横だれでもトイレ,"設備: 車椅子対応, おむつ交換台",#00cc00,139.315887,35.764066
生涯学習センターゆとろぎ,東京都 羽村市緑ヶ丘一丁目11番地5,1F,ゆとろぎ１Ｆ大ホール横だれでもトイレ,"設備: 車椅子対応, オストメイト対応, おむつ交換台",#00cc00,139.316009,35.763896
生涯学習センターゆとろぎ,東京都 羽村市緑ヶ丘一丁目11番地5,2F,ゆとろぎ２Ｆ講座室１横だれでもトイレ,"設備: 車椅子対応, おむつ交換台",#00cc00,139.315766,35.764101
生涯学習センターゆとろぎ,東京都 羽村市緑ヶ丘一丁目11番地5,3F,ゆとろぎ３Ｆ和室前だれでもトイレ,"設備: 車椅子対応, おむつ交換台",#00cc00,139.315887,35.764066
生涯学習センターゆとろぎ,東京都 羽村市緑ヶ丘一丁目11番地5,B1F,ゆとろぎ地下レセプションホール前だれでもトイレ,"設備: 車椅子対応, おむつ交換台",#00cc00,139.316225,35.764055
羽村市コミュニティセンター じゅらく苑,東京都 羽村市緑ヶ丘五丁目2番地6,1F,コミュニティセンター１階障がい者用トイレ,設備: 車椅子対応,#00cc00,139.310934,35.767878
羽村市コミュニティセンター じゅらく苑,東京都 羽村市緑ヶ丘五丁目2番地6,B1F,コミュニティセンター地下１階障がい者用トイレ,設備: 車椅子対応,#00cc00,139.31097,35.767834
羽村市コミュニティセンター じゅらく苑,東京都 羽村市緑ヶ丘五丁目2番地6,3F,コミュニティセンター3階障がい者用トイレ,設備: 車椅子対応,#00cc00,139.310934,35.767878
高齢者在宅サービスセンターいこいの里,東京都 羽村市羽加美四丁目18番6号,1F,1階身障者用トイレ,"だれでもトイレは主にデイサービス利用者が使用しているが、一般の利用者の使用も可としている。 | 設備: 車椅子対応, オストメイト対応",#00cc00,139.299354,35.760295
双葉町会館,東京都 羽村市双葉町二丁目14番45号,1F,１階だれでもトイレ,設備: 車椅子対応,#00cc00,139.333494,35.759737
加美会館,東京都 羽村市羽加美三丁目10番12号,1F,1階だれでもトイレ,"設備: 車椅子対応, オストメイト対応, おむつ交換台",#00cc00,139.3022219,35.76428722
羽村市保健センター,東京都 羽村市緑ヶ丘五丁目5番地2,1F,1階旧館だれでもトイレ,設備: 車椅子対応,#00cc00,139.311826,35.768893
羽村市保健センター,東京都 羽村市緑ヶ丘五丁目5番地2,1F,1階新館だれでもトイレ,"設備: 車椅子対応, おむつ交換台",#00cc00,139.311815,35.768679
羽村市保健センター,東京都 羽村市緑ヶ丘五丁目5番地2,2F,2階旧館だれでもトイレ,設備: 車椅子対応,#00cc00,139.311658,35.768822
羽村市保健センター,東京都 羽村市緑ヶ丘五丁目5番地2,2F,2階新館だれでもトイレ,"設備: 車椅子対応, おむつ交換台",#00cc00,139.311815,35.768679
羽村市図書館,東京都 羽村市緑ヶ丘二丁目11番地2,1F,１階　だれでもトイレ,"設備: 車椅子対応, おむつ交換台",#00cc00,139.316644,35.764407
羽村市図書館,東京都 羽村市緑ヶ丘二丁目11番地2,3F,３階　だれでもトイレ,"設備: 車椅子対応, おむつ交換台",#00cc00,139.31642,35.764488
羽村市スポーツセンター,東京都 羽村市羽加美一丁目29番地5,1F,１階だれでもトイレ,"設備: 車椅子対応, オストメイト対応, おむつ交換台",#00cc00,139.307594,35.767972
羽村市スポーツセンター,東京都 羽村市羽加美一丁目29番地5,2F,2階だれでもトイレ,"設備: 車椅子対応, おむつ交換台",#00cc00,139.307628,35.768173
羽村市スイミングセンター (S&Dスイミングプラザ羽村),東京都 羽村市五ノ神319番地3,1F,1階身障者更衣室,設備: 車椅子対応,#00cc00,139.329127,35.768429
羽村市スイミングセンター (S&Dスイミングプラザ羽村),東京都 羽村市五ノ神319番地3,2F,2階だれでもトイレ,設備: 車椅子対応,#00cc00,139.329088,35.768455
羽村市郷土博物館,東京都 羽村市羽741番地,1F,障害者用便所,"設備: 車椅子対応, オストメイト対応",#00cc00,139.303378,35.755054
羽村市中央児童館,東京都 羽村市羽中三丁目6番19号,1F,1階北側だれでもトイレ,"設備: 車椅子対応, オストメイト対応, おむつ交換台",#00cc00,139.309272,35.761388
羽村市東児童館,東京都 羽村市神明台三丁目30番地2,1F,1階だれでもトイレ,設備: 車椅子対応,#00cc00,139.328388,35.760347
羽村市東児童館,東京都 羽村市神明台三丁目30番地2,2F,２階だれでもトイレ,設備: 車椅子対応,#00cc00,139.328323,35.760315
羽村市西児童館,東京都 羽村市小作台五丁目28番地3,1F,1階多目的トイレ,"設備: 車椅子対応, おむつ交換台",#00cc00,139.303026,35.772806
武蔵野公園,東京都 羽村市栄町二丁目5番地,1F,武蔵野公園女性用身障者用トイレ,設備: 車椅子対応,#00cc00,139.310484,35.774225
武蔵野公園,東京都 羽村市栄町二丁目5番地,1F,武蔵野公園男性用身障者用トイレ,設備: 車椅子対応,#00cc00,139.310556,35.774181
あさひ公園,東京都 羽村市神明台三丁目31番地,1F,あさひ公園身障者用トイレ,設備: 車椅子対応,#00cc00,139.327622,35.760034
富士見公園,東京都 羽村市緑ヶ丘四丁目11番地,1F,富士見公園だれでもトイレ1,"設備: 車椅子対応, おむつ交換台",#00cc00,139.315328,35.76862
富士見公園,東京都 羽村市緑ヶ丘四丁目11番地,1F,富士見公園誰でもトイレ2,"設備: 車椅子対応, おむつ交換台",#00cc00,139.31692,35.768033
富士見公園,東京都 羽村市緑ヶ丘四丁目11番地,1F,富士見公園誰でもトイレ3,"設備: 車椅子対応, オストメイト対応, おむつ交換台",#00cc00,139.315911,35.766895
神明児童公園,東京都 羽村市神明台一丁目16番地7,1F,神明児童公園だれでもトイレ,設備: 車椅子対応,#00cc00,139.32018,35.754761
川崎公園,東京都 羽村市川崎二丁目197番1,1F,川崎公園だれでもトイレ,設備: 車椅子対応,#00cc00,139.318419,35.753146
羽村市動物公園,東京都 羽村市羽4122番地,1F,動物公園だれでもトイレ1,"動物公園開園時のみ使用可能 | 設備: 車椅子対応, オストメイト対応, おむつ交換台",#00cc00,139.328838,35.76597
羽村市動物公園,東京都 羽村市羽4122番地,1F,動物公園だれでもトイレ2,"動物公園開園時のみ使用可能 | 設備: 車椅子対応, おむつ交換台",#00cc00,139.32858,35.766401
羽村市動物公園,東京都 羽村市羽4122番地,1F,動物公園,"動物公園開園時のみ使用可能 | 設備: 車椅子対応, オストメイト対応, 大型ベッド",#00cc00,139.328696,35.766839
田の上公園,東京都 羽村市羽中二丁目2810番1,1F,田の上公園だれでもトイレ,設備: 車椅子対応,#00cc00,139.309256,35.76244
羽ケ上公園,東京都 羽村市羽加美一丁目14番地,1F,羽ケ上公園だれでもトイレ,設備: 車椅子対応,#00cc00,139.30614,35.771401
あけぼの杉児童公園,東京都 羽村市羽加美一丁目36番地1,1F,あけぼの杉児童公園だれでもトイレ,設備: 車椅子対応,#00cc00,139.305912,35.76765
多摩川一里塚公園,東京都 羽村市玉川二丁目1512番2,1F,多摩川一里塚公園だれでもトイレ,設備: 車椅子対応,#00cc00,139.312708,35.75112
小作ふれあい公園,東京都 羽村市羽西三丁目1721番4,1F,小作ふれあい公園だれでもトイレ,設備: 車椅子対応,#00cc00,139.297217,35.772525
羽村市水上公園,東京都 羽村市羽中四丁目9番1号,1F,水上公園だれでもトイレ,設備: 車椅子対応,#00cc00,139.305986,35.757744
双葉町公園,東京都 羽村市双葉町二丁目5番6号,1F,双葉町公園だれでもトイレ,"設備: 車椅子対応, オストメイト対応",#00cc00,139.332772,35.756744
羽村駅東口公衆トイレ,東京都 羽村市五ノ神一丁目8番地,1F,羽村駅東口身障者用トイレ,設備: 車椅子対応,#00cc00,139.315955,35.758633
羽村駅西口公衆トイレ,東京都 羽村市五ノ神一丁目8番地,1F,羽村駅西口だれでもトイレ,"設備: 車椅子対応, オストメイト対応, おむつ交換台",#00cc00,139.315787,35.758357
小作駅東口公衆トイレ,東京都 羽村市小作台五丁目35番地,1F,小作駅東口身障者用トイレ,設備: 車椅子対応,#00cc00,139.302156,35.776294
小作駅西口公衆トイレ,東京都 羽村市小作台五丁目35番地,1F,小作駅西口身障者用トイレ,設備: 車椅子対応,#00cc00,139.301848,35.776137
羽村市福祉センター,東京都 羽村市栄町二丁目18番地1,1F,１階右側だれでもトイレ,"設備: 車椅子対応, オストメイト対応, おむつ交換台",#00cc00,139.313091,35.770375
羽村市福祉センター,東京都 羽村市栄町二丁目18番地1,1F,1階左側だれでもトイレ,"設備: 車椅子対応, おむつ交換台",#00cc00,139.313065,35.770417
羽村市福祉センター,東京都 羽村市栄町二丁目18番地1,2F,2階だれでもトイレ,"設備: 車椅子対応, 大型ベッド",#00cc00,139.312802,35.770664
羽村市弓道場,東京都 羽村市小作台四丁目2番地8,1F,１階だれでもトイレ,設備: 車椅子対応,#00cc00,139.294217,35.776707