name,address,floor,toilet_name,note,color,lng,lat
東京都立多摩職業能力開発センター,東京都 昭島市東町三丁目6番33号,1F,だれでもトイレ,"設備: 車椅子対応, オストメイト対応, おむつ交換台",#00cc00,139.391648,35.699853
昭島消防署　昭和出張所,東京都 昭島市もくせいの社一丁目５番５０号,2F,誰でもトイレ,"設備: 車椅子対応, オストメイト対応, おむつ交換台",#00cc00,139.390765,35.704565
昭島市役所本庁舎,東京都 昭島市田中町一丁目17番1号,1F,１階だれでもトイレ,"利用可能日時は、庁舎管理規定に基づく庁舎出入口の開閉時間となります。 | 設備: 車椅子対応, オストメイト対応, おむつ交換台",#00cc00,139.353714,35.705557
昭島市役所本庁舎,東京都 昭島市田中町一丁目17番1号,2F,２階だれでもトイレ,"利用可能日時は、庁舎管理規定に基づく庁舎出入口の開閉時間となります。「前広便座」（オストメイトの方が排出しやすい形状）設置済です。 | 設備: 車椅子対応, 大型ベッド, おむつ交換台",#00cc00,139.353714,35.705557
昭島市役所本庁舎,東京都 昭島市田中町一丁目17番1号,3F,３階だれでもトイレ,"利用可能日時は、庁舎管理規定に基づく庁舎出入口の開閉時間となります。「前広便座」（オストメイトの方が排出しやすい形状）設置済です | 設備: 車椅子対応, おむつ交換台",#00cc00,139.353714,35.705557
昭島市役所本庁舎,東京都 昭島市田中町一丁目17番1号,4F,４階だれでもトイレ,"利用可能日時は、庁舎管理規定に基づく庁舎出入口の開閉時間となります。 | 設備: 車椅子対応, おむつ交換台",#00cc00,139.353714,35.705557
昭島市役所本庁舎,東京都 昭島市田中町一丁目17番1号,5F,５階だれでもトイレ,"利用可能日時は、庁舎管理規定に基づく庁舎出入口の開閉時間となります。 | 設備: 車椅子対応, おむつ交換台",#00cc00,139.353714,35.705557
昭島市役所本庁舎,東京都 昭島市田中町一丁目17番1号,6F,６階だれでもトイレ,"利用可能日時は、庁舎管理規定に基づく庁舎出入口の開閉時間となります。 | 設備: 車椅子対応, おむつ交換台",#00cc00,139.353714,35.705557
昭島市役所本庁舎,東京都 昭島市田中町一丁目17番1号,7F,７階だれでもトイレ,"利用可能日時は、庁舎管理規定に基づく庁舎出入口の開閉時間となります。 | 設備: 車椅子対応, おむつ交換台",#00cc00,139.353714,35.705557
松原町コミュニティセンター (昭島市松原町コミュニティセンター),東京都 昭島市松原町一丁目3番10号,1F,1階だれでもトイレ,"設備: 車椅子対応, オストメイト対応, おむつ交換台",#00cc00,139.356987,35.712133
松原町コミュニティセンター (昭島市松原町コミュニティセンター),東京都 昭島市松原町一丁目3番10号,2F,２階だれでもトイレ,"設備: 車椅子対応, オストメイト対応, おむつ交換台",#00cc00,139.356987,35.712133
富士見会館,東京都 昭島市中神町１２８２番地,1F,富士見会館１階だれでもトイレ,"設備: 車椅子対応, オストメイト対応",#00cc00,139.382705,35.712311
やまのかみ会館,東京都 昭島市拝島町三丁目１０番３号,1F,やまのかみ会館１階だれでもトイレ,"設備: 車椅子対応, オストメイト対応",#00cc00,139.335342,35.710871
KOTORIホール（昭島市民会館）,東京都 昭島市つつじが丘三丁目7番7号,1F,KOTORIホールだれでもトイレ,"設備: 車椅子対応, オストメイト対応, 大型ベッド, おむつ交換台",#00cc00,139.365963,35.713346
KOTORIホール（昭島市民会館）,東京都 昭島市つつじが丘三丁目7番7号,1F,KOTORIホールだれでもトイレ（楽屋）,"設備: 車椅子対応, オストメイト対応, おむつ交換台",#00cc00,139.366043,35.713759
KOTORIホール（昭島市民会館）,東京都 昭島市つつじが丘三丁目7番7号,1F,昭島市公民館１階だれでもトイレ,"設備: 車椅子対応, オストメイト対応, おむつ交換台",#00cc00,139.366315,35.71335
KOTORIホール（昭島市民会館）,東京都 昭島市つつじが丘三丁目7番7号,2F,昭島市公民館２階だれでもトイレ,"設備: 車椅子対応, オストメイト対応, おむつ交換台",#00cc00,139.366315,35.71335
KOTORIホール（昭島市民会館）,東京都 昭島市つつじが丘三丁目7番7号,3F,昭島市公民館３階だれでもトイレ,"設備: 車椅子対応, オストメイト対応, おむつ交換台",#00cc00,139.366315,35.71335
昭島市立昭和公園,東京都 昭島市東町五丁目,1F,だれでもトイレ（立体駐車場）,"設備: 車椅子対応, おむつ交換台",#00cc00,139.387017,35.703172
昭島市立昭和公園,東京都 昭島市東町五丁目,1F,だれでもトイレ（公園内）,"設備: 車椅子対応, オストメイト対応, おむつ交換台",#00cc00,139.386114,35.702166
昭島市立八清公園,東京都 昭島市玉川町三丁目,1F,だれでもトイレ,"設備: 車椅子対応, おむつ交換台",#00cc00,139.382511,35.703167
昭島市立中神公園,東京都 昭島市朝日町三丁目,1F,だれでもトイレ,"設備: 車椅子対応, おむつ交換台",#00cc00,139.373669,35.706837
昭島市立拝島公園,東京都 昭島市拝島町一丁目,1F,だれでもトイレ,"西 | 設備: 車椅子対応, オストメイト対応",#00cc00,139.346424,35.70534
昭島市立拝島公園,東京都 昭島市拝島町一丁目,1F,だれでもトイレ,"東 | 設備: 車椅子対応, オストメイト対応, おむつ交換台",#00cc00,139.3474945,35.7048651
昭島市立林ノ上公園,東京都 昭島市緑町四丁目,1F,だれでもトイレ,"設備: 車椅子対応, おむつ交換台",#00cc00,139.34379,35.71526
昭島市立田中町住宅第一公園,東京都 昭島市田中町三丁目,1F,だれでもトイレ,"設備: 車椅子対応, おむつ交換台",#00cc00,139.351484,35.702587
昭島市立上水南第一公園,東京都 昭島市美堀町五丁目,1F,だれでもトイレ,"設備: 車椅子対応, おむつ交換台",#00cc00,139.34771,35.720145
昭島市立つつじが丘公園,東京都 昭島市つつじが丘三丁目,1F,だれでもトイレ,設備: 車椅子対応,#00cc00,139.370645,35.713897
昭島市立市民会館公園,東京都 昭島市つつじが丘三丁目,1F,だれでもトイレ,"設備: 車椅子対応, おむつ交換台",#00cc00,139.365531,35.712723
昭島市立北文化公園,東京都 昭島市宮沢町,1F,だれでもトイレ,"設備: 車椅子対応, おむつ交換台",#00cc00,139.375554,35.715889
昭島市立日ノ出台公園,東京都 昭島市武蔵野二丁目,1F,だれでもトイレ,"設備: 車椅子対応, おむつ交換台",#00cc00,139.375171,35.722773
昭島市立美ノ宮公園,東京都 昭島市武蔵野二丁目,1F,だれでもトイレ,"設備: 車椅子対応, おむつ交換台",#00cc00,139.379718,35.720249
昭島市立朝日町いこい公園,東京都 昭島市朝日町四丁目,1F,だれでもトイレ,"設備: 車椅子対応, オストメイト対応, おむつ交換台",#00cc00,139.371041,35.706096
昭島市立上ノ台公園,東京都 昭島市大神町二丁目,1F,だれでもトイレ,"設備: 車椅子対応, オストメイト対応, おむつ交換台",#00cc00,139.356021,35.705747
昭島市立みほり広場,東京都 昭島市美堀町三丁目,1F,だれでもトイレ,設備: 車椅子対応,#00cc00,139.35678,35.724444
昭島市立上水公園,東京都 昭島市拝島町,1F,だれでもトイレ,設備: 車椅子対応,#00cc00,139.356625,35.721162
昭島市立下林公園,東京都 昭島市緑町二丁目,1F,だれでもトイレ,設備: 車椅子対応,#00cc00,139.346889,35.710009
昭島市立美堀町四丁目公園,東京都 昭島市美堀町四丁目,1F,だれでもトイレ,設備: 車椅子対応,#00cc00,139.353487,35.716658
昭島市立清泉公園,東京都 昭島市宮沢町一丁目,1F,だれでもトイレ,設備: 車椅子対応,#00cc00,139.36323,35.706528
昭島市立稲荷公園,東京都 昭島市昭和町四丁目,1F,だれでもトイレ,設備: 車椅子対応,#00cc00,139.362702,35.71104
昭島市立緑ヶ丘公園,東京都 昭島市緑町一丁目,1F,だれでもトイレ,設備: 車椅子対応,#00cc00,139.350802,35.712837
昭島市立やまのかみ公園,東京都 昭島市拝島町三丁目,1F,だれでもトイレ,"設備: 車椅子対応, おむつ交換台",#00cc00,139.334523,35.71131
昭島市立なごみ公園,東京都 昭島市拝島町三丁目,1F,だれでもトイレ,"設備: 車椅子対応, オストメイト対応, おむつ交換台",#00cc00,139.336517,35.710823
昭島市立美堀町一丁目かけはし公園,東京都 昭島市美堀町一丁目,1F,だれでもトイレ,"設備: 車椅子対応, オストメイト対応",#00cc00,139.367951,35.725105
昭島市立中神町二丁目児童遊園,東京都 昭島市中神町二丁目,1F,だれでもトイレ,設備: 車椅子対応,#00cc00,139.372759,35.699261
昭島市立大神町四丁目児童遊園,東京都 昭島市大神町四丁目,1F,だれでもトイレ,設備: 車椅子対応,#00cc00,139.359175,35.697285
昭島市立松原町三丁目児童遊園,東京都 昭島市松原町三丁目,1F,だれでもトイレ,"設備: 車椅子対応, オストメイト対応, おむつ交換台",#00cc00,139.344956,35.71754
昭島市立松原町児童遊園,東京都 昭島市松原町五丁目,1F,だれでもトイレ,"設備: 車椅子対応, オストメイト対応, おむつ交換台",#00cc00,139.341011,35.717171
昭島市立拝島町四丁目南児童遊園,東京都 昭島市拝島町四丁目,1F,だれでもトイレ,"設備: 車椅子対応, オストメイト対応, おむつ交換台",#00cc00,139.347126,35.700104
昭島市立宮沢文化児童遊園,東京都 昭島市宮沢町,1F,だれでもトイレ,設備: 車椅子対応,#00cc00,139.373732,35.714866
昭島市立松原町一丁目中児童遊園,東京都 昭島市松原町一丁目,1F,だれでもトイレ,設備: 車椅子対応,#00cc00,139.355392,35.714846
昭島市立小荷田児童遊園,東京都 昭島市緑町五丁目,1F,だれでもトイレ,"設備: 車椅子対応, オストメイト対応, おむつ交換台",#00cc00,139.34168,35.71441
昭島市立むさしの公園,東京都 昭島市もくせいの杜二丁目,1F,だれでもトイレ,"設備: 車椅子対応, オストメイト対応, おむつ交換台",#00cc00,139.386215,35.718983
昭島市立美堀町一丁目ほほえみ公園,東京都 昭島市美堀町一丁目,1F,だれでもトイレ,設備: 車椅子対応,#00cc00,139.369252,35.724487
昭島市エコ・パーク,東京都 昭島市美堀町三丁目8番地・14番地・15番地・16番地,1F,エコ・パーク西側だれでもトイレ,"設備: 車椅子対応, オストメイト対応, おむつ交換台",#00cc00,139.35286,35.722904
昭島市エコ・パーク,東京都 昭島市美堀町三丁目8番地・14番地・15番地・16番地,1F,エコ・パーク南側だれでもトイレ,"設備: 車椅子対応, オストメイト対応, おむつ交換台",#00cc00,139.353191,35.721793
昭島市エコ・パーク,東京都 昭島市美堀町三丁目8番地・14番地・15番地・16番地,1F,エコ・パーク北側だれでもトイレ,"設備: 車椅子対応, おむつ交換台",#00cc00,139.353865,35.723418
昭島市立東ノ岡児童遊園,東京都 昭島市宮沢町二丁目14番,1F,多目的トイレ,"設備: 車椅子対応, オストメイト対応, おむつ交換台",#00cc00,139.36195,35.702875
昭島市立拝島天神社児童遊園,東京都 昭島市拝島町二丁目14番,1F,多目的トイレ,"設備: 車椅子対応, オストメイト対応, おむつ交換台",#00cc00,139.33913,35.70971
田中町住宅第二公園,東京都 昭島市田中町三丁目,1F,だれでもトイレ,"設備: 車椅子対応, オストメイト対応, おむつ交換台",#00cc00,139.3516959,35.70030949
東町一丁目児童遊園,東京都 昭島市東町一丁目,1F,だれでもトイレ,"設備: 車椅子対応, オストメイト対応, おむつ交換台",#00cc00,139.3904006,35.70404782
駒形神社児童遊園,東京都 昭島市大神町三丁目,1F,だれでもトイレ,"設備: 車椅子対応, オストメイト対応, おむつ交換台",#00cc00,139.3616545,35.69970157
東中神駅自由通路北口トイレ,東京都 昭島市福島町1014番地,1F,１階北口共用トイレ,"設備: 車椅子対応, オストメイト対応, おむつ交換台",#00cc00,139.384991,35.706275
東中神駅自由通路南口トイレ,東京都 昭島市福島町1014番地,1F,１階南側共用トイレ,"設備: 車椅子対応, オストメイト対応, おむつ交換台",#00cc00,139.384204,35.706305
昭島駅前公衆便所,東京都 昭島市田中町589番地6号,1F,だれでもトイレ,"設備: 車椅子対応, オストメイト対応, おむつ交換台",#00cc00,139.360263,35.713688
中神駅北口公衆便所,東京都 昭島市中神町1208番地,1F,だれでもトイレ,"設備: 車椅子対応, オストメイト対応, 大型ベッド",#00cc00,139.375931,35.709175
拝島駅自由通路南口トイレ,東京都 昭島市松原町四丁目14番14号,1F,１階南側共用トイレ,"設備: 車椅子対応, オストメイト対応, 大型ベッド",#00cc00,139.343427,35.720836
拝島駅自由通路北口トイレ,東京都 昭島市松原町四丁目14番14号,1F,１階北口共用トイレ,"設備: 車椅子対応, オストメイト対応, 大型ベッド",#00cc00,139.344351,35.721426
市民プール東側便所,東京都 昭島市宮沢町三丁目15番地,1F,だれでもトイレ,"設備: 車椅子対応, オストメイト対応, おむつ交換台",#00cc00,139.373859,35.695559
昭島市民球場,東京都 昭島市東町五丁目12番地,1F,昭島市民球場一塁側だれでもトイレ,"設備: 車椅子対応, オストメイト対応, おむつ交換台",#00cc00,139.385255,35.703476
昭島市民球場,東京都 昭島市東町五丁目12番地,1F,昭島市民球場三塁側だれでもトイレ,"設備: 車椅子対応, オストメイト対応, おむつ交換台",#00cc00,139.385786,35.703703
総合スポーツセンター,東京都 昭島市東町五丁目13番1号,1F,A棟１階西側だれでもトイレ,"設備: 車椅子対応, おむつ交換台",#00cc00,139.384422,35.703565
みほり体育館,東京都 昭島市美堀町四丁目20番1号,1F,みほり体育館１階だれでもトイレ,"設備: 車椅子対応, おむつ交換台",#00cc00,139.35324,35.716241
昭島市保健福祉センター,東京都 昭島市昭和町四丁目7番1号,1F,1階右側誰でもトイレ,"設備: 車椅子対応, 大型ベッド, おむつ交換台",#00cc00,139.364048,35.710619
昭島市保健福祉センター,東京都 昭島市昭和町四丁目7番1号,1F,1階左側誰でもトイレ,"設備: 車椅子対応, オストメイト対応, 大型ベッド, おむつ交換台",#00cc00,139.364108,35.710679
昭島市保健福祉センター,東京都 昭島市昭和町四丁目7番1号,2F,2階左側誰でもトイレ,"設備: 車椅子対応, 大型ベッド, おむつ交換台",#00cc00,139.364048,35.710619
昭島市保健福祉センター,東京都 昭島市昭和町四丁目7番1号,2F,2階右側誰でもトイレ,"設備: 車椅子対応, オストメイト対応, 大型ベッド, おむつ交換台",#00cc00,139.364108,35.710679
昭島市保健福祉センター,東京都 昭島市昭和町四丁目7番1号,3F,3階誰でもトイレ,"設備: 車椅子対応, 大型ベッド, おむつ交換台",#00cc00,139.364048,35.710619
昭島市保健福祉センター,東京都 昭島市昭和町四丁目7番1号,4F,4階右側誰でもトイレ,"設備: 車椅子対応, 大型ベッド, おむつ交換台",#00cc00,139.364048,35.710619
昭島市保健福祉センター,東京都 昭島市昭和町四丁目7番1号,4F,4階左側誰でもトイレ,"設備: 車椅子対応, 大型ベッド, おむつ交換台",#00cc00,139.364048,35.710619
昭島市児童センター,東京都 昭島市つつじが丘二丁目3番21号,1F,1階だれでもトイレ,"設備: 車椅子対応, おむつ交換台",#00cc00,139.367072,35.714245
昭島市児童センター,東京都 昭島市つつじが丘二丁目3番21号,2F,２階だれでもトイレ,"設備: 車椅子対応, おむつ交換台",#00cc00,139.367072,35.714245
青少年交流センター,東京都 昭島市昭和町一丁目6番11号,1F,１階だれでもトイレ,"設備: 車椅子対応, オストメイト対応, おむつ交換台",#00cc00,139.365552,35.71099
松原町高齢者福祉センター,東京都 昭島市松原町一丁目13番3号,1F,障害者用トイレ2,設備: 車椅子対応,#00cc00,139.354553,35.714682
朝日町高齢者福祉センター,東京都 昭島市朝日町四丁目5番9号,1F,障害者用トイレ,設備: オストメイト対応,#00cc00,139.370715,35.706173
拝島町高齢者福祉センター,東京都 昭島市拝島町三丁目10番4号,1F,障害者用トイレ,"設備: 車椅子対応, おむつ交換台",#00cc00,139.335232,35.710627
昭島市環境コミュニケーションセンター,東京都 昭島市美堀町三丁目8番1号,1F,プラザ棟１階だれでもトイレ,"設備: 車椅子対応, オストメイト対応, おむつ交換台",#00cc00,139.354949,35.723451
昭島市環境コミュニケーションセンター,東京都 昭島市美堀町三丁目8番1号,2F,プラザ棟２階だれでもトイレ,"設備: 車椅子対応, オストメイト対応, おむつ交換台",#00cc00,139.354949,35.723451
昭島市環境コミュニケーションセンター,東京都 昭島市美堀町三丁目8番1号,2F,リサイクル棟２階だれでもトイレ,"設備: 車椅子対応, オストメイト対応, おむつ交換台",#00cc00,139.354688,35.723401
昭島市勤労商工市民センター,東京都 昭島市昭和町三丁目10番2号,1F,一階だれでもトイレ,設備: 車椅子対応,#00cc00,139.36719,35.707077
昭島市勤労商工市民センター,東京都 昭島市昭和町三丁目10番2号,1F,一階だれでもトイレ,"設備: 車椅子対応, おむつ交換台",#00cc00,139.36719,35.707077
昭島市勤労商工市民センター,東京都 昭島市昭和町三丁目10番2号,2F,二階だれでもトイレ,"設備: 車椅子対応, おむつ交換台",#00cc00,139.367165,35.707091
昭島市勤労商工市民センター,東京都 昭島市昭和町三丁目10番2号,2F,二階だれでもトイレ,設備: 車椅子対応,#00cc00,139.367165,35.707091
くじら運動公園管理棟,東京都 昭島市宮沢町三丁目14番10号,1F,だれでもトイレ,"設備: 車椅子対応, オストメイト対応",#00cc00,139.363294,35.696818
教育福祉総合センター（アキシマエンシス） (国際交流教養文化棟),東京都 昭島市つつじが丘三丁目3番15号,1F,出入口側だれでもトイレ,"設備: 車椅子対応, オストメイト対応, おむつ交換台",#00cc00,139.369025,35.711788
教育福祉総合センター（アキシマエンシス） (国際交流教養文化棟),東京都 昭島市つつじが丘三丁目3番15号,1F,だれでもトイレ,"設備: 車椅子対応, オストメイト対応, おむつ交換台",#00cc00,139.369539,35.711424
教育福祉総合センター（アキシマエンシス） (国際交流教養文化棟),東京都 昭島市つつじが丘三丁目3番15号,2F,だれでもトイレ,"設備: 車椅子対応, オストメイト対応, 大型ベッド",#00cc00,139.369169,35.71171
教育福祉総合センター（アキシマエンシス） (校舎棟),東京都 昭島市つつじが丘三丁目3番15号,1F,だれでもトイレ,"設備: 車椅子対応, オストメイト対応, おむつ交換台",#00cc00,139.369516,35.712046
教育福祉総合センター（アキシマエンシス） (校舎棟),東京都 昭島市つつじが丘三丁目3番15号,2F,だれでもトイレ,"設備: 車椅子対応, オストメイト対応, おむつ交換台",#00cc00,139.369516,35.712046
教育福祉総合センター（アキシマエンシス） (校舎棟),東京都 昭島市つつじが丘三丁目3番15号,3F,だれでもトイレ,"設備: 車椅子対応, オストメイト対応, おむつ交換台",#00cc00,139.368964,35.712135
教育福祉総合センター（アキシマエンシス） (体育館),東京都 昭島市つつじが丘三丁目3番15号,1F,だれでもトイレ,"設備: 車椅子対応, オストメイト対応, おむつ交換台",#00cc00,139.36854,35.711663