name,address,floor,toilet_name,note,color,lng,lat
六仙公園,東京都 東久留米市中央町三丁目20番,1F,遺跡広場トイレ,"設備: 車椅子対応, オストメイト対応, おむつ交換台",#00cc00,139.523563,35.75041
六仙公園,東京都 東久留米市中央町三丁目24番,1F,遊具広場トイレ,"設備: 車椅子対応, オストメイト対応",#00cc00,139.522606,35.749351
六仙公園,東京都 東久留米市中央町三丁目23番 ,1F,サービスセンター内バリアフリートイレ ,"設備: 車椅子対応, オストメイト対応, 大型ベッド, おむつ交換台",#00cc00,139.5216693,35.74945114
東久留米サービスステーション,東京都 東久留米市滝山六丁目1番1号,1F,東久留米サービスステーション１階　だれでもトイレ,"設備: 車椅子対応, オストメイト対応, おむつ交換台",#00cc00,139.507362,35.747463
東久留米市役所 (東久留米市役所),東京都 東久留米市本町三丁目3番1号,1F,1階東側だれでもトイレ,"設備: 車椅子対応, オストメイト対応, 大型ベッド",#00cc00,139.52975,35.757969
東久留米市役所 (東久留米市役所),東京都 東久留米市本町三丁目3番1号,2F,2階東側だれでもトイレ,"設備: 車椅子対応, 大型ベッド",#00cc00,139.529989,35.758033
東久留米市役所 (東久留米市役所),東京都 東久留米市本町三丁目3番1号,3F,3階北側だれでもトイレ,設備: 車椅子対応,#00cc00,139.529989,35.758033
東久留米市役所 (東久留米市役所),東京都 東久留米市本町三丁目3番1号,7F,7階東側だれでもトイレ,"設備: 車椅子対応, オストメイト対応",#00cc00,139.529989,35.758033
東久留米市役所ごみ対策課庁舎,東京都 東久留米市八幡町二丁目10番10号,1F,だれでもトイレ,"設備: 車椅子対応, オストメイト対応",#00cc00,139.509338,35.751762
東久留米市西部地域センター,東京都 東久留米市滝山四丁目1番10号,1F,1階多目的トイレ,"設備: 車椅子対応, おむつ交換台",#00cc00,139.504489,35.744934
東久留米市西部地域センター,東京都 東久留米市滝山四丁目1番10号,2F,2階多目的トイレ,"設備: 車椅子対応, オストメイト対応, おむつ交換台",#00cc00,139.504505,35.744936
東久留米市西部地域センター,東京都 東久留米市滝山四丁目1番10号,3F,3階多目的トイレ,"設備: 車椅子対応, おむつ交換台",#00cc00,139.504489,35.744934
東久留米市南部地域センター,東京都 東久留米市ひばりが丘団地185番地,1F,多目的トイレ,"設備: 車椅子対応, おむつ交換台",#00cc00,139.534367,35.746469
東久留米市東部地域センター,東京都 東久留米市大門町二丁目10番5号,1F,1階多目的トイレ,"設備: 車椅子対応, おむつ交換台",#00cc00,139.541057,35.764784
東久留米市東部地域センター,東京都 東久留米市大門町二丁目10番5号,2F,2階多目的トイレ,"設備: 車椅子対応, おむつ交換台",#00cc00,139.540848,35.764888
東久留米市八幡町地区センター,東京都 東久留米市八幡町二丁目7番61号,1F,身障便所,設備: 車椅子対応,#00cc00,139.515253,35.753627
東久留米市南町地区センター,東京都 東久留米市南町三丁目9番45号,1F,身障者用トイレ,設備: 車椅子対応,#00cc00,139.520218,35.740801
東久留米市中央町地区センター,東京都 東久留米市中央町六丁目1番1号,1F,だれでもトイレ,設備: 車椅子対応,#00cc00,139.519682,35.755885
東久留米市浅間町地区センター,東京都 東久留米市浅間町二丁目２４番１６号,1F,身障者用トイレ,設備: 車椅子対応,#00cc00,139.541777,35.757763
東久留米市野火止地区センター,東京都 東久留米市野火止二丁目１番８３号,1F,身障者用トイレ,設備: 車椅子対応,#00cc00,139.513354,35.763548
わくわく健康プラザ,東京都 東久留米市滝山四丁目3番14号,1F,1階南棟東側車椅子使用者対応トイレ,"小型ベッド、乳幼児用椅子は備えている。但し、共に便所の外に在る。 | 設備: 車椅子対応, おむつ交換台",#00cc00,139.504699,35.742014
わくわく健康プラザ,東京都 東久留米市滝山四丁目3番14号,1F,1階北棟西側車椅子使用者対応トイレ,"小型ベッド、乳幼児用椅子は備えている。但し、共に便所の外に在る。 | 設備: 車椅子対応, おむつ交換台",#00cc00,139.504162,35.742458
わくわく健康プラザ,東京都 東久留米市滝山四丁目3番14号,1F,1階北棟東側車椅子使用者対応トイレ,"小型ベッド、乳幼児用椅子は備えている。但し、共に便所の外に在る。 | 設備: 車椅子対応, おむつ交換台",#00cc00,139.504761,35.742305
わくわく健康プラザ,東京都 東久留米市滝山四丁目3番14号,2F,2階南棟西側車椅子使用者対応トイレ,"小型ベッド、乳幼児用椅子は備えている。但し、共に便所の外に在る。 | 設備: 車椅子対応, おむつ交換台",#00cc00,139.504016,35.742196
わくわく健康プラザ,東京都 東久留米市滝山四丁目3番14号,2F,2階北棟西側車椅子使用者対応トイレ,"小型ベッド、乳幼児用椅子は備えている。但し、共に便所の外に在る。 | 設備: 車椅子対応, おむつ交換台",#00cc00,139.504162,35.742458
東久留米市立中央図書館,東京都 東久留米市中央町二丁目6番23号,1F,１階多目的トイレ,"設備: 車椅子対応, オストメイト対応, おむつ交換台",#00cc00,139.521758,35.755282
東久留米市立中央図書館,東京都 東久留米市中央町二丁目6番23号,2F,２階多目的トイレ,"設備: 車椅子対応, オストメイト対応, おむつ交換台",#00cc00,139.521758,35.755282
東久留米市立生涯学習センター,東京都 東久留米市中央町二丁目6番23号,1F,1階多目的トイレ,"設備: 車椅子対応, オストメイト対応, おむつ交換台",#00cc00,139.522474,35.755456
東久留米市立生涯学習センター,東京都 東久留米市中央町二丁目6番23号,2F,2階多目的トイレ,"設備: 車椅子対応, オストメイト対応, おむつ交換台",#00cc00,139.522474,35.755456
東久留米市立生涯学習センター,東京都 東久留米市中央町二丁目6番23号,B1F,地下1階多目的トイレ,"設備: 車椅子対応, オストメイト対応, おむつ交換台",#00cc00,139.522474,35.755456
東久留米市スポーツセンター,東京都 東久留米市大門町二丁目14番37号,1F,１階だれでもトイレ,設備: 車椅子対応,#00cc00,139.544357,35.762061
東久留米市スポーツセンター,東京都 東久留米市大門町二丁目14番37号,1F,1階多目的トイレ,設備: 車椅子対応,#00cc00,139.544367,35.762045
東久留米市スポーツセンター,東京都 東久留米市大門町二丁目14番37号,2F,２階だれでもトイレ,設備: 車椅子対応,#00cc00,139.544414,35.762025
東久留米市スポーツセンター,東京都 東久留米市大門町二丁目14番37号,2F,2階多目的トイレ,設備: 車椅子対応,#00cc00,139.544428,35.762027
東久留米市スポーツセンター,東京都 東久留米市大門町二丁目14番37号,3F,３階だれでもトイレ,設備: 車椅子対応,#00cc00,139.544415,35.762247
東久留米市スポーツセンター,東京都 東久留米市大門町二丁目14番37号,3F,3階多目的トイレ,設備: 車椅子対応,#00cc00,139.544367,35.762045
白山公園,東京都 東久留米市滝山七丁目24番地,1F,白山公園だれでもトイレ,"設備: 車椅子対応, おむつ交換台",#00cc00,139.502263,35.751091
滝山公園,東京都 東久留米市滝山二丁目4番地,1F,滝山公園,設備: 車椅子対応,#00cc00,139.5095,35.745814
小山台遺跡公園,東京都 東久留米市小山一丁目10番地,1F,小山台遺跡台公園トイレ,"設備: 車椅子対応, おむつ交換台",#00cc00,139.529125,35.764981
神山堂阪公園,東京都 東久留米市神宝町二丁目10番地,1F,神山堂阪公園だれでもトイレ,"設備: 車椅子対応, オストメイト対応",#00cc00,139.54617,35.76999
下里本邑遺跡公園,東京都 東久留米市野火止一丁目12番地,1F,下里本邑遺跡公園だれでもトイレ,設備: 車椅子対応,#00cc00,139.508573,35.761256
西口中央公園,東京都 東久留米市本町一丁目12番地,1F,西口中央公園だれでもトイレ,"設備: 車椅子対応, おむつ交換台",#00cc00,139.534345,35.758743
小山れんげ公園,東京都 東久留米市小山二丁目1番地,1F,小山れんげ公園だれでもトイレ,"設備: 車椅子対応, おむつ交換台",#00cc00,139.528013,35.762059
東口中央公園,東京都 東久留米市新川町一丁目10番地,1F,東口中央公園だれでもトイレ,"設備: 車椅子対応, おむつ交換台",#00cc00,139.535873,35.760622
南沢水辺公園,東京都 東久留米市南沢三丁目4番地,1F,南沢水辺公園だれでもトイレ,"設備: 車椅子対応, おむつ交換台",#00cc00,139.527889,35.753535
さいかちの道,東京都 東久留米市柳窪4-7,1F,多目的トイレ,"設備: 車椅子対応, オストメイト対応, おむつ交換台",#00cc00,139.487739,35.745958
しんやま親水広場,東京都 東久留米市下里4-1,1F,多目的トイレ,"設備: 車椅子対応, おむつ交換台",#00cc00,139.500538,35.753862
竹林公園,東京都 東久留米市南沢一丁目７番,1F,竹林公園トイレ,"設備: 車椅子対応, オストメイト対応",#00cc00,139.534602,35.75444
上の原東公園,東京都 東久留米市上の原二丁目３番,1F,上の原東公園トイレ,"設備: 車椅子対応, オストメイト対応",#00cc00,139.545384,35.772445
東久留米駅西口昇降施設身障者用便所,東京都 東久留米市本町一丁目4番地,1F,東久留米駅西口昇降施設身障者用便所,清掃、施設点検、施設補修時等を除き利用可 | 設備: 車椅子対応,#00cc00,139.533907,35.760148
南町運動広場,東京都 東久留米市南町一丁目8番地,1F,南町運動広場,,#00cc00,139.525504,35.740759
上の原テニスコート,東京都 東久留米市上の原一丁目6番地,1F,上の原テニスコートだれでもトイレ,"当トイレは悪戯防止のためにテニスコート利用がない場合は施錠されています。 | 設備: 車椅子対応, おむつ交換台",#00cc00,139.542943,35.772192
けやき児童館 (東部地域センター　別棟東側),東京都 東久留米市大門町二丁目10番5号,1F,多目的トイレ,設備: 車椅子対応,#00cc00,139.541245,35.764808
子どもセンターひばり,東京都 東久留米市ひばりが丘団地8番地11号,1F,だれでもトイレ,"設備: 車椅子対応, おむつ交換台",#00cc00,139.531604,35.74719
子どもセンターあおぞら,東京都 東久留米市前沢四丁目25番8号,1F,誰でもトイレ,"設備: 車椅子対応, オストメイト対応, おむつ交換台",#00cc00,139.511556,35.74582
東久留米市立中央児童館,東京都 東久留米市中央町一丁目10番11号,1F,誰でもトイレ,"設備: 車椅子対応, オストメイト対応, おむつ交換台",#00cc00,139.524327,35.754914
上の原グラウンド,東京都 東久留米市上の原2-1-4,1F,だれでもトイレ,"設備: 車椅子対応, オストメイト対応, おむつ交換台",#00cc00,139.545554,35.770063
東久留米市立さいわい福祉センター,東京都 東久留米市幸町3-9-28,1F,車イス用トイレ,"設備: 車椅子対応, 大型ベッド, おむつ交換台",#00cc00,139.519197,35.759129
東久留米市立さいわい福祉センター,東京都 東久留米市幸町3-9-28,1F,オストメイト,設備: オストメイト対応,#00cc00,139.519163,35.759097
東久留米市立さいわい福祉センター,東京都 東久留米市幸町3-9-28,2F,車イス用トイレ,"設備: 車椅子対応, 大型ベッド, おむつ交換台",#00cc00,139.519197,35.759129
地域子育てひろば上の原,東京都 東久留米市上の原１−２−４４,1F,トイレ,"設備: 車椅子対応, おむつ交換台",#00cc00,139.541898,35.768571