name,address,floor,toilet_name,note,color,lng,lat
東大和南公園,東京都 東大和市桜が丘三丁目44番地,1F,西多目的トイレ,"設備: 車椅子対応, オストメイト対応, おむつ交換台",#00cc00,139.420752,35.733979
東大和南公園,東京都 東大和市桜が丘二丁目142番地,1F,中央多目的トイレ,"設備: 車椅子対応, オストメイト対応, おむつ交換台",#00cc00,139.421813,35.734761
東大和南公園,東京都 東大和市桜が丘二丁目106番地,1F,東多目的トイレ,"設備: 車椅子対応, オストメイト対応, おむつ交換台",#00cc00,139.424177,35.733517
東大和南公園,東京都 東大和市桜が丘二丁目106番地,1F,サービスセンター多目的トイレ,"利用時間はスポーツ施設更衣室の利用時間に準ずる | 設備: 車椅子対応, オストメイト対応, おむつ交換台",#00cc00,139.424419,35.733499
狭山公園,東京都 東大和市多摩湖四丁目468番地,1F,第5号多目的トイレ,24時間 | 設備: 車椅子対応,#00cc00,139.439745,35.759722
東大和サービスステーション,東京都 東大和市上北台三丁目447番地,1F,１Fだれでもトイレ,"設備: 車椅子対応, オストメイト対応",#00cc00,139.415828,35.741554
北多摩西部消防署,東京都 東大和市上北台1-956-1,1F,車椅子使用者対応トイレ,"設備: 車椅子対応, オストメイト対応, おむつ交換台",#00cc00,139.413359,35.747336
東大和市役所本庁舎 (東大和市役所本庁舎),東京都 東大和市中央三丁目930番地,1F,１階だれでもトイレ,"設備: 車椅子対応, オストメイト対応, 大型ベッド",#00cc00,139.426052,35.745384
東大和市役所本庁舎 (東大和市役所本庁舎),東京都 東大和市中央三丁目930番地,2F,２階だれでもトイレ,"工事中、R6.1月完成予定 | 設備: 車椅子対応, オストメイト対応",#00cc00,139.426405,35.745299
東大和市立中央公民館 (東大和市立中央公民館),東京都 東大和市中央三丁目926番地,1F,１階だれでもトイレ,"設備: 車椅子対応, おむつ交換台",#00cc00,139.42644,35.74452038
東大和市立中央公民館 (東大和市立中央公民館),東京都 東大和市中央三丁目926番地,ホール,ホール誰でもトイレ,"設備: 車椅子対応, オストメイト対応, おむつ交換台",#00cc00,139.253529,35.444097
東大和市立狭山公民館 (東大和市立狭山公民館),東京都 東大和市狭山三丁目1344番1号,1F,１階だれでもトイレ,"設備: 車椅子対応, おむつ交換台",#00cc00,139.4376,35.75579
東大和市立蔵敷公民館 (東大和市立蔵敷公民館),東京都 東大和市蔵敷二丁目337番地,1F,１階だれでもトイレ,"設備: 車椅子対応, おむつ交換台",#00cc00,139.416278,35.754173
東大和市奈良橋市民センター (東大和市奈良橋市民センター),東京都 東大和市奈良橋四丁目600番地,1F,１階だれでもトイレ,１階は施設受付、児童館として運営 | 設備: 車椅子対応,#00cc00,139.425755,35.75246
東大和市奈良橋市民センター (東大和市奈良橋市民センター),東京都 東大和市奈良橋四丁目600番地,2F,２階だれでもトイレ,２階は老人福祉館として運営　休館日：月曜・祝日 | 設備: 車椅子対応,#00cc00,139.425755,35.75246
東大和市奈良橋市民センター (東大和市奈良橋市民センター),東京都 東大和市奈良橋四丁目600番地,3F,３階だれでもトイレ,３階は地区会館(集会施設)として運営　休館日：木曜 | 設備: 車椅子対応,#00cc00,139.425755,35.75246
東大和市上北台市民センター (東大和市上北台市民センター),東京都 東大和市上北台二丁目865番9号,1F,１階だれでもトイレ,１階は施設受付、老人福祉館として運営　老人福祉館の休館日：月曜 | 設備: 車椅子対応,#00cc00,139.414666,35.742902
東大和市上北台市民センター (東大和市上北台市民センター),東京都 東大和市上北台二丁目865番9号,2F,２階だれでもトイレ,"２階は児童館として運営　休館日：日曜・祝日 | 設備: 車椅子対応, 大型ベッド",#00cc00,139.414666,35.742902
東大和市上北台市民センター (東大和市上北台市民センター),東京都 東大和市上北台二丁目865番9号,3F,３階だれでもトイレ,３階は上北台公民館として運営　休館日：月曜 | 設備: 車椅子対応,#00cc00,139.414666,35.742902
東大和市桜が丘市民センター (東大和市桜が丘市民センター),東京都 東大和市桜が丘三丁目44番13号,1F,１階だれでもトイレ,１階は施設受付、児童館・集会所として運営 | 設備: 車椅子対応,#00cc00,139.420303,35.734335
東大和市桜が丘市民センター (東大和市桜が丘市民センター),東京都 東大和市桜が丘三丁目44番13号,2F,２階だれでもトイレ,２階は図書館・集会所として運営 | 設備: 車椅子対応,#00cc00,139.420301,35.73444
東大和市清原市民センター,東京都 東大和市清原四丁目1番16号,1F,１階多目的トイレ,"利用できる時間は、施設の休館日を除きます。年末年始及び施設の保守点検日が該当します。 | 設備: 車椅子対応, おむつ交換台",#00cc00,139.447282,35.740873
東大和市向原市民センター (東大和市向原市民センター),東京都 東大和市向原三丁目10番地,1F,１階西側だれでもトイレ,"西側は児童館として運営　休館日：日曜・祝日 | 設備: 車椅子対応, おむつ交換台",#00cc00,139.436537,35.740607
東大和市向原市民センター (東大和市向原市民センター),東京都 東大和市向原三丁目10番地,1F,１階東側だれでもトイレ,東側は地区会館(集会施設)・老人福祉館として運営 | 設備: 車椅子対応,#00cc00,139.437047,35.740615
東大和市南街市民センター,東京都 東大和市南街五丁目32番地,1F,１階だれでもトイレ,"１階は施設受付、児童館として運営　児童館休館日：日曜・祝日 | 設備: 車椅子対応, おむつ交換台",#00cc00,139.431597,35.737256
東大和市南街市民センター,東京都 東大和市南街五丁目32番地,2F,２階だれでもトイレ,"２階は南街公民館として運営　休館日：月曜 | 設備: 車椅子対応, おむつ交換台",#00cc00,139.431597,35.737256
東大和市立保健センター,東京都 東大和市中央三丁目918番1号,1F,１階だれでもトイレ,"設備: 車椅子対応, おむつ交換台",#00cc00,139.427504,35.745728
東大和市立中央図書館 (東大和市立中央図書館),東京都 東大和市中央三丁目930番地,1F,１階バリアフリートイレ,"設備: 車椅子対応, オストメイト対応, おむつ交換台",#00cc00,139.427135,35.744823
東大和市立中央図書館 (東大和市立中央図書館),東京都 東大和市中央三丁目930番地,2F,２階バリアフリートイレ,"設備: 車椅子対応, オストメイト対応",#00cc00,139.427036,35.744783
郷土博物館,東京都 東大和市奈良橋1-260-2,1F,特に名称はありません,設備: 車椅子対応,#00cc00,139.422825,35.755095
東大和市民会館（ハミングホール）,東京都 東大和市向原6-1,B1F,地下１階だれでもトイレ,"設備: 車椅子対応, おむつ交換台",#00cc00,139.434384,35.738646
東大和市民会館（ハミングホール）,東京都 東大和市向原6-1,1F,１階楽屋前だれでもトイレ,設備: 車椅子対応,#00cc00,139.434208,35.738577
東大和市民会館（ハミングホール）,東京都 東大和市向原6-1,1F,１階小ホール側だれでもトイレ,設備: 車椅子対応,#00cc00,139.434206,35.738926
東大和市民会館（ハミングホール）,東京都 東大和市向原6-1,1F,１階大ホール側だれでもトイレ,設備: 車椅子対応,#00cc00,139.434384,35.738646
東大和市民会館（ハミングホール）,東京都 東大和市向原6-1,2F,２階だれでもトイレ,設備: 車椅子対応,#00cc00,139.434223,35.738645
桜が丘市民広場,東京都 東大和市桜が丘2-142-9,1F,管理棟だれでもトイレ,"設備: 車椅子対応, オストメイト対応, 大型ベッド, おむつ交換台",#00cc00,139.425575,35.735115
清原中央公園,東京都 東大和市清原1-1213-1外,1F,誰でもトイレ北東側,"設備: 車椅子対応, オストメイト対応, おむつ交換台",#00cc00,139.4484305,35.74330703
清原中央公園,東京都 東大和市清原1-1213-1外,1F,誰でもトイレ南西側,"設備: 車椅子対応, おむつ交換台",#00cc00,139.4477845,35.74363659
きよはら児童館 (都営東京街道アパート北１７号棟),東京都 東大和市清原二丁目1番,1F,だれでもトイレ,設備: 車椅子対応,#00cc00,139.446926,35.743095
市民プール,東京都 東大和市桜が丘2-167-13,1F,管理棟だれでもトイレ,設備: 車椅子対応,#00cc00,139.4215,35.736617
市民体育館 (市民体育館),東京都 東大和市桜が丘2-167-13,B1F,地下１階だれでもトイレ,設備: 車椅子対応,#00cc00,139.421302,35.735873
市民体育館 (市民体育館),東京都 東大和市桜が丘2-167-13,1F,１階だれでもトイレ,"設備: 車椅子対応, おむつ交換台",#00cc00,139.421302,35.735873
市民体育館 (市民体育館),東京都 東大和市桜が丘2-167-13,2F,２階だれでもトイレ,設備: 車椅子対応,#00cc00,139.421302,35.735873