name,address,floor,toilet_name,note,color,lng,lat
玉川上水緑道,東京都 武蔵野市境南町三丁目63番6号,1F,桜橋トイレ,"設備: 車椅子対応, おむつ交換台",#00cc00,139.543974,35.709387
井の頭恩賜公園,東京都 武蔵野市御殿山一丁目19番,1F,10号駐車場便所（女性用）,"改修工事中 | 設備: 車椅子対応, オストメイト対応, おむつ交換台",#00cc00,139.571379,35.699434
井の頭恩賜公園,東京都 武蔵野市御殿山一丁目18番地,1F,1号便所,"常時使用可 | 設備: 車椅子対応, オストメイト対応, おむつ交換台",#00cc00,139.573718,35.700648
井の頭恩賜公園,東京都 武蔵野市御殿山一丁目18番,1F,案内所便所,設備: 車椅子対応,#00cc00,139.574472,35.700846
井の頭恩賜公園,東京都 武蔵野市御殿山一丁目19番,1F,10号便所,"設備: 車椅子対応, オストメイト対応, おむつ交換台",#00cc00,139.571345,35.699428
小金井公園,東京都 武蔵野市桜堤三丁目,1F,スポーツ施設管理センター内,"施設利用者のみ。6、7月は9:00〜19:00。12/31〜1/3休。 | 設備: 車椅子対応, おむつ交換台",#00cc00,139.527767,35.71404
小金井公園,東京都 武蔵野市桜堤三丁目,1F,第2駐車場トイレ,設備: 車椅子対応,#00cc00,139.526692,35.713908
武蔵野中央公園,東京都 武蔵野市八幡町二丁目4番,1F,西多目的トイレ,"設備: 車椅子対応, オストメイト対応, おむつ交換台",#00cc00,139.556673,35.718037
武蔵野中央公園,東京都 武蔵野市八幡町二丁目4番,1F,中央多目的トイレ,"設備: 車椅子対応, オストメイト対応, おむつ交換台",#00cc00,139.558496,35.717275
武蔵野中央公園,東京都 武蔵野市八幡町二丁目4番,1F,東多目的トイレ,"設備: 車椅子対応, オストメイト対応, おむつ交換台",#00cc00,139.560332,35.719302
井の頭自然文化園,東京都 武蔵野市御殿山一丁目17番6号,1F,正門先トイレ1,"利用は開園スケジュールに基づく（休園日は利用不可） | 設備: 車椅子対応, オストメイト対応, 大型ベッド",#00cc00,139.572365,35.701015
井の頭自然文化園,東京都 武蔵野市御殿山一丁目17番6号,1F,正門先トイレ2,"利用は開園スケジュールに基づく（休園日は利用不可） | 設備: 車椅子対応, 大型ベッド",#00cc00,139.572365,35.701015
井の頭自然文化園,東京都 武蔵野市御殿山一丁目17番6号,1F,ぶらんこ広場トイレ,"利用は開園スケジュールに基づく（休園日は利用不可） | 設備: 車椅子対応, おむつ交換台",#00cc00,139.571377,35.700359
井の頭自然文化園,東京都 武蔵野市御殿山一丁目17番6号,1F,リスの小径横トイレ,"利用は開園スケジュールに基づく（休園日は利用不可） | 設備: 車椅子対応, オストメイト対応, 大型ベッド",#00cc00,139.56985,35.701206
井の頭自然文化園,東京都 武蔵野市御殿山一丁目17番6号,1F,芝生広場トイレ,"利用は開園スケジュールに基づく（休園日は利用不可） | 設備: 車椅子対応, おむつ交換台",#00cc00,139.570267,35.702242
井の頭自然文化園,東京都 武蔵野市御殿山一丁目17番6号,1F,彫刻館Ｂ館トイレ,"利用は開園スケジュールに基づく（休園日は利用不可） | 設備: 車椅子対応, おむつ交換台",#00cc00,139.569227,35.700425
武蔵野消防署,東京都 武蔵野市吉祥寺北町四丁目6番1号,2F,だれでもトイレ,"設備: 車椅子対応, オストメイト対応, おむつ交換台",#00cc00,139.567311,35.71165
武蔵野消防署武蔵境出張所,東京都 武蔵野市境南町一丁目26番38号,1F,多機能トイレ,"設備: 車椅子対応, オストメイト対応, おむつ交換台",#00cc00,139.546944,35.695988
武蔵野消防署吉祥寺出張所,東京都 武蔵野市吉祥寺北町四丁目6番1号,1F,だれでもトイレ,"設備: 車椅子対応, オストメイト対応, おむつ交換台",#00cc00,139.58012,35.707205
武蔵野市役所本庁舎,東京都 武蔵野市緑町二丁目2番28号,1F,１階車椅子使用者対応トイレ,"設備: 車椅子対応, オストメイト対応, おむつ交換台",#00cc00,139.566017,35.717857
武蔵野市役所本庁舎,東京都 武蔵野市緑町二丁目2番28号,7F,７階車椅子使用者対応トイレ,"設備: 車椅子対応, オストメイト対応, 大型ベッド, おむつ交換台",#00cc00,139.565918,35.717629
武蔵野市役所本庁舎,東京都 武蔵野市緑町二丁目2番28号,8F,８階車椅子使用者対応トイレ,"設備: 車椅子対応, オストメイト対応, おむつ交換台",#00cc00,139.566017,35.717857
中央市政センター,東京都 武蔵野市中町一丁目2番8号,1F,フロア内だれでもトイレ,"設備: 車椅子対応, オストメイト対応, おむつ交換台",#00cc00,139.559772,35.7037
吉祥寺市政センター,東京都 武蔵野市吉祥寺本町一丁目10番7号,2F,フロア内だれでもトイレ,"設備: 車椅子対応, おむつ交換台",#00cc00,139.578917,35.705776
武蔵野市立武蔵野商工会館 (武蔵野市立武蔵野商工会館),東京都 武蔵野市吉祥寺本町一丁目10番7号,1F,1階車イス用トイレ,"設備: 車椅子対応, オストメイト対応, おむつ交換台",#00cc00,139.578978,35.705759
武蔵野市立武蔵野商工会館 (武蔵野市立武蔵野商工会館),東京都 武蔵野市吉祥寺本町一丁目10番7号,2F,2階車イス用トイレ,"設備: 車椅子対応, おむつ交換台",#00cc00,139.578929,35.705778
武蔵野市立武蔵野商工会館 (武蔵野市立武蔵野商工会館),東京都 武蔵野市吉祥寺本町一丁目10番7号,3F,3階車イス用トイレ,"設備: 車椅子対応, おむつ交換台",#00cc00,139.578929,35.705778
武蔵野市立武蔵野商工会館 (武蔵野市立武蔵野商工会館),東京都 武蔵野市吉祥寺本町一丁目10番7号,4F,4階車イス用トイレ,"設備: 車椅子対応, おむつ交換台",#00cc00,139.578929,35.705778
武蔵野市立武蔵野商工会館 (武蔵野市立武蔵野商工会館),東京都 武蔵野市吉祥寺本町一丁目10番7号,5F,5階車イス用トイレ,"設備: 車椅子対応, おむつ交換台",#00cc00,139.578929,35.705778
武蔵野市立武蔵野商工会館 (武蔵野市立武蔵野商工会館),東京都 武蔵野市吉祥寺本町一丁目10番7号,6F,6階車イス用トイレ,"設備: 車椅子対応, おむつ交換台",#00cc00,139.578929,35.705778
吉祥寺東コミュニティセンター,東京都 武蔵野市吉祥寺東町一丁目12番6号,1F,ファミリートイレ,"設備: 車椅子対応, おむつ交換台",#00cc00,139.58403,35.707681
本宿コミュニティセンター,東京都 武蔵野市吉祥寺東町三丁目25番2号,1F,ファミリートイレ,"設備: 車椅子対応, おむつ交換台",#00cc00,139.590046,35.704047
吉祥寺南町コミュニティセンター,東京都 武蔵野市吉祥寺南町三丁目13番1号,1F,1階車椅子兼用トイレ,"設備: 車椅子対応, オストメイト対応, おむつ交換台",#00cc00,139.586628,35.699206
吉祥寺南町コミュニティセンター,東京都 武蔵野市吉祥寺南町三丁目13番1号,B1F,地下1階車椅子兼用トイレ,"設備: 車椅子対応, オストメイト対応, おむつ交換台",#00cc00,139.586628,35.699206
御殿山コミュニティセンター,東京都 武蔵野市御殿山一丁目5番11号,1F,車椅子兼用トイレ,"設備: 車椅子対応, オストメイト対応, おむつ交換台",#00cc00,139.57583,35.702284
本町コミュニティセンター,東京都 武蔵野市吉祥寺本町一丁目22番2号,1F,車椅子兼用トイレ,"設備: 車椅子対応, おむつ交換台",#00cc00,139.581971,35.704455
吉祥寺西コミュニティセンター,東京都 武蔵野市吉祥寺本町三丁目20番17号,1F,車椅子兼用トイレ,"設備: 車椅子対応, おむつ交換台",#00cc00,139.570014,35.705789
吉祥寺北コミュニティセンター,東京都 武蔵野市吉祥寺北町一丁目22番10号,1F,多目的トイレ,"設備: 車椅子対応, オストメイト対応, おむつ交換台",#00cc00,139.578005,35.712271
けやきコミュニティセンター,東京都 武蔵野市吉祥寺北町五丁目6番19号,1F,車椅子兼用トイレ,"設備: 車椅子対応, おむつ交換台",#00cc00,139.571726,35.717833
中央コミュニティセンター,東京都 武蔵野市中町三丁目5番17号,1F,車椅子兼用トイレ,"設備: 車椅子対応, オストメイト対応",#00cc00,139.564999,35.711135
西久保コミュニティセンター,東京都 武蔵野市西久保一丁目23番7号,1F,1階車椅子兼用トイレ,設備: 車椅子対応,#00cc00,139.556916,35.705981
西久保コミュニティセンター,東京都 武蔵野市西久保一丁目23番7号,2F,2階車椅子兼用トイレ,設備: 車椅子対応,#00cc00,139.556916,35.705981
西久保コミュニティセンター,東京都 武蔵野市西久保一丁目23番7号,B1F,地下1階車椅子兼用トイレ,"設備: 車椅子対応, オストメイト対応, おむつ交換台",#00cc00,139.556916,35.705981
緑町コミュニティセンター,東京都 武蔵野市緑町三丁目1番17号,1F,車椅子兼用トイレ,"設備: 車椅子対応, おむつ交換台",#00cc00,139.565766,35.720033
八幡町コミュニティセンター,東京都 武蔵野市八幡町三丁目3番3号,1F,1階車椅子兼用トイレ,"設備: 車椅子対応, オストメイト対応, おむつ交換台",#00cc00,139.552463,35.71699
八幡町コミュニティセンター,東京都 武蔵野市八幡町三丁目3番4号,2F,2階車椅子兼用トイレ,"設備: 車椅子対応, おむつ交換台",#00cc00,139.552392,35.716983
関前コミュニティセンター,東京都 武蔵野市関前二丁目26番10号,1F,車椅子兼用トイレ,"設備: 車椅子対応, おむつ交換台",#00cc00,139.549135,35.712854
西部コミュニティセンター,東京都 武蔵野市境南町五丁目6番20号,1F,1階車椅子兼用トイレ,"設備: 車椅子対応, おむつ交換台",#00cc00,139.535561,35.706446
西部コミュニティセンター,東京都 武蔵野市境南町五丁目6番20号,B1F,地下1階車椅子兼用トイレ,"設備: 車椅子対応, おむつ交換台",#00cc00,139.535581,35.706446
桜堤コミュニティセンター,東京都 武蔵野市桜堤三丁目3番11号,1F,車椅子兼用トイレ,"設備: 車椅子対応, おむつ交換台",#00cc00,139.528861,35.714848
市民会館,東京都 武蔵野市境二丁目３番７号,1F,だれでもトイレ,設備: 車椅子対応,#00cc00,139.543419,35.70527
市民会館,東京都 武蔵野市境二丁目３番７号,1F,だれでもトイレ,"設備: 車椅子対応, おむつ交換台",#00cc00,139.543419,35.705288
市民会館,東京都 武蔵野市境二丁目３番７号,2F,だれでもトイレ,設備: 車椅子対応,#00cc00,139.543419,35.70527
市民会館,東京都 武蔵野市境二丁目３番７号,2F,だれでもトイレ,設備: 車椅子対応,#00cc00,139.543419,35.705288
市民会館,東京都 武蔵野市境二丁目３番７号,B1F,だれでもトイレ,設備: 車椅子対応,#00cc00,139.543419,35.70527
市民会館,東京都 武蔵野市境二丁目３番７号,B1F,だれでもトイレ,設備: 車椅子対応,#00cc00,139.543419,35.705288
境南コミュニティセンター,東京都 武蔵野市境南町三丁目22番9号,1F,車椅子兼用トイレ,"設備: 車椅子対応, オストメイト対応, おむつ交換台",#00cc00,139.540109,35.698249
武蔵野市立保健センター (武蔵野市立保健センター),東京都 武蔵野市吉祥寺北町四丁目8番10号,1F,1階だれでもトイレ,設備: 車椅子対応,#00cc00,139.566532,35.712866
武蔵野市立保健センター (武蔵野市立保健センター),東京都 武蔵野市吉祥寺北町四丁目8番10号,2F,2階だれでもトイレ,"設備: 車椅子対応, おむつ交換台",#00cc00,139.566532,35.712866
武蔵野市立保健センター (武蔵野市立保健センター),東京都 武蔵野市吉祥寺北町四丁目8番10号,3F,3階だれでもトイレ,"設備: 車椅子対応, おむつ交換台",#00cc00,139.566532,35.712866
武蔵野市立保健センター (武蔵野市立保健センター),東京都 武蔵野市吉祥寺北町四丁目8番10号,B1F,地下1階だれでもトイレ,"設備: 車椅子対応, オストメイト対応",#00cc00,139.566532,35.712866
武蔵野市立中央図書館,東京都 武蔵野市吉祥寺北町四丁目8番3号,1F,１階だれでもトイレ,"金曜日休館 | 設備: 車椅子対応, おむつ交換台",#00cc00,139.566331,35.712507
武蔵野市立中央図書館,東京都 武蔵野市吉祥寺北町四丁目8番3号,2F,２階だれでもトイレ,金曜日休館 | 設備: 車椅子対応,#00cc00,139.566331,35.712507
武蔵野市立中央図書館,東京都 武蔵野市吉祥寺北町四丁目8番3号,3F,３階だれでもトイレ,金曜日休館 | 設備: 車椅子対応,#00cc00,139.566319,35.712482
武蔵野市立吉祥寺図書館,東京都 武蔵野市吉祥寺本町一丁目21番13号,1F,１階多目的トイレ,"水曜日休館（祝日と重なる場合は開館し、翌日は休館） | 設備: 車椅子対応, オストメイト対応",#00cc00,139.582381,35.70501
武蔵野プレイス（図書館、会議出、スタジオ等複合施設）,東京都 武蔵野市境南町二丁目3番18号,1F,1階だれでもトイレ,"設備: 車椅子対応, おむつ交換台",#00cc00,139.543796,35.701022
武蔵野プレイス（図書館、会議出、スタジオ等複合施設）,東京都 武蔵野市境南町二丁目3番18号,2F,2階だれでもトイレ,"設備: 車椅子対応, おむつ交換台",#00cc00,139.543796,35.701022
武蔵野プレイス（図書館、会議出、スタジオ等複合施設）,東京都 武蔵野市境南町二丁目3番18号,3F,3階だれでもトイレ,設備: 車椅子対応,#00cc00,139.543796,35.701022
武蔵野プレイス（図書館、会議出、スタジオ等複合施設）,東京都 武蔵野市境南町二丁目3番18号,4F,4階だれでもトイレ,"設備: 車椅子対応, オストメイト対応, 大型ベッド",#00cc00,139.543762,35.701094
武蔵野プレイス（図書館、会議出、スタジオ等複合施設）,東京都 武蔵野市境南町二丁目3番18号,B1F,地下1階だれでもトイレ,"設備: 車椅子対応, おむつ交換台",#00cc00,139.543796,35.701022
武蔵野プレイス（図書館、会議出、スタジオ等複合施設）,東京都 武蔵野市境南町二丁目3番18号,B2F,地下2階だれでもトイレ,設備: 車椅子対応,#00cc00,139.543796,35.701022
武蔵野三鷹地域センター,東京都 武蔵野市西久保三丁目1番22号,1F,1階だれでもトイレ,"設備: 車椅子対応, おむつ交換台",#00cc00,139.562684,35.710772
武蔵野ふるさと歴史館,東京都 武蔵野市境五丁目15番５号,1F,だれでもトイレ,設備: おむつ交換台,#00cc00,139.53473,35.702255
武蔵野市民文化会館,東京都 武蔵野市中町三丁目9番11号,1F,1階西側トイレ,"設備: 車椅子対応, オストメイト対応, 大型ベッド",#00cc00,139.56572,35.711548
武蔵野市民文化会館,東京都 武蔵野市中町三丁目9番11号,1F,1階大ホールだれでもトイレ,"設備: 車椅子対応, おむつ交換台",#00cc00,139.565666,35.711465
武蔵野市民文化会館,東京都 武蔵野市中町三丁目9番11号,2F,2階小ホールだれでもトイレ,"設備: 車椅子対応, おむつ交換台",#00cc00,139.566195,35.71161
武蔵野スイングホール,東京都 武蔵野市境南町二丁目14番1号,10F,スイングホール10階だれでもトイレ,"設備: 車椅子対応, おむつ交換台",#00cc00,139.542911,35.702512
武蔵野スイングホール,東京都 武蔵野市境南町二丁目14番1号,2F,スイングホール２階だれでもトイレ,"設備: 車椅子対応, オストメイト対応, おむつ交換台",#00cc00,139.542946,35.702845
武蔵野芸能劇場,東京都 武蔵野市中町一丁目15番10号,1F,１階多目的トイレ,"設備: 車椅子対応, オストメイト対応, おむつ交換台",#00cc00,139.561613,35.703173
武蔵野芸能劇場,東京都 武蔵野市中町一丁目15番10号,3F,3階多目的トイレ,"設備: 車椅子対応, おむつ交換台",#00cc00,139.561405,35.703105
武蔵野公会堂,東京都 武蔵野市吉祥寺南町一丁目6番22号,1F,名称なし(ホール１階　ロビー内),"設備: 車椅子対応, オストメイト対応, おむつ交換台",#00cc00,139.579636,35.701542
吉祥寺シアター,東京都 武蔵野市吉祥寺本町一丁目33番22号,1F,だれでもトイレ,"設備: 車椅子対応, おむつ交換台",#00cc00,139.583314,35.703833
かたらいの道市民スペース,東京都 武蔵野市中町一丁目11番16号,1F,だれでもトイレ,"設備: 車椅子対応, オストメイト対応, 大型ベッド, おむつ交換台",#00cc00,139.561509,35.705025
武蔵野市立吉祥寺美術館,東京都 武蔵野市吉祥寺本町一丁目8番16号,7F,武蔵野市立吉祥寺美術館だれでもトイレ,"設備: 車椅子対応, おむつ交換台",#00cc00,139.579048,35.704803
西久保公園,東京都 武蔵野市西久保一丁目43番地,1F,西久保公園だれでもトイレ,"設備: 車椅子対応, オストメイト対応, 大型ベッド",#00cc00,139.553659,35.705974
むさしの市民公園,東京都 武蔵野市緑町二丁目2番地,1F,むさしの市民公園だれでもトイレ,"設備: 車椅子対応, おむつ交換台",#00cc00,139.565725,35.716678
関前公園,東京都 武蔵野市関前三丁目14番地,1F,関前公園だれでもトイレ,設備: 車椅子対応,#00cc00,139.554647,35.713294
市民の森公園,東京都 武蔵野市関前三丁目32番地・35番地,1F,市民の森公園だれでもトイレ,設備: 車椅子対応,#00cc00,139.550758,35.714122
農業ふれあい公園,東京都 武蔵野市関前五丁目19番、18番（拡充部分）,1F,農業ふれあい公園だれでもトイレ,設備: 車椅子対応,#00cc00,139.540131,35.711103
本田東公園,東京都 武蔵野市吉祥寺東町四丁目18番地,1F,本田東公園だれでもトイレ,"設備: 車椅子対応, オストメイト対応, 大型ベッド, おむつ交換台",#00cc00,139.594095,35.703961
玉川上水緑道,東京都 武蔵野市境南町三丁目6番地先,1F,玉川上水緑道だれでもトイレ,"設備: 車椅子対応, おむつ交換台",#00cc00,139.543973,35.709382
大野田公園,東京都 武蔵野市吉祥寺北町四丁目11番地内,1F,大野田公園誰でもトイレ,"設備: 車椅子対応, オストメイト対応",#00cc00,139.566932,35.714489
吉祥寺東町農業公園,東京都 武蔵野市吉祥寺東町三丁目15番地内,1F,吉祥寺東町農業公園誰でもトイレ,"設備: 車椅子対応, オストメイト対応",#00cc00,139.587998,35.704356
吉祥寺駅南口公衆トイレ,東京都 武蔵野市吉祥寺南町二丁目2番,1F,吉祥寺駅南口公衆トイレ,"設備: 車椅子対応, オストメイト対応, 大型ベッド, おむつ交換台",#00cc00,139.58025,35.70238
三鷹駅北口公衆トイレ,東京都 武蔵野市中町一丁目14番,1F,三鷹駅北口公衆トイレ,"設備: 車椅子対応, オストメイト対応, おむつ交換台",#00cc00,139.561023,35.702906
武蔵境駅南口公衆トイレ,東京都 武蔵野市境南町二丁目3番,1F,武蔵境駅南口公衆トイレ（バリアフリートイレ）,"設備: 車椅子対応, オストメイト対応, 大型ベッド",#00cc00,139.543605,35.701798
武蔵境駅南口公衆トイレ,東京都 武蔵野市境南町二丁目3番,1F,武蔵境駅南口公衆トイレ（こどもと一緒に使えるトイレ）,"設備: 車椅子対応, おむつ交換台",#00cc00,139.543605,35.701798
桜堤公衆トイレ,東京都 武蔵野市桜堤二丁目1番,1F,桜堤公衆トイレ,"設備: 車椅子対応, おむつ交換台",#00cc00,139.533012,35.70927
武蔵野総合体育館,東京都 武蔵野市吉祥寺北町五丁目11番20号,1F,だれでもトイレ,"設備: 車椅子対応, オストメイト対応",#00cc00,139.567535,35.717939
武蔵野総合体育館,東京都 武蔵野市吉祥寺北町五丁目11番20号,2F,だれでもトイレ,設備: 車椅子対応,#00cc00,139.567273,35.717303
武蔵野総合体育館,東京都 武蔵野市吉祥寺北町五丁目11番20号,3F,だれでもトイレ,設備: 車椅子対応,#00cc00,139.567516,35.717662
武蔵野総合体育館,東京都 武蔵野市吉祥寺北町五丁目11番20号,4F,だれでもトイレ,設備: 車椅子対応,#00cc00,139.567498,35.717577
武蔵野陸上競技場,東京都 武蔵野市吉祥寺北町五丁目11番20号,1F,だれでもトイレ,"設備: 車椅子対応, オストメイト対応, おむつ交換台",#00cc00,139.567755,35.717743
武蔵野クリーンセンター,東京都 武蔵野市緑町三丁目1番5号,管理棟1F,,"設備: 車椅子対応, おむつ交換台",#00cc00,139.566081,35.719095
武蔵野クリーンセンター,東京都 武蔵野市緑町三丁目1番5号,管理棟2F,,"設備: 車椅子対応, オストメイト対応",#00cc00,139.566081,35.719095
武蔵野クリーンセンター,東京都 武蔵野市緑町三丁目1番5号,工場棟2F,,設備: 車椅子対応,#00cc00,139.566568,35.718439