name,address,floor,toilet_name,note,color,lng,lat
福生消防署,東京都 福生市大字福生１０７２番地,1F,誰でもトイレ,"設備: 車椅子対応, オストメイト対応, おむつ交換台",#00cc00,139.324547,35.744017
福生市役所本庁舎,東京都 福生市本町5番地,1F,第１棟１階車椅子使用者対応トイレ,"設備: 車椅子対応, オストメイト対応, おむつ交換台",#00cc00,139.327049,35.738431
福生市役所本庁舎,東京都 福生市本町5番地,1F,第２棟１階車椅子使用者対応トイレ,"設備: 車椅子対応, オストメイト対応, おむつ交換台",#00cc00,139.326424,35.738959
福生市役所本庁舎,東京都 福生市本町5番地,2F,第１棟２階車椅子使用者対応トイレ,"設備: 車椅子対応, オストメイト対応, おむつ交換台",#00cc00,139.32702,35.738482
福生市役所本庁舎,東京都 福生市本町5番地,2F,第２棟２階車椅子使用者対応トイレ,"設備: 車椅子対応, オストメイト対応, おむつ交換台",#00cc00,139.326536,35.738837
福生市役所本庁舎,東京都 福生市本町5番地,3F,第１棟３階車椅子使用者対応トイレ,"設備: 車椅子対応, オストメイト対応, おむつ交換台",#00cc00,139.32702,35.738482
福生市役所本庁舎,東京都 福生市本町5番地,3F,第２棟３階車椅子使用者対応トイレ,"設備: 車椅子対応, オストメイト対応, おむつ交換台",#00cc00,139.326536,35.738837
福生市役所本庁舎,東京都 福生市本町5番地,4F,第１棟４階車椅子使用者対応トイレ,"設備: 車椅子対応, オストメイト対応, おむつ交換台",#00cc00,139.32702,35.738482
福生市役所本庁舎,東京都 福生市本町5番地,4F,第２棟４階車椅子使用者対応トイレ,"設備: 車椅子対応, オストメイト対応, おむつ交換台",#00cc00,139.326536,35.738837
福生市役所本庁舎,東京都 福生市本町5番地,5F,第１棟５階車椅子使用者対応トイレ,"設備: 車椅子対応, オストメイト対応, おむつ交換台",#00cc00,139.32702,35.738482
福生市役所本庁舎,東京都 福生市本町5番地,5F,第２棟５階車椅子使用者対応トイレ,"設備: 車椅子対応, オストメイト対応, おむつ交換台",#00cc00,139.326536,35.738837
福生市役所本庁舎,東京都 福生市本町5番地,B1F,第１棟地下車椅子使用者対応トイレ,"設備: 車椅子対応, オストメイト対応, おむつ交換台",#00cc00,139.327039,35.738449
福生市もくせい会館,東京都 福生市本町18番地,1F,1階車椅子使用者対応トイレ,"設備: 車椅子対応, オストメイト対応, おむつ交換台",#00cc00,139.327268,35.738964
白梅会館,東京都 福生市大字熊川559番地1号,1F,1階車椅子使用者対応トイレ,"設備: 車椅子対応, おむつ交換台",#00cc00,139.337642,35.724161
松林会館,東京都 福生市武蔵野台一丁目15番1号,1F,1階車椅子使用者対応トイレ,設備: 車椅子対応,#00cc00,139.332484,35.746452
さくら会館,東京都 福生市牛浜163番地,1F,1階車椅子使用者対応トイレ,"設備: 車椅子対応, おむつ交換台",#00cc00,139.337251,35.733772
かえで会館,東京都 福生市加美平一丁目20番6号,1F,車椅子使用者対応トイレ,"設備: 車椅子対応, おむつ交換台",#00cc00,139.32541,35.750408
福東会館,東京都 福生市大字熊川1662番地7号,1F,身障者便所,設備: 車椅子対応,#00cc00,139.345902,35.722486
扶桑会館,東京都 福生市本町92番地５,1F,車椅子トイレ,設備: 車椅子対応,#00cc00,139.326319,35.740759
扶桑会館,東京都 福生市本町92番地５,2F,車椅子使用者対応トイレ,"設備: 車椅子対応, オストメイト対応, おむつ交換台",#00cc00,139.326329,35.740734
福生市保健センター,東京都 福生市大字福生2125番地3号,1F,車椅子使用者対応トイレ,"設備: 車椅子対応, おむつ交換台",#00cc00,139.334302,35.744267
福生市立中央図書館 (福生市郷土資料室),東京都 福生市大字熊川850番地1,1F,車椅子使用者対応トイレ,"令和6年1月下旬まで改修工事のため休館中 | 設備: 車椅子対応, おむつ交換台",#00cc00,139.3374,35.732037
福生市わかぎり会館・図書館,東京都 福生市大字福生1280番地1,1F,車椅子使用者対応トイレ,"設備: 車椅子対応, オストメイト対応, おむつ交換台",#00cc00,139.32078,35.746218
福生市立わかたけ会館・図書館,東京都 福生市大字熊川199番地1,1F,車椅子使用者対応トイレ,"設備: 車椅子対応, オストメイト対応, おむつ交換台",#00cc00,139.335083,35.718175
福生市立武蔵野台図書館,東京都 福生市武蔵野台一丁目12番地2,3F,車椅子使用者対応トイレ,設備: 車椅子対応,#00cc00,139.333935,35.746757
福生市民会館,東京都 福生市大字福生2455番地,1F,ロビー車椅子使用者対応トイレ,"設備: 車椅子対応, オストメイト対応, 大型ベッド",#00cc00,139.337832,35.734178
福生市民会館,東京都 福生市大字福生2455番地,1F,大ホールホワイエ車椅子使用者対応トイレ（女子側）,設備: 車椅子対応,#00cc00,139.33776,35.733711
福生市民会館,東京都 福生市大字福生2455番地,1F,大ホールホワイエ車椅子使用者対応トイレ（男子側）,設備: 車椅子対応,#00cc00,139.337726,35.733854
福生市民会館,東京都 福生市大字福生2455番地,1F,大ホール袖口車椅子使用者対応トイレ,設備: 車椅子対応,#00cc00,139.337918,35.733963
福生市民会館,東京都 福生市大字福生2455番地,2F,2階車椅子使用者対応トイレ,"設備: 車椅子対応, おむつ交換台",#00cc00,139.337857,35.733982
福生市民会館,東京都 福生市大字福生2455番地,3F,3階車椅子使用者対応トイレ,"設備: 車椅子対応, おむつ交換台",#00cc00,139.337857,35.733982
茶室福庵,東京都 福生市大字熊川854番地3号,1F,車椅子使用者対応トイレ,設備: 車椅子対応,#00cc00,139.337537,35.732597
プチギャラリー,東京都 福生市大字福生1014番地10号,2F,車椅子使用者対応トイレ,"設備: 車椅子対応, おむつ交換台",#00cc00,139.327689,35.742342
熊川公園,東京都 福生市大字熊川660番地,1F,車椅子使用者対応トイレ,設備: 車椅子対応,#00cc00,139.334279,35.723912
もくせい公園,東京都 福生市大字福生2148番地,1F,車椅子使用者対応トイレ,設備: 車椅子対応,#00cc00,139.335737,35.743277
加美平北公園,東京都 福生市加美平二丁目12番地,1F,車椅子使用者対応トイレ,"設備: 車椅子対応, おむつ交換台",#00cc00,139.323358,35.750081
加美平南公園,東京都 福生市加美平三丁目10番地,1F,車椅子使用者対応トイレ,設備: 車椅子対応,#00cc00,139.324396,35.746586
東町公園,東京都 福生市東町8番地2号,1F,車椅子使用者対応トイレ,設備: 車椅子対応,#00cc00,139.326806,35.743961
金堀公園,東京都 福生市北田園一丁目9番1号,1F,車椅子使用者対応トイレ,設備: 車椅子対応,#00cc00,139.326899,35.733438
鍋ヶ谷戸児童公園,東京都 福生市大字熊川567番地1号,1F,車椅子使用者対応トイレ,設備: 車椅子対応,#00cc00,139.337226,35.724884
明神下公園,東京都 福生市南田園一丁目12番1号,1F,車椅子使用者対応トイレ,設備: 車椅子対応,#00cc00,139.330306,35.724002
わらつけ公園,東京都 福生市大字福生2151番地12号,1F,車椅子使用者対応トイレ,設備: 車椅子対応,#00cc00,139.336231,35.744096
熊牛公園,東京都 福生市大字熊川929番地5号,1F,車椅子使用者対応トイレ,,#00cc00,139.334997,35.731818
長沢公園,東京都 福生市大字福生1155番地2号,1F,車椅子使用者対応トイレ,設備: 車椅子対応,#00cc00,139.322795,35.741727
鍋二公園,東京都 福生市大字熊川711番地3号,1F,車椅子使用者対応トイレ,設備: 車椅子対応,#00cc00,139.334646,35.726374
睦公園,東京都 福生市大字熊川422番地1号,1F,車椅子使用者対応トイレ,"設備: 車椅子対応, おむつ交換台",#00cc00,139.338618,35.720352
武蔵野橋公園,東京都 福生市大字熊川1395番地8号,1F,車椅子使用者対応トイレ,設備: 車椅子対応,#00cc00,139.341404,35.72205
福生駅西口公園,東京都 福生市大字福生773番地13号,1F,車椅子使用者対応トイレ,"設備: 車椅子対応, おむつ交換台",#00cc00,139.328134,35.741715
東福生駅東口公園,東京都 福生市大字福生2155番地1号,1F,車椅子使用者対応トイレ,,#00cc00,139.336085,35.745699
フレンドシップパーク,東京都 福生市大字福生2351番地11号,1F,車椅子使用者対応トイレ,設備: 車椅子対応,#00cc00,139.338459,35.738872
牛一公園,東京都 福生市牛浜59番地2号,1F,車椅子使用者対応トイレ,設備: 車椅子対応,#00cc00,139.331404,35.734837
牛浜駅東口公園,東京都 福生市牛浜126番地6号,1F,車椅子使用者対応トイレ,"設備: 車椅子対応, オストメイト対応, おむつ交換台",#00cc00,139.333725,35.734736
ひふみ公園,東京都 福生市本町25番地4号,1F,車椅子使用者対応トイレ,設備: 車椅子対応,#00cc00,139.329448,35.739569
牛二公園,東京都 福生市大字福生2470番地1号,1F,車椅子使用者対応トイレ,設備: 車椅子対応,#00cc00,139.33902,35.736717
田園広場公園,東京都 福生市北田園一丁目16番8号,1F,車椅子使用者対応トイレ,設備: 車椅子対応,#00cc00,139.323847,35.732352
福東公園,東京都 福生市大字熊川1620番地,1F,車椅子使用者対応トイレ,設備: 車椅子対応,#00cc00,139.349594,35.723006
福栄ミレニアムパーク,東京都 福生市大字熊川1143番地1号,1F,車椅子使用者対応トイレ,設備: 車椅子対応,#00cc00,139.341055,35.730503
加美平公園,東京都 福生市加美平一丁目21番地,1F,車椅子使用者対応トイレ,,#00cc00,139.327344,35.751441
中福生公園,東京都 福生市大字福生443番地1号,1F,車椅子使用者対応トイレ,"設備: 車椅子対応, おむつ交換台",#00cc00,139.325874,35.736927
武蔵野台公園,東京都 福生市武蔵野台一丁目30番地,1F,車椅子使用者対応トイレ,設備: 車椅子対応,#00cc00,139.330826,35.752193
福東トモダチ公園,東京都 福生市大字熊川1573番地1号,1F,車椅子使用者対応トイレ,"設備: 車椅子対応, オストメイト対応, おむつ交換台",#00cc00,139.351785,35.725753
多摩川緑地福生柳山公園,東京都 福生市北田園二丁目8番2号,1F,車椅子使用者対応トイレ,設備: 車椅子対応,#00cc00,139.319747,35.73788
多摩川緑地福生南公園,東京都 福生市南田園一丁目1番1号,1F,車椅子使用者対応トイレ,設備: 車椅子対応,#00cc00,139.33177,35.715897
多摩川緑地福生かに坂公園,東京都 福生市大字福生1185番地15号,1F,車椅子使用者対応トイレ,設備: 車椅子対応,#00cc00,139.318699,35.743985
みずくらいど公園,東京都 福生市大字熊川1359番地1号,1F,車椅子使用者対応トイレ,設備: 車椅子対応,#00cc00,139.339273,35.727265
玉川上水緑地日光橋公園,東京都 福生市大字熊川1386番地1号,1F,車椅子使用者対応トイレ,設備: 車椅子対応,#00cc00,139.34282,35.723162
下の川緑地せせらぎ遊歩道公園,東京都 福生市大字熊川2355番地11号,1F,車椅子使用者対応トイレ,設備: 車椅子対応,#00cc00,139.333609,35.721918
原ヶ谷戸どんぐり公園,東京都 福生市大字福生196番地7号,1F,車椅子使用者対応トイレ,設備: 車椅子対応,#00cc00,139.335389,35.738966
熊牛わらつけ児童遊園,東京都 福生市大字熊川1109番地,1F,車椅子使用者対応トイレ,設備: 車椅子対応,#00cc00,139.339446,35.731951
多摩川緑地加美上水公園,東京都 福生市大字福生1763番地5号,1F,車椅子使用者対応トイレ,設備: 車椅子対応,#00cc00,139.318412,35.747119
福生駅西口公衆便所,東京都 福生市大字福生773番地,1F,車椅子使用者対応トイレ,"設備: 車椅子対応, おむつ交換台",#00cc00,139.328134,35.741715
牛浜駅東口公衆便所,東京都 福生市牛浜126番地2号,1F,車椅子使用者対応トイレ,"設備: 車椅子対応, オストメイト対応, おむつ交換台",#00cc00,139.333725,35.734736
牛浜駅西口公衆便所,東京都 福生市牛浜94番地,1F,車椅子使用者対応トイレ,設備: 車椅子対応,#00cc00,139.333543,35.734469
東福生駅西口公衆便所,東京都 福生市武蔵野台1番地1号,1F,車椅子使用者対応トイレ,"設備: 車椅子対応, オストメイト対応, おむつ交換台",#00cc00,139.335767,35.746013
福生駅前公衆便所,東京都 福生市東町4-9,1F,車椅子使用者対応トイレ,"設備: 車椅子対応, おむつ交換台",#00cc00,139.328144,35.742376
福生駅前公衆便所,東京都 福生市東町4-9,1F,車椅子使用者対応トイレ,"設備: 車椅子対応, おむつ交換台",#00cc00,139.328144,35.742376
福生市福祉センター,東京都 福生市南田園二丁目13番1号,1F,1階身障者トイレ1,設備: 車椅子対応,#00cc00,139.332419,35.727604
福生市福祉センター,東京都 福生市南田園二丁目13番1号,1F,1階身障者トイレ2,"設備: 車椅子対応, 大型ベッド",#00cc00,139.332379,35.727599
福生市福祉センター,東京都 福生市南田園二丁目13番1号,1F,1階保育室小児トイレ,"設備: 車椅子対応, おむつ交換台",#00cc00,139.332273,35.727342
福生市福祉センター,東京都 福生市南田園二丁目13番1号,2F,2階身障者トイレ,設備: 車椅子対応,#00cc00,139.332379,35.727599
福生市福祉センター,東京都 福生市南田園二丁目13番1号,B1F,地下身障者トイレ,設備: 車椅子対応,#00cc00,139.332588,35.72762
福生市田園児童館,東京都 福生市南田園三丁目6番10号,1F,1階身障者トイレ,"設備: 車椅子対応, おむつ交換台",#00cc00,139.331068,35.730084
熊川児童館,東京都 福生市大字熊川1143番地1号,1F,障害者トイレ,"設備: 車椅子対応, オストメイト対応",#00cc00,139.341304,35.730281
武蔵野台児童館,東京都 福生市武蔵野台一丁目12番2号,1F,1階ＥＶ横トイレ,設備: 車椅子対応,#00cc00,139.333934,35.746745
子ども応援館,東京都 福生市北田園二丁目5番7号,1F,１階車椅子使用者対応トイレ,"設備: 車椅子対応, オストメイト対応, おむつ交換台",#00cc00,139.322685,35.734046
子ども応援館,東京都 福生市北田園二丁目5番7号,2F,２階車椅子使用者対応トイレ,"設備: 車椅子対応, オストメイト対応, おむつ交換台",#00cc00,139.322685,35.734046
熊川地域体育館,東京都 福生市大字熊川380番地7号,1F,1階車椅子使用者対応トイレ,設備: 車椅子対応,#00cc00,139.337035,35.720704
福生地域体育館,東京都 福生市武蔵野台一丁目8番7号,1F,1階車椅子使用者対応トイレ,設備: 車椅子対応,#00cc00,139.334278,35.746371
福生地域体育館,東京都 福生市武蔵野台一丁目8番7号,3F,3階車椅子使用者対応トイレ,設備: 車椅子対応,#00cc00,139.334275,35.746198
福生野球場,東京都 福生市牛浜162番地,1F,管理棟脇車椅子使用者対応トイレ,"設備: 車椅子対応, おむつ交換台",#00cc00,139.337138,35.734848
市営プール,東京都 福生市北田園二丁目8番4号,1F,管理棟車椅子使用者対応トイレ,"設備: 車椅子対応, 大型ベッド, おむつ交換台",#00cc00,139.32163,35.734245
福東第二少年野球場,東京都 福生市大字熊川1601番地,1F,グランド南側車椅子使用者対応トイレ,設備: 車椅子対応,#00cc00,139.350646,35.724549
輝き市民サポートセンター (福生市プチギャラリー４階),東京都 福生市大字福生1014番地10号,4F,車椅子使用者対応トイレ,"設備: 車椅子対応, おむつ交換台",#00cc00,139.327689,35.742342
市営競技場 (Ｓ＆Ｄフィールド福生（福生市営競技場）),東京都 福生市大字福生3232番地,1F,グランド東側車椅子使用者対応トイレ,"設備: 車椅子対応, オストメイト対応, おむつ交換台",#00cc00,139.317685,35.747622
市営競技場 (Ｓ＆Ｄフィールド福生（福生市営競技場）),東京都 福生市大字福生3232番地,1F,管理棟車椅子使用者対応トイレ,"設備: 車椅子対応, オストメイト対応, おむつ交換台",#00cc00,139.31635,35.747081
くるみるふっさ (まちなかおもてなしステーションくるみるふっさ),東京都 福生市本町23番地,1F,車椅子使用者対応トイレ,設備: 車椅子対応,#00cc00,139.328418,35.739415