name,address,floor,toilet_name,note,color,lng,lat
武蔵野の森総合スポーツプラザ (武蔵野の森総合スポーツプラザ),東京都 調布市西町290番地11,1F,サブアリーナ棟1階多機能トイレ01,"こちらのトイレはサブアリーナをご利用いただく方にお使いいただけます | 設備: 車椅子対応, オストメイト対応, 大型ベッド",#00cc00,139.524487,35.664416
武蔵野の森総合スポーツプラザ (武蔵野の森総合スポーツプラザ),東京都 調布市西町290番地11,1F,サブアリーナ棟1階多機能トイレ02,"こちらのトレイはサブアリーナご利用の方にお使いいただけます | 設備: 車椅子対応, オストメイト対応, 大型ベッド",#00cc00,139.524122,35.664844
武蔵野の森総合スポーツプラザ (武蔵野の森総合スポーツプラザ),東京都 調布市西町290番地11,1F,メインアリーナ棟1階多機能トイレ01,"こちらのトイレはメインアリーナをご利用いただく方にお使いいただけます | 設備: 車椅子対応, おむつ交換台",#00cc00,139.524208,35.665917
武蔵野の森総合スポーツプラザ (武蔵野の森総合スポーツプラザ),東京都 調布市西町290番地11,1F,メインアリーナ棟1階多機能トイレ02,"こちらのトイレはメインアリーナをご利用いただく方にお使いいただけます | 設備: 車椅子対応, おむつ交換台",#00cc00,139.524359,35.665509
武蔵野の森総合スポーツプラザ (武蔵野の森総合スポーツプラザ),東京都 調布市西町290番地11,1F,メインアリーナ棟1階多機能トイレ03,"こちらのトイレはメインアリーナをご利用いただく方にお使いいただけます | 設備: 車椅子対応, おむつ交換台",#00cc00,139.524436,35.66529
武蔵野の森総合スポーツプラザ (武蔵野の森総合スポーツプラザ),東京都 調布市西町290番地11,1F,メインアリーナ棟1階多機能トイレ04,"こちらのトイレはメインアリーナをご利用いただく方にお使いいただけます | 設備: 車椅子対応, オストメイト対応, 大型ベッド",#00cc00,139.525025,35.665272
武蔵野の森総合スポーツプラザ (武蔵野の森総合スポーツプラザ),東京都 調布市西町290番地11,1F,メインアリーナ棟1階多機能トイレ05,"こちらのトイレはメインアリーナをご利用いただく方にお使いいただけます | 設備: 車椅子対応, オストメイト対応, 大型ベッド",#00cc00,139.524932,35.66607
武蔵野の森総合スポーツプラザ (武蔵野の森総合スポーツプラザ),東京都 調布市西町290番地11,2F,サブアリーナ棟2階多機能トイレ01,"こちらのトイレはプールをご利用いただく方にお使いいただけます | 設備: 車椅子対応, オストメイト対応, おむつ交換台",#00cc00,139.524595,35.664313
武蔵野の森総合スポーツプラザ (武蔵野の森総合スポーツプラザ),東京都 調布市西町290番地11,2F,サブアリーナ棟2階多機能トイレ02,"こちらはジム・プールをご利用いただく方にお使いいただけます | 設備: 車椅子対応, オストメイト対応, 大型ベッド",#00cc00,139.524663,35.664149
武蔵野の森総合スポーツプラザ (武蔵野の森総合スポーツプラザ),東京都 調布市西町290番地11,2F,サブアリーナ棟2階多機能トイレ03,"こちらのトイレはジム・プールをご利用いただく方にお使いいただけます | 設備: 車椅子対応, オストメイト対応, 大型ベッド",#00cc00,139.524696,35.664214
武蔵野の森総合スポーツプラザ (武蔵野の森総合スポーツプラザ),東京都 調布市西町290番地11,2F,サブアリーナ棟2階多機能トイレ04,"こちらのトイレはジム・プールをご利用いただく方にお使いいただけます | 設備: 車椅子対応, オストメイト対応, おむつ交換台",#00cc00,139.524862,35.664722
武蔵野の森総合スポーツプラザ (武蔵野の森総合スポーツプラザ),東京都 調布市西町290番地11,2F,サブアリーナ棟2階多機能トイレ05,"こちらのトイレは施設をご利用いただく方にお使いいただけます。 | 設備: 車椅子対応, オストメイト対応, おむつ交換台",#00cc00,139.524128,35.664781
武蔵野の森総合スポーツプラザ (武蔵野の森総合スポーツプラザ),東京都 調布市西町290番地11,3F,メインアリーナ棟3階多機能トイレ01,"こちらのトイレはメインアリーナをご利用いただく方にお使いいただけます | 設備: 車椅子対応, オストメイト対応, おむつ交換台",#00cc00,139.524314,35.665602
武蔵野の森総合スポーツプラザ (武蔵野の森総合スポーツプラザ),東京都 調布市西町290番地11,3F,メインアリーナ棟3階多機能トイレ02,"こちらのトイレはメインアリーナをご利用いただく方にお使いいただけます | 設備: 車椅子対応, おむつ交換台",#00cc00,139.524736,35.665337
武蔵野の森総合スポーツプラザ (武蔵野の森総合スポーツプラザ),東京都 調布市西町290番地11,3F,メインアリーナ棟3階多機能トイレ03,"こちらのトイレはメインアリーナをご利用いただく方にお使いいただけます | 設備: 車椅子対応, オストメイト対応, おむつ交換台",#00cc00,139.525123,35.665627
武蔵野の森総合スポーツプラザ (武蔵野の森総合スポーツプラザ),東京都 調布市西町290番地11,4F,メインアリーナ棟4階多機能トイレ01,"こちらのトイレはメインアリーナをご利用いただく方にお使いいただけます | 設備: 車椅子対応, おむつ交換台",#00cc00,139.525072,35.665731
武蔵野の森総合スポーツプラザ (武蔵野の森総合スポーツプラザ),東京都 調布市西町290番地11,M4F,サブアリーナM4階多機能トイレ01,"こちらのトイレは施設をご利用いただく方にお使いいただけます。 | 設備: 車椅子対応, オストメイト対応, おむつ交換台",#00cc00,139.524506,35.66493
東京都パラスポーツトレーニングセンター ( 味の素スタジアム),東京都 調布市西町３７６番３,1F,ピクトグラムにて表記,"設備: 車椅子対応, オストメイト対応",#00cc00,139.5282107,35.6641475
東京都パラスポーツトレーニングセンター ( 味の素スタジアム),東京都 調布市西町３７６番３,B1F,ピクトグラムにて表記,"設備: 車椅子対応, オストメイト対応",#00cc00,139.528245,35.664222
野川公園,東京都 調布市野水一丁目3番地,1F,1号トイレ,,#00cc00,139.524851,35.680074
野川公園,東京都 調布市野水一丁目3番地,1F,4号トイレ,"設備: 車椅子対応, オストメイト対応, おむつ交換台",#00cc00,139.523903,35.684158
野川公園,東京都 調布市野水二丁目2番地,1F,自然観察センタートイレ,"観察センター建替えに伴い供用中止中 | 設備: 車椅子対応, おむつ交換台",#00cc00,139.525346,35.684859
武蔵野の森公園,東京都 調布市西町,1F,１号トイレ,"設備: 車椅子対応, オストメイト対応, おむつ交換台",#00cc00,139.531701,35.6695
武蔵野の森公園,東京都 調布市西町,1F,３号トイレ,"設備: 車椅子対応, オストメイト対応, おむつ交換台",#00cc00,139.532343,35.666573
武蔵野の森公園,東京都 調布市西町,1F,４号トイレ,"設備: 車椅子対応, オストメイト対応, おむつ交換台",#00cc00,139.532353,35.664665
武蔵野の森公園,東京都 調布市西町,1F,６号トイレ,"設備: 車椅子対応, おむつ交換台",#00cc00,139.524465,35.677657
神代植物公園,東京都 調布市深大寺元町五丁目31番10号,1F,つばき園トイレ,"開園時間　9:30〜17:00のみ利用可 | 設備: 車椅子対応, オストメイト対応, おむつ交換台",#00cc00,139.552594,35.667854
神代植物公園,東京都 調布市深大寺元町五丁目31番10号,1F,はぎ園介護便所,"開園時間　9:30〜17:00のみ利用可　女子トイレ側の一角 | 設備: 車椅子対応, オストメイト対応, 大型ベッド",#00cc00,139.549053,35.671712
神代植物公園,東京都 調布市深大寺元町五丁目31番10号,1F,はぎ園車椅子便所,開園時間　9:30〜17:00のみ利用可 | 設備: 車椅子対応,#00cc00,139.549053,35.671712
神代植物公園,東京都 調布市深大寺元町五丁目31番10号,1F,ばら園トイレ,"開園時間　9:30〜17:00のみ利用可 | 設備: 車椅子対応, オストメイト対応, おむつ交換台",#00cc00,139.548265,35.669687
神代植物公園,東京都 調布市深大寺元町五丁目31番10号,1F,ぼたん園トイレ,"開園時間　9:30〜17:00のみ利用可 | 設備: 車椅子対応, オストメイト対応, おむつ交換台",#00cc00,139.545487,35.670252
神代植物公園,東京都 調布市深大寺元町五丁目31番10号,1F,もも園トイレ,"開園時間　9:30〜17:00のみ利用可 | 設備: 車椅子対応, オストメイト対応, おむつ交換台",#00cc00,139.550707,35.670571
神代植物公園,東京都 調布市深大寺北町一丁目4番6号,1F,自由広場トイレ,一般開放区域　 | 設備: 車椅子対応,#00cc00,139.549279,35.672316
神代植物公園,東京都 調布市深大寺北町一丁目4番6号,1F,植物多様性センター見本園トイレ,"開園時間　9:30〜17:00のみ利用可 | 設備: 車椅子対応, オストメイト対応, おむつ交換台",#00cc00,139.547135,35.672608
神代植物公園,東京都 調布市深大寺北町一丁目4番6号,1F,植物多様性センター情報館トイレ,"開園時間　9:30〜17:00のみ利用可 | 設備: 車椅子対応, オストメイト対応, おむつ交換台",#00cc00,139.547788,35.673361
神代植物公園,東京都 調布市深大寺元町五丁目31番10号,1F,深大寺門トイレ,"開園時間　9:30〜17:00のみ利用可 | 設備: 車椅子対応, オストメイト対応, おむつ交換台",#00cc00,139.550211,35.668744
神代植物公園,東京都 調布市深大寺元町五丁目31番10号,1F,水生植物園トイレ,"開館時間　9:30〜16:30のみ利用可 | 設備: 車椅子対応, オストメイト対応, おむつ交換台",#00cc00,139.545551,35.671378
神代植物公園,東京都 調布市深大寺元町五丁目31番10号,1F,正門トイレ,開園時間　9:30〜17:00のみ利用可 | 設備: 車椅子対応,#00cc00,139.545743,35.671393
神代植物公園,東京都 調布市深大寺元町五丁目31番10号,1F,大温室トイレ,"開館時間　9:30〜16:30のみ利用可 | 設備: 車椅子対応, オストメイト対応, おむつ交換台",#00cc00,139.545463,35.669592
神代植物公園,東京都 調布市深大寺北町一丁目4番6号,1F,駐車場トイレ,"駐車場トイレ | 設備: 車椅子対応, オストメイト対応, おむつ交換台",#00cc00,139.546294,35.672782
神代植物公園,東京都 調布市深大寺元町五丁目31番10号,2F,植物会館トイレ（２階）,開園時間　9:30〜17:00のみ利用可 | 設備: 車椅子対応,#00cc00,139.546022,35.67219
東京都港湾局離島港湾部調布飛行場ターミナルビル (調布飛行場ターミナルビル),東京都 調布市西町290番地3,1F,１階だれでもトイレ,"設備: 車椅子対応, オストメイト対応, おむつ交換台",#00cc00,139.529565,35.672414
東京都港湾局離島港湾部調布飛行場ターミナルビル (調布飛行場ターミナルビル),東京都 調布市西町290番地3,2F,2階だれでもトイレ,"設備: 車椅子対応, オストメイト対応, おむつ交換台",#00cc00,139.529565,35.672414
調布サービスステーション,東京都 調布市国領町七丁目29番5号,1F,調布サービスステーション１階　だれでもトイレ,"設備: 車椅子対応, オストメイト対応, おむつ交換台",#00cc00,139.559861,35.644449
調布消防署国領出張所,東京都 調布市国領町七丁目50番1号,2F,だれでもトイレ,"設備: 車椅子対応, オストメイト対応, おむつ交換台",#00cc00,139.561971,35.645554
調布消防署,東京都 調布市下石原一丁目16番地の1,1F,だれでもトイレ,"設備: 車椅子対応, オストメイト対応, おむつ交換台",#00cc00,139.539101,35.656026
調布市役所,東京都 調布市小島町二丁目35番地1,1F,１階車椅子使用者対応トイレ,"設備: 車椅子対応, おむつ交換台",#00cc00,139.540644,35.650603
調布市役所,東京都 調布市小島町二丁目35番地1,2F,２階車椅子使用者対応トイレ,"設備: 車椅子対応, オストメイト対応, 大型ベッド",#00cc00,139.540644,35.650603
調布市役所,東京都 調布市小島町二丁目35番地1,3F,３階車椅子使用者対応トイレ,"設備: 車椅子対応, おむつ交換台",#00cc00,139.540644,35.650603
調布市役所,東京都 調布市小島町二丁目35番地1,4F,４階車椅子使用者対応トイレ,"設備: 車椅子対応, おむつ交換台",#00cc00,139.540644,35.650603
調布市役所　神代出張所,東京都 調布市西つつじケ丘三丁目19番地1,2F,車椅子使用者対応トイレ,設備: 車椅子対応,#00cc00,139.571046,35.65798
調布市教育会館,東京都 調布市小島町二丁目36番地1,1F,1階車椅子使用者対応トイレ,"但し、第2土曜日、年末年始を除く | 設備: 車椅子対応, おむつ交換台",#00cc00,139.541709,35.650225
調布市教育会館,東京都 調布市小島町二丁目36番地1,2F,2階車椅子使用者対応トイレ,"但し、第2土曜日、年末年始を除く | 設備: 車椅子対応, オストメイト対応, おむつ交換台",#00cc00,139.541709,35.650225
調布市教育会館,東京都 調布市小島町二丁目36番地1,6F,6階車椅子使用者対応トイレ,"但し、第2土曜日、年末年始を除く | 設備: 車椅子対応, おむつ交換台",#00cc00,139.541713,35.65024
調布市青少年交流館,東京都 調布市飛田給一丁目52番地1,1F,車椅子使用者対応トイレ,"設備: 車椅子対応, オストメイト対応",#00cc00,139.525529,35.661131
調布市西部公民館,東京都 調布市上石原三丁目21番地6,2F,車椅子使用者対応トイレ,設備: 車椅子対応,#00cc00,139.522204,35.652962
調布市北部公民館,東京都 調布市柴崎二丁目5番地18,1F,ピクトグラムで表示,"障害のある人が使える設備 | 設備: 車椅子対応, おむつ交換台",#00cc00,139.562822,35.661634
調布市金子地域福祉センター,東京都 調布市西つつじケ丘四丁目43番地3,1F,金子地域福祉センター1階車椅子使用者対応トイレ,"設備: 車椅子対応, オストメイト対応",#00cc00,139.579051,35.651087
調布市西部地域福祉センター,東京都 調布市上石原二丁目15番地6,1F,西部地域福祉センター1階車椅子使用者対応トイレ,"設備: 車椅子対応, オストメイト対応",#00cc00,139.525419,35.655587
調布市調布ケ丘地域福祉センター,東京都 調布市調布ケ丘三丁目58番地2,1F,調布ケ丘地域福祉センター１階車椅子使用者対応トイレ,"設備: 車椅子対応, オストメイト対応",#00cc00,139.5503,35.659904
調布市染地地域福祉センター,東京都 調布市染地三丁目3番地1,1F,染地地域福祉センター1階車椅子使用者対応トイレ,"設備: 車椅子対応, おむつ交換台",#00cc00,139.556476,35.639725
調布市緑ケ丘地域福祉センター,東京都 調布市緑ケ丘二丁目18番地49,1F,緑ケ丘地域福祉センター1階車椅子使用者対応トイレ,"設備: 車椅子対応, オストメイト対応",#00cc00,139.584004,35.669357
調布市菊野台地域福祉センター,東京都 調布市菊野台一丁目38番地1,1F,菊野台地域福祉センター1階車椅子使用者対応トイレ,"設備: 車椅子対応, オストメイト対応, おむつ交換台",#00cc00,139.566114,35.657554
調布市富士見地域福祉センター,東京都 調布市富士見町四丁目15番地6,1F,富士見地域福祉センター1階車椅子使用者対応トイレ,"設備: 車椅子対応, オストメイト対応, おむつ交換台",#00cc00,139.534579,35.663977
調布市下石原地域福祉センター,東京都 調布市下石原三丁目72番地1,1F,下石原地域福祉センター1階車椅子使用者対応トイレ,"設備: 車椅子対応, オストメイト対応",#00cc00,139.534736,35.647616
調布市入間地域福祉センター,東京都 調布市入間町一丁目13番地2,1F,入間地域福祉センター1階車椅子使用者対応トイレ,"設備: 車椅子対応, オストメイト対応, おむつ交換台",#00cc00,139.58729,35.653799
調布市深大寺地域福祉センター,東京都 調布市深大寺北町二丁目40番地1,1F,深大寺地域福祉センター1階車椅子使用者対応トイレ,"設備: 車椅子対応, オストメイト対応",#00cc00,139.551596,35.67483
飛田給ふれあいの家,東京都 調布市飛田給一丁目3番地53,1F,飛田給ふれあいの家車椅子使用者対応トイレ,"設備: 車椅子対応, オストメイト対応, おむつ交換台",#00cc00,139.522683,35.663006
布田駅南ふれあいの家,東京都 調布市国領町五丁目76番地3,1F,布田駅南ふれあいの家車椅子使用者対応トイレ,"設備: 車椅子対応, オストメイト対応, おむつ交換台",#00cc00,139.551429,35.648669
国領ふれあいの家,東京都 調布市国領町八丁目1番地59,1F,国領ふれあいの家車椅子使用者対応トイレ,"設備: 車椅子対応, オストメイト対応, おむつ交換台",#00cc00,139.56169,35.647028
上石原ふれあいの家,東京都 調布市上石原二丁目8番地3,1F,上石原ふれあいの家車椅子使用者対応トイレ,設備: 車椅子対応,#00cc00,139.527597,35.656513
国領駅北ふれあいの家 (コクティ),東京都 調布市国領町二丁目5番地15,1F,国領駅北ふれあいの家車椅子使用者対応トイレ,"設備: 車椅子対応, おむつ交換台",#00cc00,139.558469,35.650537
小島町ふれあいの家,東京都 調布市小島町三丁目56番地1,1F,小島町ふれあいの家車椅子使用者対応トイレ,"設備: 車椅子対応, オストメイト対応, おむつ交換台",#00cc00,139.540092,35.647505
大町ふれあいの家,東京都 調布市菊野台三丁目27番地39,1F,大町ふれあいの家車椅子使用者対応トイレ,"設備: 車椅子対応, オストメイト対応, おむつ交換台",#00cc00,139.571678,35.651946
上ノ原ふれあいの家,東京都 調布市柴崎二丁目27番地25,1F,上ノ原ふれあいの家車椅子使用者対応トイレ,"簡易なオストメイトを新設（令和３年６月） | 設備: 車椅子対応, オストメイト対応, おむつ交換台",#00cc00,139.564555,35.664029
調布市立図書館深大寺分館,東京都 調布市深大寺北町五丁目17番地3,1F,深大寺分館車椅子使用者対応トイレ,"月曜日は休館のため利用不可。ただし、月曜日が祝日の場合は利用可となり、その翌日が休館のため利用不可。また、原則第4月曜日の翌日は休館のため利用不可。 | 設備: 車椅子対応, オストメイト対応, 大型ベッド, おむつ交換台",#00cc00,139.550446,35.678148
調布市立図書館佐須分館,東京都 調布市佐須町四丁目42番地2,2F,佐須分館車椅子使用者対応トイレ,"月曜日は休館のため利用不可。ただし、月曜日が祝日の場合は利用可となり、その翌日が休館のため利用不可。また、原則第4月曜日の翌日は休館のため利用不可。 | 設備: 車椅子対応, おむつ交換台",#00cc00,139.556039,35.658647
調布市郷土博物館,東京都 調布市小島町三丁目26番地2,1F,1階車椅子使用者対応トイレ,"設備: 車椅子対応, オストメイト対応, おむつ交換台",#00cc00,139.536123,35.646978
調布市武者小路実篤記念館,東京都 調布市若葉町一丁目8番地30,1F,武者小路実篤記念館車椅子使用者対応トイレ,"設備: 車椅子対応, オストメイト対応, おむつ交換台",#00cc00,139.581276,35.656733
調布市多摩川自然情報館,東京都 調布市染地三丁目8番地26,1F,１階共用部分車椅子使用者対応トイレ,"※土日祝日は希望がある場合のみ利用可。（9：00-17：00） | 設備: 車椅子対応, オストメイト対応, 大型ベッド, おむつ交換台",#00cc00,139.557506,35.637205
調布市市民プラザあくろす (コクティー２階・３階),東京都 調布市国領町二丁目5番地15,2F,２階車椅子使用者対応トイレ,"設備: 車椅子対応, オストメイト対応, 大型ベッド, おむつ交換台",#00cc00,139.557973,35.650536
調布市市民プラザあくろす (コクティー２階・３階),東京都 調布市国領町二丁目5番地15,3F,３階北側車椅子使用者対応トイレ,"設備: 車椅子対応, おむつ交換台",#00cc00,139.557833,35.650615
調布市市民プラザあくろす (コクティー２階・３階),東京都 調布市国領町二丁目5番地15,3F,３階北側車椅子使用者対応トイレ,"設備: 車椅子対応, おむつ交換台",#00cc00,139.557833,35.650615
調布市文化会館たづくり,東京都 調布市小島町二丁目33番地1,10F,東館１０階　障害者優先トイレ,設備: 車椅子対応,#00cc00,139.54187,35.650994
調布市文化会館たづくり,東京都 調布市小島町二丁目33番地1,11F,東館１１階　障害者優先トイレ,設備: 車椅子対応,#00cc00,139.54187,35.650994
調布市文化会館たづくり,東京都 調布市小島町二丁目33番地1,12F,東館１２階　障害者優先トイレ,"設備: 車椅子対応, おむつ交換台",#00cc00,139.54187,35.650994
調布市文化会館たづくり,東京都 調布市小島町二丁目33番地1,1F,1階展示室前　障害者優先トイレ,"人感センサー、カーテン、洗面台 | 設備: 車椅子対応, オストメイト対応, 大型ベッド, おむつ交換台",#00cc00,139.541424,35.651083
調布市文化会館たづくり,東京都 調布市小島町二丁目33番地1,1F,西館１階　障害者優先トイレ,"設備: 車椅子対応, おむつ交換台",#00cc00,139.54084,35.651066
調布市文化会館たづくり,東京都 調布市小島町二丁目33番地1,1F,東館１階　障害者優先トイレ,"人感センサー | 設備: 車椅子対応, オストメイト対応",#00cc00,139.54187,35.650994
調布市文化会館たづくり,東京都 調布市小島町二丁目33番地1,2F,西館２階　障害者優先トイレ,"設備: 車椅子対応, おむつ交換台",#00cc00,139.54084,35.651066
調布市文化会館たづくり,東京都 調布市小島町二丁目33番地1,2F,東館２階　障害者優先トイレ,設備: 車椅子対応,#00cc00,139.541284,35.650983
調布市文化会館たづくり,東京都 調布市小島町二丁目33番地1,2F,東館ホール棟２階　障害者優先トイレ（女性用）,設備: 車椅子対応,#00cc00,139.54187,35.650994
調布市文化会館たづくり,東京都 調布市小島町二丁目33番地1,2F,東館ホール棟２階　障害者優先トイレ（男性用）,設備: 車椅子対応,#00cc00,139.541294,35.651028
調布市文化会館たづくり,東京都 調布市小島町二丁目33番地1,3F,西館３階　障害者優先トイレ,"設備: 車椅子対応, おむつ交換台",#00cc00,139.54084,35.651066
調布市文化会館たづくり,東京都 調布市小島町二丁目33番地1,3F,東館3階　障害者優先トイレ,設備: 車椅子対応,#00cc00,139.54187,35.650994
調布市文化会館たづくり,東京都 調布市小島町二丁目33番地1,4F,西館４階　障害者優先トイレ,"設備: 車椅子対応, おむつ交換台",#00cc00,139.54084,35.651066
調布市文化会館たづくり,東京都 調布市小島町二丁目33番地1,4F,東館４階　障害者優先トイレ,設備: 車椅子対応,#00cc00,139.54187,35.650994
調布市文化会館たづくり,東京都 調布市小島町二丁目33番地1,5F,西館５階　障害者優先トイレ,設備: 車椅子対応,#00cc00,139.54084,35.651066
調布市文化会館たづくり,東京都 調布市小島町二丁目33番地1,6F,東館６階　障害者優先トイレ,設備: 車椅子対応,#00cc00,139.54187,35.650994
調布市文化会館たづくり,東京都 調布市小島町二丁目33番地1,7F,東館７階　障害者優先トイレ,設備: 車椅子対応,#00cc00,139.54187,35.650994
調布市文化会館たづくり,東京都 調布市小島町二丁目33番地1,8F,東館８階　障害者優先トイレ,設備: 車椅子対応,#00cc00,139.54187,35.650994
調布市文化会館たづくり,東京都 調布市小島町二丁目33番地1,B2F,東館Ｂ２階　障害者優先トイレ,設備: 車椅子対応,#00cc00,139.54191,35.65099
調布市グリーンホール,東京都 調布市小島町二丁目47番地1,1F,グリーンホール１階障害者優先トイレ,"設備: 車椅子対応, オストメイト対応",#00cc00,139.542753,35.651339
調布市グリーンホール,東京都 調布市小島町二丁目47番地1,2F,グリーンホール２階障害者優先トイレ,"設備: 車椅子対応, オストメイト対応",#00cc00,139.542882,35.651516
調布市せんがわ劇場,東京都 調布市仙川町一丁目21番地5,1F,１階楽屋口側車椅子使用者対応トイレ,"設備: 車椅子対応, おむつ交換台",#00cc00,139.58688,35.661698
調布市せんがわ劇場,東京都 調布市仙川町一丁目21番地5,1F,１階正面玄関側車椅子使用者対応トイレ,"設備: 車椅子対応, オストメイト対応, 大型ベッド",#00cc00,139.586964,35.661405
調布市せんがわ劇場,東京都 調布市仙川町一丁目21番地5,3F,３階ふれあいの家側車椅子使用者対応トイレ,"設備: 車椅子対応, おむつ交換台",#00cc00,139.586897,35.661357
上ノ原公園,東京都 調布市柴崎二丁目6番地6,1F,上ノ原公園車椅子使用者対応トイレ,設備: 車椅子対応,#00cc00,139.562626,35.661461
ぬの多公園,東京都 調布市染地二丁目8番地74,1F,ぬの多公園車椅子使用者対応トイレ,"設備: 車椅子対応, オストメイト対応, おむつ交換台",#00cc00,139.55295,35.640057
入間公園,東京都 調布市入間町三丁目6番地7,1F,入間公園車椅子使用者対応トイレ,"設備: 車椅子対応, おむつ交換台",#00cc00,139.588588,35.64818
とりで公園,東京都 調布市深大寺東町八丁目24番地20,1F,とりで公園車椅子使用者対応トイレ,設備: 車椅子対応,#00cc00,139.556603,35.680293
実篤公園,東京都 調布市若葉町一丁目23番地20,1F,実篤公園車椅子使用者対応トイレ,"設備: 車椅子対応, オストメイト対応, おむつ交換台",#00cc00,139.581702,35.657877
多摩川市民広場,東京都 調布市染地二丁目51番地1,1F,多摩川市民広場車椅子使用者対応トイレ,"設備: 車椅子対応, オストメイト対応, おむつ交換台",#00cc00,139.552931,35.637642
西町公園,東京都 調布市西町717番地5,1F,西町公園車椅子使用者対応トイレ,"設備: 車椅子対応, おむつ交換台",#00cc00,139.532486,35.662536
高速第2児童遊園,東京都 調布市上石原一丁目20番地11,1F,高速第2児童遊園車椅子使用者対応トイレ,"設備: 車椅子対応, おむつ交換台",#00cc00,139.530124,35.658812
高速第3児童遊園,東京都 調布市富士見町三丁目9番地1,1F,高速第3児童遊園車椅子使用者対応トイレ,設備: 車椅子対応,#00cc00,139.539172,35.662673
深大寺自然広場,東京都 調布市深大寺南町一丁目25番地,1F,深大寺自然広場車椅子使用者対応トイレ,"設備: 車椅子対応, オストメイト対応, おむつ交換台",#00cc00,139.556694,35.662726
鬼太郎ひろば,東京都 調布市下石原一丁目58番地5,1F,鬼太郎ひろば車椅子使用者対応トイレ,"設備: 車椅子対応, オストメイト対応, おむつ交換台",#00cc00,139.537833,35.653981
（仮称）鉄道敷地公園（相模原線）,東京都 調布市小島町二丁目27番地7,1F,車椅子使用者対応トイレ,"設備: 車椅子対応, オストメイト対応, おむつ交換台",#00cc00,139.540293,35.650894
いなり橋児童遊園,東京都 調布市下石原三丁目70番地7,1F,バリアフリートイレ,"設備: 車椅子対応, オストメイト対応, おむつ交換台",#00cc00,139.5341084,35.64763002
布多公園,東京都 調布市調布ヶ丘三丁目30番地1,1F,バリアフリートイレ,"設備: 車椅子対応, オストメイト対応",#00cc00,139.5504923,35.65766629
ターザン児童遊園,東京都 調布市下石原二丁目54番地22,1F,バリアフリートイレ,"設備: 車椅子対応, オストメイト対応",#00cc00,139.5367015,35.65328374
西つつじヶ丘児童遊園,東京都 調布市西つつじヶ丘三丁目3番地8,1F,バリアフリートイレ,"設備: 車椅子対応, オストメイト対応, おむつ交換台",#00cc00,139.570226,35.65592886
調布市深大寺・佐須地域　南農業公園,東京都 調布市深大寺南町二丁目3番地13,1F,バリアフリートイレ,"設備: 車椅子対応, オストメイト対応, おむつ交換台",#00cc00,139.5574654,35.66095917
多摩川さくら緑地公衆トイレ,東京都 調布市多摩川五丁目37番地1,1F,多摩川さくら緑地公衆トイレ,"設備: 車椅子対応, おむつ交換台",#00cc00,139.535784,35.641877
飛田給駅北公衆トイレ,東京都 調布市飛田給一丁目42番地,1F,飛田給駅北公衆トイレ1,"設備: 車椅子対応, オストメイト対応, 大型ベッド",#00cc00,139.523283,35.660388
飛田給駅北公衆トイレ,東京都 調布市飛田給一丁目42番地,1F,飛田給駅北公衆トイレ2,"設備: 車椅子対応, オストメイト対応, おむつ交換台",#00cc00,139.523283,35.660388
飛田給駅北公衆トイレ,東京都 調布市飛田給一丁目42番地,1F,飛田給駅北公衆トイレ3,"設備: 車椅子対応, オストメイト対応, おむつ交換台",#00cc00,139.523283,35.660388
深大寺前公衆トイレ,東京都 調布市深大寺元町五丁目12番地12,1F,深大寺前公衆トイレ,"設備: 車椅子対応, オストメイト対応, おむつ交換台",#00cc00,139.549327,35.666859
布多天神南公衆トイレ,東京都 調布市調布ケ丘一丁目5番地20,1F,布多天神南公衆トイレ,"設備: 車椅子対応, おむつ交換台",#00cc00,139.545107,35.655963
又住橋緑地,東京都 調布市調布ケ丘三丁目67番地7,1F,又住橋緑地車椅子使用者対応トイレ,設備: 車椅子対応,#00cc00,139.548573,35.6619
多摩川児童公園,東京都 調布市多摩川四丁目29番地45,1F,多摩川児童公園車椅子使用者対応トイレ,"設備: 車椅子対応, おむつ交換台",#00cc00,139.531562,35.642685
野川橋緑地,東京都 調布市菊野台三丁目51番地先,1F,野川橋緑地車椅子使用者対応トイレ,設備: 車椅子対応,#00cc00,139.568447,35.648852
つつじヶ丘駅北公衆トイレ,東京都 調布市西つつじヶ丘３丁目３５番地２９,1F,つつじヶ丘駅北公衆トイレ,"設備: 車椅子対応, オストメイト対応, おむつ交換台",#00cc00,139.57452,35.658284
調布駅前広場暫定公衆トイレ,東京都 調布市布田４丁目１番地４,1F,調布駅前広場暫定公衆トイレ,"設備: 車椅子対応, オストメイト対応, おむつ交換台",#00cc00,139.544141,35.651493
調布市総合体育館,東京都 調布市深大寺北町二丁目1番地65,B1F,地下1階プール内トイレ,設備: 車椅子対応,#00cc00,139.551406,35.672813
調布市総合体育館,東京都 調布市深大寺北町二丁目1番地65,B1F,地下1階車椅子使用者対応トイレ,"設備: 車椅子対応, おむつ交換台",#00cc00,139.551802,35.672693
調布市民西調布体育館,東京都 調布市上石原二丁目4番地1,1F,西調布体育館車椅子使用者対応トイレ,"設備: 車椅子対応, オストメイト対応, おむつ交換台",#00cc00,139.527321,35.657449
調布市民大町スポーツ施設,東京都 調布市菊野台三丁目27番地40,1F,大町スポーツ施設体育館外側トイレ1,"設備: 車椅子対応, おむつ交換台",#00cc00,139.57244,35.652443
調布市民大町スポーツ施設,東京都 調布市菊野台三丁目27番地40,1F,大町スポーツ施設体育館外側トイレ2,"設備: 車椅子対応, おむつ交換台",#00cc00,139.572409,35.652449
調布市民大町スポーツ施設,東京都 調布市菊野台三丁目27番地40,1F,大町スポーツ施設体育館車椅子使用者対応トイレ,"設備: 車椅子対応, オストメイト対応, おむつ交換台",#00cc00,139.572471,35.652436
調布市民プール,東京都 調布市染地二丁目43番地1,1F,市民プール内車椅子使用者対応トイレ,設備: 車椅子対応,#00cc00,139.546856,35.640085
調布市民深大寺テニスコート,東京都 調布市深大寺北町四丁目4番地3,1F,深大寺テニスコート車椅子使用者対応トイレ,1月4日〜3月31日の施設開放時間は全ての曜日10時〜16時 | 設備: 車椅子対応,#00cc00,139.553275,35.677759
調布基地跡地運動広場,東京都 調布市西町290番地3,1F,基地跡地運動広場車椅子使用者対応トイレ1,設備: 車椅子対応,#00cc00,139.525577,35.667935
調布基地跡地運動広場,東京都 調布市西町290番地3,1F,基地跡地運動広場車椅子使用者対応トイレ2,"設備: 車椅子対応, おむつ交換台",#00cc00,139.525603,35.667856
調布市総合福祉センター,東京都 調布市小島町二丁目47番地1,1F,１階女子トイレ,"設備: 車椅子対応, オストメイト対応, おむつ交換台",#00cc00,139.54255,35.65125
調布市総合福祉センター,東京都 調布市小島町二丁目47番地1,1F,１階男子トイレ,"設備: 車椅子対応, オストメイト対応, おむつ交換台",#00cc00,139.542667,35.651232
調布市総合福祉センター,東京都 調布市小島町二丁目47番地1,2F,２階女子トイレ,設備: 車椅子対応,#00cc00,139.54255,35.65125
調布市総合福祉センター,東京都 調布市小島町二丁目47番地1,2F,２階男子トイレ,設備: 車椅子対応,#00cc00,139.542667,35.651232
調布市総合福祉センター,東京都 調布市小島町二丁目47番地1,3F,３階女子トイレ,設備: 車椅子対応,#00cc00,139.542667,35.651232
調布市総合福祉センター,東京都 調布市小島町二丁目47番地1,3F,３階男子トイレ,設備: 車椅子対応,#00cc00,139.54255,35.65125
調布市総合福祉センター,東京都 調布市小島町二丁目47番地1,4F,４階女子トイレ,設備: 車椅子対応,#00cc00,139.542594,35.651227
調布市総合福祉センター,東京都 調布市小島町二丁目47番地1,4F,４階男子トイレ,設備: 車椅子対応,#00cc00,139.542648,35.651218
調布市総合福祉センター,東京都 調布市小島町二丁目47番地1,5F,５階女子トイレ,"設備: 車椅子対応, 大型ベッド",#00cc00,139.542594,35.651227
調布市総合福祉センター,東京都 調布市小島町二丁目47番地1,5F,５階男子トイレ,"設備: 車椅子対応, 大型ベッド, おむつ交換台",#00cc00,139.542648,35.651218
調布市総合福祉センター,東京都 調布市小島町二丁目47番地1,6F,６階女子トイレ,設備: 車椅子対応,#00cc00,139.542648,35.651218
調布市総合福祉センター,東京都 調布市小島町二丁目47番地1,6F,６階男子トイレ,設備: 車椅子対応,#00cc00,139.542594,35.651227
調布市子ども家庭支援センターすこやか (ココスクエア２Ｆ),東京都 調布市国領町三丁目1番地38,2F,2階ひよこルーム前車椅子使用者対応トイレ,"設備: 車椅子対応, おむつ交換台",#00cc00,139.558688,35.649492
調布市子ども家庭支援センターすこやか (ココスクエア２Ｆ),東京都 調布市国領町三丁目1番地38,2F,2階ロビー車椅子使用者対応トイレ,"設備: 車椅子対応, おむつ交換台",#00cc00,139.558578,35.649617
調布市ちょうふだぞう・すまいる分室,東京都 調布市国領町三丁目19番地1,1F,オープンスペース車椅子使用者対応トイレ,"設備: 車椅子対応, オストメイト対応",#00cc00,139.560372,35.651168
調布市ちょうふだぞう・すまいる分室,東京都 調布市国領町三丁目19番地1,1F,店舗車椅子使用者対応トイレ,"設備: 車椅子対応, オストメイト対応, 大型ベッド",#00cc00,139.55994,35.650951
調布市こころの健康支援センター,東京都 調布市布田五丁目46番地1,1F,1階車椅子使用者対応トイレ,"設備: 車椅子対応, オストメイト対応, 大型ベッド",#00cc00,139.541739,35.645704
調布市こころの健康支援センター,東京都 調布市布田五丁目46番地1,2F,2階車椅子使用者対応トイレ,"設備: 車椅子対応, オストメイト対応, 大型ベッド",#00cc00,139.541739,35.645704
調布市国領駅南口市営駐車場 (ココスクエア国領),東京都 調布市国領町3丁目1番地38,3F,車椅子使用者対応トイレ,設備: 車椅子対応,#00cc00,139.558991,35.649654