name,address,floor,toilet_name,note,color,lng,lat
小平合同庁舎,東京都 小平市花小金井一丁目6番20号,1F,車椅子使用者対応トイレ,設備: 車椅子対応,#00cc00,139.514094,35.730081
東京都健康安全研究センター薬用植物園,東京都 小平市中島町21-1,1F,車椅子使用者対応トイレ,"設備: 車椅子対応, おむつ交換台",#00cc00,139.435126,35.732367
東京都多摩小平保健所 (東京都花小金井庁舎),東京都 小平市花小金井一丁目31番24号,1F,１階身障者トイレ,設備: 車椅子対応,#00cc00,139.516511,35.730005
小平霊園,東京都 小平市美園町三丁目4番,1F,第5号多目的トイレ,"設備: 車椅子対応, オストメイト対応, おむつ交換台",#00cc00,139.487719,35.744021
小平霊園,東京都 小平市美園町三丁目4番,1F,第6号多目的トイレ,"設備: 車椅子対応, オストメイト対応, おむつ交換台",#00cc00,139.488559,35.742023
小平消防署花小金井出張所,東京都 小平市花小金井六丁目12番1号,1F,だれでもトイレ,"設備: 車椅子対応, オストメイト対応, おむつ交換台",#00cc00,139.507854,35.730328
小平市庁舎,東京都 小平市小川町二丁目1333番地,1F,1階バリアフリートイレ,"設備: 車椅子対応, オストメイト対応",#00cc00,139.477634,35.72873
小平市庁舎,東京都 小平市小川町二丁目1333番地,1F,庁舎敷地内便所棟バリアフリートイレ,設備: 車椅子対応,#00cc00,139.47812,35.728317
小平市庁舎,東京都 小平市小川町二丁目1333番地,2F,2階バリアフリートイレ,設備: 車椅子対応,#00cc00,139.477617,35.728675
小平市庁舎,東京都 小平市小川町二丁目1333番地,4F,4階バリアフリートイレ,設備: 車椅子対応,#00cc00,139.477649,35.728514
小平市庁舎,東京都 小平市小川町二丁目1333番地,5F,5階バリアフリートイレ,"設備: 車椅子対応, おむつ交換台",#00cc00,139.477649,35.728514
小平市庁舎,東京都 小平市小川町二丁目1333番地,6F,6階バリアフリートイレ,"設備: 車椅子対応, 大型ベッド",#00cc00,139.477671,35.728516
小平市庁舎,東京都 小平市小川町二丁目1333番地,7F,7階バリアフリートイレ,設備: 車椅子対応,#00cc00,139.477671,35.728516
小平市庁舎,東京都 小平市小川町二丁目1333番地,8F,8階バリアフリートイレ,設備: 車椅子対応,#00cc00,139.47725,35.728648
小平市庁舎,東京都 小平市小川町二丁目1333番地,B1F,地下１階バリアフリートイレ,設備: 車椅子対応,#00cc00,139.477649,35.728546
小平市健康福祉事務センター (小平市健康福祉事務センター),東京都 小平市小川町二丁目1333番地,1F,1階バリアフリートイレ,"設備: 車椅子対応, おむつ交換台",#00cc00,139.477398,35.727728
小平市健康福祉事務センター (小平市健康福祉事務センター),東京都 小平市小川町二丁目1333番地,2F,2階バリアフリートイレ,"設備: 車椅子対応, おむつ交換台",#00cc00,139.477398,35.727728
小平市健康センター,東京都 小平市学園東町一丁目19番12号,1F,健康センター1階だれでもトイレ,"設備: 車椅子対応, おむつ交換台",#00cc00,139.477433,35.727011
小平市健康センター,東京都 小平市学園東町一丁目19番12号,2F,健康センター2階だれでもトイレ,"設備: 車椅子対応, おむつ交換台",#00cc00,139.477433,35.727011
小平市健康センター,東京都 小平市学園東町一丁目19番12号,3F,健康センター3階だれでもトイレ,"設備: 車椅子対応, おむつ交換台",#00cc00,139.477433,35.727011
小平市健康センター,東京都 小平市学園東町一丁目19番12号,4F,健康センター4階だれでもトイレ,"設備: 車椅子対応, おむつ交換台",#00cc00,139.477433,35.727011
小平市立小川公民館,東京都 小平市小川町一丁目1012番,1F,1階だれでもトイレ,"設備: 車椅子対応, おむつ交換台",#00cc00,139.459327,35.726045
小平市立上宿公民館,東京都 小平市小川町一丁目308番,1F,1階だれでもトイレ,設備: 車椅子対応,#00cc00,139.443769,35.731607
小平市立上水南公民館,東京都 小平市上水南町一丁目27番1号,1F,1階だれでもトイレ,設備: おむつ交換台,#00cc00,139.483707,35.713149
小平市立鈴木公民館,東京都 小平市鈴木町二丁目772番,1F,1階だれでもトイレ,"設備: 車椅子対応, おむつ交換台",#00cc00,139.507263,35.721892
小平市中央公民館,東京都 小平市小川町二丁目1325番地,1F,1階だれでもトイレ,"設備: 車椅子対応, おむつ交換台",#00cc00,139.476064,35.727444
小平市中央公民館,東京都 小平市小川町二丁目1325番地,2F,2階だれでもトイレ,設備: 車椅子対応,#00cc00,139.476064,35.727444
小平市中央公民館,東京都 小平市小川町二丁目1325番地,B1F,地下１階だれでもトイレ,設備: 車椅子対応,#00cc00,139.476064,35.727444
小平市立花小金井北公民館,東京都 小平市花小金井五丁目41番3号,1F,だれでもトイレ,"設備: 車椅子対応, おむつ交換台",#00cc00,139.510232,35.734345
小平市立花小金井南公民館 (小平市立花小金井南公民館),東京都 小平市花小金井南町二丁目12番6号,1F,1階だれでもトイレ,"設備: 車椅子対応, おむつ交換台",#00cc00,139.516074,35.724389
小平市立鈴木地域センター,東京都 小平市鈴木町一丁目400番地,1F,1階だれでもトイレ,"設備: 車椅子対応, おむつ交換台",#00cc00,139.500762,35.720931
小平市立大沼地域センター,東京都 小平市大沼町二丁目17番33号,1F,1階だれでもトイレ,"設備: 車椅子対応, おむつ交換台",#00cc00,139.494561,35.741558
小平市立上水新町地域センター,東京都 小平市上水新町一丁目14番18号,1F,1階だれでもトイレ,"設備: 車椅子対応, おむつ交換台",#00cc00,139.438823,35.725393
小平市立中島地域センター,東京都 小平市中島町26番地9号,2F,２階だれでもトイレ,"設備: 車椅子対応, おむつ交換台",#00cc00,139.434212,35.729862
小平市立天神地域センター,東京都 小平市天神町四丁目3番1号,2F,２階だれでもトイレ,"設備: 車椅子対応, おむつ交換台",#00cc00,139.496671,35.728191
小平市立上水本町地域センター,東京都 小平市上水本町三丁目11番11号,2F,２階だれでもトイレ,"設備: 車椅子対応, おむつ交換台",#00cc00,139.470321,35.71752
小平市立小川西町地域センター,東京都 小平市小川西町五丁目4番17号,2F,２階だれでもトイレ,"設備: 車椅子対応, おむつ交換台",#00cc00,139.455927,35.735299
小平市立学園東町地域センター,東京都 小平市学園東町二丁目16番11号,2F,2階だれでもトイレ,"設備: 車椅子対応, おむつ交換台",#00cc00,139.483489,35.725744
小平市立花小金井北地域センター,東京都 小平市花小金井三丁目10番1号,2F,2階だれでもトイレ,設備: 車椅子対応,#00cc00,139.517891,35.734553
小平市立小川東町地域センター,東京都 小平市小川東町一丁目1805番地,1F,１階だれでもトイレ,"設備: 車椅子対応, おむつ交換台",#00cc00,139.477791,35.735557
小平市立御幸地域センター,東京都 小平市御幸町58番地,2F,２階だれでもトイレ,"設備: 車椅子対応, おむつ交換台",#00cc00,139.501409,35.714456
小平市立喜平地域センター,東京都 小平市喜平町一丁目10番9号,2F,２階だれでもトイレ,"設備: 車椅子対応, おむつ交換台",#00cc00,139.48862,35.716138
小平市立小川東第二地域センター,東京都 小平市小川東町五丁目9番1号,1F,１階だれでもトイレ,"設備: 車椅子対応, おむつ交換台",#00cc00,139.468586,35.732666
小平市立学園西町地域センター,東京都 小平市学園西町二丁目12番22号,2F,２階だれでもトイレ,"設備: 車椅子対応, おむつ交換台",#00cc00,139.475753,35.722752
小平市立小川西町中宿地域センター,東京都 小平市小川西町二丁目30番1号,1F,１階だれでもトイレ,設備: 車椅子対応,#00cc00,139.461002,35.739087
小平市立美園地域センター,東京都 小平市美園町一丁目19番2号,1F,１階だれでもトイレ,"設備: 車椅子対応, おむつ交換台",#00cc00,139.489198,35.73489
小平市立花小金井南地域センター・児童館,東京都 小平市花小金井南町三丁目3番17号,1F,１階だれでもトイレ,"設備: 車椅子対応, おむつ交換台",#00cc00,139.518602,35.722226
小平市立花小金井南地域センター・児童館,東京都 小平市花小金井南町三丁目3番17号,2F,２階だれでもトイレ,"設備: 車椅子対応, おむつ交換台",#00cc00,139.518602,35.722226
小平市立小川町二丁目地域センター・児童館,東京都 小平市小川町二丁目1154番地,1F,１階だれでもトイレ,"設備: 車椅子対応, オストメイト対応, 大型ベッド, おむつ交換台",#00cc00,139.46722,35.727753
小平市立小川町二丁目地域センター・児童館,東京都 小平市小川町二丁目1154番地,2F,２階だれでもトイレ,"設備: 車椅子対応, おむつ交換台",#00cc00,139.46722,35.727753
小平市立小川町一丁目地域センター・児童館,東京都 小平市小川町一丁目3045番地,1F,１階だれでもトイレ,"設備: 車椅子対応, オストメイト対応, 大型ベッド, おむつ交換台",#00cc00,139.448336,35.729445
小平市立小川町一丁目地域センター・児童館,東京都 小平市小川町一丁目3045番地,2F,２階だれでもトイレ,設備: 車椅子対応,#00cc00,139.448336,35.729445
小平元気村おがわ東,東京都 小平市小川東町四丁目2番1号,1F,１階だれでもトイレ,"設備: 車椅子対応, オストメイト対応, おむつ交換台",#00cc00,139.474141,35.740189
小平元気村おがわ東,東京都 小平市小川東町四丁目2番1号,2F,２階だれでもトイレ,"設備: 車椅子対応, おむつ交換台",#00cc00,139.474141,35.740189
小平元気村おがわ東,東京都 小平市小川東町四丁目2番1号,3F,３階だれでもトイレ,"小平元気村おがわ東の３階については、通常、関係者以外の立入りを御遠慮いただいております。 | 設備: 車椅子対応, おむつ交換台",#00cc00,139.474141,35.740189
小平市立中央図書館,東京都 小平市小川町二丁目1325番,1F,1階北側バリアフリートイレ,"設備: 車椅子対応, おむつ交換台",#00cc00,139.476511,35.727832
小平市立中央図書館,東京都 小平市小川町二丁目1325番,2F,2階北側バリアフリートイレ,設備: 車椅子対応,#00cc00,139.476511,35.727832
小平市立中央図書館,東京都 小平市小川町二丁目1325番,3F,3階北側バリアフリートイレ,設備: 車椅子対応,#00cc00,139.476511,35.727832
なかまちテラス (なかまちテラス),東京都 小平市仲町145番地,1F,1階バリアフリートイレ,"設備: 車椅子対応, 大型ベッド",#00cc00,139.484799,35.730885
なかまちテラス (なかまちテラス),東京都 小平市仲町145番地,B1F,地下1階バリアフリートイレ,"設備: 車椅子対応, オストメイト対応, 大型ベッド",#00cc00,139.48492,35.730863
小平市東部市民センター,東京都 小平市花小金井一丁目8番1号,1F,小平市東部市民センター１階西側だれでもトイレ,"設備: 車椅子対応, オストメイト対応, おむつ交換台",#00cc00,139.514017,35.727938
小平市東部市民センター,東京都 小平市花小金井一丁目8番1号,2F,小平市東部市民センター２階西側だれでもトイレ,"設備: 車椅子対応, 大型ベッド",#00cc00,139.514017,35.727938
小平市西部市民センター,東京都 小平市小川西町四丁目10番13号,1F,1階バリアフリートイレ,設備: 車椅子対応,#00cc00,139.461649,35.735149
小平市西部市民センター,東京都 小平市小川西町四丁目10番13号,2F,2階バリアフリートイレ,設備: 車椅子対応,#00cc00,139.461649,35.735149
小平市立喜平図書館,東京都 小平市喜平町三丁目3番18号,1F,１階バリアフリートイレ,"設備: 車椅子対応, おむつ交換台",#00cc00,139.490936,35.717376
小平市立喜平図書館,東京都 小平市喜平町三丁目3番18号,2F,２階バリアフリートイレ,設備: 車椅子対応,#00cc00,139.490895,35.717376
小平市立上宿図書館,東京都 小平市小川町一丁目345番地,1F,1階バリアフリートイレ,"設備: 車椅子対応, おむつ交換台",#00cc00,139.439242,35.730278
小平市立上宿図書館,東京都 小平市小川町一丁目345番地,2F,2階バリアフリートイレ,設備: 車椅子対応,#00cc00,139.439237,35.730309
小平市立大沼公民館・大沼図書館,東京都 小平市大沼町七丁目1番17号,1F,大沼公民館・図書館「バリアフリートイレ」,"設備: 車椅子対応, おむつ交換台",#00cc00,139.497074,35.735569
小平市立津田公民館・津田図書館,東京都 小平市津田町三丁目11番1号,1F,バリアフリートイレ,"設備: 車椅子対応, おむつ交換台",#00cc00,139.470083,35.720798
小平市ふれあい下水道館,東京都 小平市上水本町一丁目25番31号,1F,ピクトグラム表示のみ,"乳幼児用おむつ交換台は室外に設置 | 設備: 車椅子対応, おむつ交換台",#00cc00,139.464571,35.720197
鈴木遺跡資料館,東京都 小平市鈴木町一丁目487番1号,1F,１階誰でもトイレ,設備: 車椅子対応,#00cc00,139.496567,35.71855
平櫛田中彫刻美術館,東京都 小平市学園西町一丁目7番5号,1F,１階車椅子トイレ,設備: 車椅子対応,#00cc00,139.475437,35.71799
小平市民文化会館,東京都 小平市美園町一丁目8番5号,1F,１階事務室脇だれでもトイレ,"出入口脇に乳幼児用おむつ交換台がある | 設備: 車椅子対応, オストメイト対応",#00cc00,139.487488,35.734937
小平市民文化会館,東京都 小平市美園町一丁目8番5号,1F,１階大ホール脇だれでもトイレ,設備: 車椅子対応,#00cc00,139.48722,35.734521
小平市民文化会館,東京都 小平市美園町一丁目8番5号,2F,２階だれでもトイレ,設備: 車椅子対応,#00cc00,139.487466,35.734725
小平市民文化会館,東京都 小平市美園町一丁目8番5号,3F,３階中ホール脇だれでもトイレ,設備: 車椅子対応,#00cc00,139.487449,35.735038
小平市民文化会館,東京都 小平市美園町一丁目8番5号,3F,３階北側誰でもトイレ,設備: 車椅子対応,#00cc00,139.48743,35.735331
小平市民文化会館,東京都 小平市美園町一丁目8番5号,B1F,地下１階だれでもトイレ,設備: 車椅子対応,#00cc00,139.487488,35.734937
小平市立中央公園,東京都 小平市津田町一丁目1番地,1F,小平市立中央公園内西側だれでもトイレ,"設備: 車椅子対応, オストメイト対応, おむつ交換台",#00cc00,139.463116,35.723701
小平市立中央公園,東京都 小平市津田町一丁目1番地,1F,小平市立中央公園内南側だれでもトイレ,"設備: 車椅子対応, オストメイト対応, 大型ベッド",#00cc00,139.46221,35.721934
小平市立中央公園,東京都 小平市津田町一丁目1番地,1F,小平市立中央公園内北側だれでもトイレ,"設備: 車椅子対応, オストメイト対応, おむつ交換台",#00cc00,139.461664,35.724221
小平市立東部公園,東京都 小平市花小金井六丁目13番1号,1F,小平市立東部公園内だれでもトイレ,設備: 車椅子対応,#00cc00,139.509208,35.728942
小平市立小川緑地公園,東京都 小平市小川町一丁目308番1号,1F,小平市立小川緑地公園内だれでもトイレ,設備: 車椅子対応,#00cc00,139.444301,35.730982
小平市立中宿公園,東京都 小平市小川西町三丁目4番8号,1F,小平市立中宿公園内だれでもトイレ,設備: 車椅子対応,#00cc00,139.461465,35.741407
小平市立たけのこ公園,東京都 小平市花小金井七丁目9番10号,1F,たけのこ公園内だれでもトイレ,設備: 車椅子対応,#00cc00,139.503223,35.729833
小平市立九道の辻公園,東京都 小平市小川東町二丁目3番1号,1F,小平市立九道の辻公園内だれでもトイレ,設備: 車椅子対応,#00cc00,139.465369,35.743282
鈴木街道公園,東京都 小平市鈴木町二丁目766番1号,1F,小平市立鈴木街道公園内だれでもトイレ,"設備: 車椅子対応, おむつ交換台",#00cc00,139.506694,35.723072
小平市立栄町記念公園,東京都 小平市栄町二丁目35番1号,1F,小平市立栄町記念公園内だれでもトイレ,設備: 車椅子対応,#00cc00,139.45171,35.733485
小平市立学園駅前公園,東京都 小平市学園東町1番地3号,1F,小平市立学園駅前公園内だれでもトイレ,設備: 車椅子対応,#00cc00,139.480235,35.72277
小平市立森林公園,東京都 小平市小川西町二丁目31番18号,1F,小平市立森林公園内だれでもトイレ,設備: 車椅子対応,#00cc00,139.461612,35.739043
小平市立天神じゃぶじゃぶ公園,東京都 小平市天神町二丁目15番6号,1F,小平市立天神じゃぶじゃぶ公園内だれでもトイレ,設備: 車椅子対応,#00cc00,139.494984,35.733237
小平市立西町富士見公園,東京都 小平市小川西町五丁目39番23号,1F,小平市立西町富士見公園内だれでもトイレ,設備: 車椅子対応,#00cc00,139.459521,35.73616
小平市立中島町南公園,東京都 小平市中島町34番地11号,1F,小平市立中島町南公園内だれでもトイレ,設備: 車椅子対応,#00cc00,139.431999,35.728087
小平市立仲町第２公園,東京都 小平市学園東町427番地,1F,小平市立仲町第２公園内だれでもトイレ,設備: 車椅子対応,#00cc00,139.488041,35.727971
小平市立さくら公園,東京都 小平市小川西町五丁目44番1号,1F,小平市立さくら公園内だれでもトイレ,設備: 車椅子対応,#00cc00,139.459469,35.7337
七小西第１公園,東京都 小平市大沼町一丁目1番5号,1F,七小西第１公園内だれでもトイレ,設備: 車椅子対応,#00cc00,139.493072,35.735602
七小東公園,東京都 小平市大沼町七丁目1番16号,1F,七小東公園内だれでもトイレ,設備: 車椅子対応,#00cc00,139.496405,35.735914
小平市立十一小東第１公園,東京都 小平市花小金井四丁目21番8号,1F,小平市立十一小東第１公園内だれでもトイレ,設備: 車椅子対応,#00cc00,139.511001,35.735737
大けやき道公園,東京都 小平市小川町一丁目591番1号,1F,小平市立大けやき道公園内だれでもトイレ,設備: 車椅子対応,#00cc00,139.444879,35.72451
グリーンロード花南公園,東京都 小平市花小金井三丁目9番10号,1F,小平市立グリーンロード花南公園内だれでもトイレ,設備: 車椅子対応,#00cc00,139.52104,35.721892
小川町区画整理記念公園,東京都 小平市小川町一丁目3046番地,1F,小川町区画整理記念公園内だれでもトイレ,"設備: 車椅子対応, おむつ交換台",#00cc00,139.448469,35.728952
小平市立せきれい公園,東京都 小平市小川町一丁目3025番1号,1F,小平市立せきれい公園内だれでもトイレ,"設備: 車椅子対応, おむつ交換台",#00cc00,139.445325,35.729143
小平市立きつねっぱら公園,東京都 小平市小川町一丁目3006番4号,1F,小平市立きつねっぱら公園内だれでもトイレ,"設備: 車椅子対応, おむつ交換台",#00cc00,139.443465,35.724987
小平市立きつねっぱら公園,東京都 小平市小川町一丁目3006番4号,1F,小平市立きつねっぱら公園内だれでもトイレ,"設備: 車椅子対応, おむつ交換台",#00cc00,139.444722,35.725518
花小金井駅前トイレ (西武新宿線花小金井駅),東京都 小平市花小金井南町一丁目23番地,1F,花小金井駅前トイレ,"設備: 車椅子対応, オストメイト対応, おむつ交換台",#00cc00,139.513169,35.726014
小平駅前トイレ (西武新宿線小平駅),東京都 小平市美園町一丁目34番地,1F,小平駅前トイレ,"設備: 車椅子対応, おむつ交換台",#00cc00,139.487988,35.73699
小平市立たいよう福祉センター,東京都 小平市小川西町五丁目25番15号,1F,１階西だれでもトイレ,"設備: 車椅子対応, オストメイト対応, 大型ベッド",#00cc00,139.45894,35.736596
小平市立たいよう福祉センター,東京都 小平市小川西町五丁目25番15号,1F,１階東だれでもトイレ,設備: 車椅子対応,#00cc00,139.45894,35.736596
小平市立たいよう福祉センター,東京都 小平市小川西町五丁目25番15号,2F,2階だれでもトイレ,設備: 車椅子対応,#00cc00,139.45894,35.736596
小平市立あおぞら福祉センター,東京都 小平市鈴木町一丁目472番地,1F,1階南だれでもトイレ,設備: 車椅子対応,#00cc00,139.497489,35.720043
小平市立あおぞら福祉センター,東京都 小平市鈴木町一丁目472番地,1F,1階北側だれでもトイレ,設備: 車椅子対応,#00cc00,139.497489,35.720043
小平市立あおぞら福祉センター,東京都 小平市鈴木町一丁目472番地,2F,2階だれでもトイレ,設備: 車椅子対応,#00cc00,139.497489,35.720043
小平市立あおぞら福祉センター,東京都 小平市鈴木町一丁目472番地,3F,3階だれでもトイレ,設備: 車椅子対応,#00cc00,139.497489,35.720043
小平市福祉会館,東京都 小平市学園東町一丁目19番13号,1F,1階東側だれでもトイレ,設備: 車椅子対応,#00cc00,139.478183,35.726628
小平市福祉会館,東京都 小平市学園東町一丁目19番13号,5F,5階西側だれでもトイレ,設備: 車椅子対応,#00cc00,139.477949,35.726638
小平市立高齢者館ほのぼの館,東京都 小平市小川西町五丁目39番3号,1F,西側だれでもトイレ,設備: 車椅子対応,#00cc00,139.459497,35.736616
小平市立高齢者館さわやか館,東京都 小平市花小金井四丁目21番2号,1F,西側だれでもトイレ,"設備: 車椅子対応, おむつ交換台",#00cc00,139.510375,35.736782
小平市民総合体育館,東京都 小平市津田町一丁目1番1号,1F,１階だれでもトイレ,"乳幼児用おむつ交換台として、すのこが設置してある | 設備: 車椅子対応, オストメイト対応, おむつ交換台",#00cc00,139.46266,35.722638
小平市民総合体育館,東京都 小平市津田町一丁目1番1号,2F,２階だれでもトイレ,"乳児用おむつ交換台として、すのこが設置してある | 設備: 車椅子対応, おむつ交換台",#00cc00,139.462483,35.722535
小平市民総合体育館,東京都 小平市津田町一丁目1番1号,3F,３階プール前だれでもトイレ,乳児用おむつ交換台として、すのこが設置してある | 設備: 車椅子対応,#00cc00,139.462483,35.722535
小平市民総合体育館,東京都 小平市津田町一丁目1番1号,3F,３階弓道場前だれでもトイレ,,#00cc00,139.462674,35.722337
萩山公園管理棟,東京都 小平市小川東町四丁目4番1号,1F,グラウンドだれでもトイレ,普段は施錠されているため、管理人に鍵を借りて利用者が解錠して利用する | 設備: 車椅子対応,#00cc00,139.476972,35.738635
小平市リサイクルセンター,東京都 小平市小川東町5-19-10,1F,プラザエリア１Fだれでもトイレ,"設備: 車椅子対応, オストメイト対応, 大型ベッド",#00cc00,139.474225,35.732893
小平市リサイクルセンター,東京都 小平市小川東町5-19-10,2F,プラザエリア２Fだれでもトイレ,"設備: 車椅子対応, オストメイト対応, 大型ベッド",#00cc00,139.474225,35.732893
小平市リサイクルセンター,東京都 小平市小川東町5-19-10,1F,リサイクルセンター広場トイレ,設備: 車椅子対応,#00cc00,139.474759,35.733126
国分寺市民スポーツセンター,東京都 小平市上水本町六丁目22番1号,1F,1階東側だれでもトイレ,"設備: 車椅子対応, オストメイト対応",#00cc00,139.475339,35.7107
国分寺市民スポーツセンター,東京都 小平市上水本町六丁目22番1号,2F,2階北側だれでもトイレ,設備: 車椅子対応,#00cc00,139.475064,35.710924
国分寺市民スポーツセンター,東京都 小平市上水本町六丁目22番1号,3F,3階北側だれでもトイレ,設備: 車椅子対応,#00cc00,139.475064,35.710924
国分寺市民スポーツセンター,東京都 小平市上水本町六丁目22番1号,4F,4階北側だれでもトイレ,設備: 車椅子対応,#00cc00,139.475047,35.710848
市立けやき公園,東京都 小平市上水本町六丁目22番２号,1F,けやき公園トイレ,設備: 車椅子対応,#00cc00,139.473978,35.710258