name,address,floor,toilet_name,note,color,lng,lat
江戸東京たてもの園,東京都 小金井市桜町三丁目7番1号,1F,エントランス広場　女,トイレ利用時間は施設の開館時間による | 設備: 車椅子対応,#00cc00,139.5122,35.71584
江戸東京たてもの園,東京都 小金井市桜町三丁目7番1号,1F,エントランス広場　男,トイレ利用時間は施設の開館時間による | 設備: 車椅子対応,#00cc00,139.5122,35.71584
江戸東京たてもの園,東京都 小金井市桜町三丁目7番1号,1F,デ・ラランデ邸内,"トイレ利用時間は施設の開館時間による | 設備: 車椅子対応, オストメイト対応, 大型ベッド",#00cc00,139.5112,35.71645
江戸東京たてもの園,東京都 小金井市桜町三丁目7番1号,1F,ビジターセンター内　女,"トイレ利用時間は施設の開館時間による | 設備: 車椅子対応, おむつ交換台",#00cc00,139.5126,35.71571
江戸東京たてもの園,東京都 小金井市桜町三丁目7番1号,1F,ビジターセンター内　男,"トイレ利用時間は施設の開館時間による | 設備: 車椅子対応, オストメイト対応, 大型ベッド",#00cc00,139.5126,35.71571
江戸東京たてもの園,東京都 小金井市桜町三丁目7番1号,1F,綱島家横　女,トイレ利用時間は施設の開館時間による | 設備: 車椅子対応,#00cc00,139.5109,35.71598
江戸東京たてもの園,東京都 小金井市桜町三丁目7番1号,1F,綱島家横　男,トイレ利用時間は施設の開館時間による | 設備: 車椅子対応,#00cc00,139.5109,35.71598
江戸東京たてもの園,東京都 小金井市桜町三丁目7番1号,1F,店蔵型休憩棟内,"トイレ利用時間は施設の開館時間による | 設備: 車椅子対応, おむつ交換台",#00cc00,139.5152,35.71625
江戸東京たてもの園,東京都 小金井市桜町三丁目7番1号,1F,万世橋交番前　女,トイレ利用時間は施設の開館時間による | 設備: 車椅子対応,#00cc00,139.5143,35.71594
江戸東京たてもの園,東京都 小金井市桜町三丁目7番1号,1F,万世橋交番前　男,トイレ利用時間は施設の開館時間による | 設備: 車椅子対応,#00cc00,139.5143,35.71594
武蔵野公園,東京都 小金井市中町一丁目14番,1F,1号トイレ,"設備: 車椅子対応, おむつ交換台",#00cc00,139.516957,35.694001
武蔵野公園,東京都 小金井市東町五丁目1番,1F,３号だれでもトイレ,"設備: 車椅子対応, オストメイト対応, おむつ交換台",#00cc00,139.521411,35.688519
武蔵野公園,東京都 小金井市前原町２丁目１番地,1F,６号トイレ,"設備: 車椅子対応, オストメイト対応, おむつ交換台",#00cc00,139.514195,35.690951
野川公園,東京都 小金井市東町五丁目3番24号,1F,6号トイレ,"設備: 車椅子対応, オストメイト対応, おむつ交換台",#00cc00,139.523257,35.688605
小金井公園,東京都 小金井市関野町二丁目,1F,いこいの広場トイレ,"設備: 車椅子対応, おむつ交換台",#00cc00,139.516807,35.717129
小金井公園,東京都 小金井市桜町三丁目,1F,さくらの園トイレ,設備: 車椅子対応,#00cc00,139.510253,35.714969
小金井公園,東京都 小金井市関野町二丁目,1F,さくら通りトイレ,"設備: 車椅子対応, オストメイト対応, おむつ交換台",#00cc00,139.515347,35.71487
小金井公園,東京都 小金井市桜町三丁目,1F,たてもの園前トイレ,"設備: 車椅子対応, おむつ交換台",#00cc00,139.511692,35.715494
小金井公園,東京都 小金井市関野町一丁目,1F,つつじ山トイレ,"設備: 車椅子対応, オストメイト対応, おむつ交換台",#00cc00,139.521955,35.718358
小金井公園,東京都 小金井市関野町一丁目,1F,ユーカリトイレ,"設備: 車椅子対応, おむつ交換台",#00cc00,139.524818,35.71538
小金井公園,東京都 小金井市関野町一丁目,1F,ゆりの木トイレ,"設備: 車椅子対応, おむつ交換台",#00cc00,139.523653,35.716721
小金井公園,東京都 小金井市関野町一丁目,1F,弓道場内トイレ,"施設利用者のみ。月曜が祝日の場合は翌営業日が休。12/29〜1/3休。 | 設備: 車椅子対応, オストメイト対応",#00cc00,139.521454,35.713988
小金井公園,東京都 小金井市関野町二丁目,1F,第1駐車場トイレ,"設備: 車椅子対応, オストメイト対応, おむつ交換台",#00cc00,139.517819,35.714603
小金井公園,東京都 小金井市関野町一丁目,1F,中央トイレ,"設備: 車椅子対応, オストメイト対応, おむつ交換台",#00cc00,139.518577,35.71521
小金井公園,東京都 小金井市関野町二丁目,1F,梅林トイレ,"設備: 車椅子対応, オストメイト対応, おむつ交換台",#00cc00,139.513656,35.714994
多磨霊園,東京都 小金井市前原町一丁目1番,1F,小金井門トイレ1,"設備: 車椅子対応, オストメイト対応, 大型ベッド",#00cc00,139.508714,35.687557
多磨霊園,東京都 小金井市前原町一丁目1番,1F,小金井門トイレ2,"設備: 車椅子対応, オストメイト対応, 大型ベッド",#00cc00,139.508714,35.687557
多磨霊園,東京都 小金井市前原町一丁目1番,1F,20区トイレ,"設備: 車椅子対応, オストメイト対応, 大型ベッド",#00cc00,139.514179,35.685991
小金井消防署緑町出張所,東京都 小金井市緑町二丁目2番42号,1F,だれでもトイレ,"設備: 車椅子対応, おむつ交換台",#00cc00,139.521514,35.705748
小金井市役所本庁舎,東京都 小金井市本町六丁目6番3号,1F,１階だれでもトイレ,"設備: 車椅子対応, おむつ交換台",#00cc00,139.502947,35.699515
小金井市役所第二庁舎 (小金井前原町ビル),東京都 小金井市前原町三丁目41番15号,1F,１階だれでもトイレ,"設備: 車椅子対応, おむつ交換台",#00cc00,139.504844,35.698665
小金井市役所第二庁舎 (小金井前原町ビル),東京都 小金井市前原町三丁目41番15号,2F,２階だれでもトイレ,設備: 車椅子対応,#00cc00,139.504958,35.698649
小金井市役所第二庁舎 (小金井前原町ビル),東京都 小金井市前原町三丁目41番15号,8F,８階だれでもトイレ,設備: 車椅子対応,#00cc00,139.504958,35.698649
小金井市市民会館（萌え木ホール） (小金井市商工会館３階),東京都 小金井市前原町三丁目33番25号,3F,３階身障者用トイレ,設備: 車椅子対応,#00cc00,139.502421,35.698912
小金井市東小金井駅記念会館（マロンホール） (小金井市東小金井駅開設記念会館（マロンホール）),東京都 小金井市東町三丁目7番21号,1F,1階身障者用トイレ,"設備: 車椅子対応, オストメイト対応, 大型ベッド, おむつ交換台",#00cc00,139.529063,35.700299
小金井市前原暫定集会施設 (小金井市前原暫定集会施設),東京都 小金井市前原町三丁目33番27号,1F,１階身障者トイレ,"設備: 車椅子対応, オストメイト対応, おむつ交換台",#00cc00,139.502729,35.698872
小金井市婦人会館 (小金井市婦人会館),東京都 小金井市梶野町五丁目10番32号,1F,１階身障者トイレ,"設備: 車椅子対応, オストメイト対応, おむつ交換台",#00cc00,139.526602,35.70495
小金井市上之原会館 (小金井市上之原会館),東京都 小金井市本町五丁目6番19号,1F,１階身障者トイレ,"設備: 車椅子対応, おむつ交換台",#00cc00,139.501918,35.702512
小金井市前原町西之台会館 (小金井市前原町西之台会館),東京都 小金井市前原町三丁目8番1号,1F,１階身障者用トイレ,"設備: 車椅子対応, おむつ交換台",#00cc00,139.499528,35.693947
小金井市桜町上水会館 (小金井市桜町上水会館),東京都 小金井市桜町二丁目8番13号,1F,１階身障者用トイレ,"設備: 車椅子対応, おむつ交換台",#00cc00,139.504951,35.710884
小金井市貫井南町三楽集会所 (小金井市貫井南町三楽集会所),東京都 小金井市貫井南町三丁目6番18号,1F,１階身障者用トイレ,設備: 車椅子対応,#00cc00,139.495101,35.69926
小金井市東町友愛会館 (小金井市東町友愛会館),東京都 小金井市東町四丁目10番2号,1F,１階身障者用トイレ,設備: 車椅子対応,#00cc00,139.52369,35.694606
小金井市中町桜並集会所 (小金井市中町桜並集会所),東京都 小金井市中町三丁目19番12号,1F,１階身障者用トイレ,設備: 車椅子対応,#00cc00,139.51327,35.699903
小金井市貫井北五集会所 (小金井市貫井北五集会所),東京都 小金井市貫井北町五丁目16番13号,1F,１階身障者用トイレ,設備: 車椅子対応,#00cc00,139.488612,35.702991
小金井市中町天神前集会所 (小金井市中町天神前集会所),東京都 小金井市中町一丁目7番7号,1F,１階身障者用トイレ,設備: 車椅子対応,#00cc00,139.509979,35.693511
小金井市公民館本館,東京都 小金井市本町二丁目15番11号,1F,公民館本館だれでもトイレ,"設備: 車椅子対応, おむつ交換台",#00cc00,139.510496,35.70548
小金井市公民館貫井南分館 (貫井南センター),東京都 小金井市貫井南町四丁目3番23号,1F,1階多目的トイレ,"設備: 車椅子対応, オストメイト対応",#00cc00,139.493641,35.69371
小金井市公民館緑分館 (緑センター),東京都 小金井市緑町三丁目3番23号,1F,公民館緑分館トイレ,"設備: 車椅子対応, おむつ交換台",#00cc00,139.516334,35.70956
小金井市公民館東分館 (東センター),東京都 小金井市東町一丁目39番1号,1F,公民館東分館1階トイレ,"設備: 車椅子対応, オストメイト対応",#00cc00,139.526726,35.693968
小金井市公民館東分館 (東センター),東京都 小金井市東町一丁目39番1号,2F,公民館東分館2階トイレ,設備: 車椅子対応,#00cc00,139.526709,35.693994
小金井市貫井北センター,東京都 小金井市貫井北町一丁目11番12号,1F,1階トイレ,"設備: 車椅子対応, おむつ交換台",#00cc00,139.497696,35.702436
小金井市貫井北センター,東京都 小金井市貫井北町一丁目11番12号,2F,2階トイレ,"設備: 車椅子対応, オストメイト対応, おむつ交換台",#00cc00,139.498017,35.702255
小金井市保健センター,東京都 小金井市貫井北町五丁目１８番１８号,1F,1階トイレ,"パウチしびん洗浄あり | 設備: 車椅子対応, オストメイト対応, おむつ交換台",#00cc00,139.490179,35.701751
小金井市保健センター,東京都 小金井市貫井北町五丁目１８番１８号,2F,2階トイレ,"設備: 車椅子対応, おむつ交換台",#00cc00,139.490179,35.701751
小金井市立図書館,東京都 小金井市本町一丁目1番32号,1F,本館トイレ,"設備: 車椅子対応, オストメイト対応, 大型ベッド",#00cc00,139.510762,35.697725
小金井市立図書館,東京都 小金井市本町一丁目1番32号,2F,別館トイレ,設備: 車椅子対応,#00cc00,139.510638,35.697445
小金井市立はけの森美術館,東京都 小金井市中町一丁目11番3号,1F,１階トイレ,"・毎週月曜日は休館日・年末年始及び展示替期間（その年により異なるため、施設に要確認）も休館日 | 設備: 車椅子対応, おむつ交換台",#00cc00,139.512679,35.695104
小金井市立はけの森美術館,東京都 小金井市中町一丁目11番3号,2F,２階南側トイレ,・毎週月曜日は休館日・年末年始及び展示替期間（その年により異なるため、施設に要確認）も休館日・美術館におけるワークショップ開催時のみ２階のトイレは使用可能 | 設備: 車椅子対応,#00cc00,139.512823,35.695071
小金井市立はけの森美術館,東京都 小金井市中町一丁目11番3号,2F,２階北側トイレ,・毎週月曜日は休館日・年末年始及び展示替期間（その年により異なるため、施設に要確認）も休館日・美術館におけるワークショップ開催時のみ２階のトイレは使用可能 | 設備: 車椅子対応,#00cc00,139.512826,35.69509
小金井市文化財センター,東京都 小金井市緑町三丁目2番37号,1F,1階障害者用トイレ,設備: 車椅子対応,#00cc00,139.516909,35.710116
小金井 宮地楽器ホール,東京都 小金井市本町六丁目14番45号,1F,１階トイレ,"・休館日や臨時点検等により使用できない日程あり | 設備: 車椅子対応, オストメイト対応, 大型ベッド, おむつ交換台",#00cc00,139.506312,35.700247
小金井 宮地楽器ホール,東京都 小金井市本町六丁目14番45号,2F,２階楽屋トイレ,"・休館日や臨時点検等により使用できない日程あり・大ホール主催者かつ楽屋を使用の方のみ使用可 | 設備: 車椅子対応, おむつ交換台",#00cc00,139.506396,35.700255
小金井 宮地楽器ホール,東京都 小金井市本町六丁目14番45号,3F,３階ホワイエ南側トイレ,"・休館日や臨時点検等により使用できない日程あり・大ホール主催者、催事来場者のみ利用可 | 設備: 車椅子対応, おむつ交換台",#00cc00,139.50605,35.700108
小金井 宮地楽器ホール,東京都 小金井市本町六丁目14番45号,3F,３階ホワイエ北側トイレ,"・休館日や臨時点検等により使用できない日程あり・大ホール主催者、催事来場者のみ利用可 | 設備: 車椅子対応, おむつ交換台",#00cc00,139.506173,35.70033
小金井 宮地楽器ホール,東京都 小金井市本町六丁目14番45号,4F,４階ホワイエトイレ,"・休館日や臨時点検等により使用できない日程あり・大ホール主催者、催事来場者のみ利用可 | 設備: 車椅子対応, おむつ交換台",#00cc00,139.50605,35.700108
小金井 宮地楽器ホール,東京都 小金井市本町六丁目14番45号,B1F,地下１階トイレ,"・休館日や臨時点検等により使用できない日程あり | 設備: 車椅子対応, おむつ交換台",#00cc00,139.506049,35.700319
小金井市上水公園運動施設,東京都 小金井市桜町二丁目2番31号,1F,車椅子使用者対応トイレ,"利用可能時間　12月1日〜3月31日 9:00〜17:00。ただし、休場日を除く。休場日は、毎月第１月曜日（祝日の場合は翌日）、年末年始（12/29〜1/3）、その他都合により休場する場合。 | 設備: 車椅子対応, オストメイト対応, おむつ交換台",#00cc00,139.505242,35.70936
小金井市栗山公園健康運動センター,東京都 小金井市中町二丁目21番1号,1F,車椅子使用者対応トイレ,設備: 車椅子対応,#00cc00,139.521296,35.697849
小金井市栗山公園健康運動センター,東京都 小金井市中町二丁目21番1号,B2F,車椅子使用者対応トイレ,設備: 車椅子対応,#00cc00,139.521296,35.697849
小金井市総合体育館,東京都 小金井市関野町一丁目13番1号,1F,車椅子使用者対応トイレ,"設備: 車椅子対応, おむつ交換台",#00cc00,139.519954,35.714285
小金井市総合体育館,東京都 小金井市関野町一丁目13番1号,2F,車椅子使用者対応トイレ,"設備: 車椅子対応, おむつ交換台",#00cc00,139.519954,35.714285
小金井市総合体育館,東京都 小金井市関野町一丁目13番1号,B1F,車椅子使用者対応トイレ,"設備: 車椅子対応, おむつ交換台",#00cc00,139.519954,35.714285
梶野公園,東京都 小金井市梶野町五丁目１０番,1F,多目的トイレ,"パウチしびん洗浄あり | 設備: 車椅子対応, オストメイト対応, 大型ベッド, おむつ交換台",#00cc00,139.5268,35.702683
貫井けやき公園,東京都 小金井市貫井南町四丁目１３番,1F,多目的トイレ,"設備: 車椅子対応, オストメイト対応, おむつ交換台",#00cc00,139.4943,35.695622
浴恩館公園,東京都 小金井市緑町三丁目２番,1F,多目的トイレ,設備: 車椅子対応,#00cc00,139.51768,35.71047
滄浪泉園,東京都 小金井市貫井南町三丁目２番２８号,1F,多目的トイレ,設備: 車椅子対応,#00cc00,139.499041,35.699103
環境楽習館（環境配慮住宅型研修施設）,東京都 小金井市貫井南町三丁目２番１６号,1F,多目的トイレ,乳幼児用いすは普通トイレにあり | 設備: 車椅子対応,#00cc00,139.498065,35.699055
武蔵小金井駅南口公衆トイレ,東京都 小金井市本町六丁目地内,1F,武蔵小金井駅南口公衆トイレ,"通年で２４時間利用可能 | 設備: 車椅子対応, オストメイト対応, おむつ交換台",#00cc00,139.506988,35.700353
小金井市本町児童館,東京都 小金井市本町五丁目4番25号,1F,１階トイレ,"月末館内整理日は利用不可 | 設備: 車椅子対応, おむつ交換台",#00cc00,139.500942,35.702728
小金井市東児童館,東京都 小金井市東町四丁目25番7号,1F,トイレ,"月末館内整理日は利用不可 | 設備: 車椅子対応, オストメイト対応",#00cc00,139.526351,35.697681
小金井市緑児童館,東京都 小金井市緑町四丁目18番25号,1F,１階トイレ,"月末館内整理日は利用不可 | 設備: 車椅子対応, オストメイト対応, おむつ交換台",#00cc00,139.518143,35.709388
小金井市障害者福祉センター,東京都 小金井市緑町四丁目17番10号,1F,1階女子トイレ,設備: 車椅子対応,#00cc00,139.517419,35.708714
小金井市障害者福祉センター,東京都 小金井市緑町四丁目17番10号,1F,1階男子トイレ,設備: 車椅子対応,#00cc00,139.517429,35.708757
小金井市障害者福祉センター,東京都 小金井市緑町四丁目17番10号,1F,多目的トイレ,"設備: 車椅子対応, 大型ベッド",#00cc00,139.5174,35.708699
小金井市野川クリーンセンター,東京都 小金井市東町一丁目7番19号,2F,バリアフリートイレ,"設備: 車椅子対応, オストメイト対応, おむつ交換台",#00cc00,139.522544,35.68737