name,address,floor,toilet_name,note,color,lng,lat
東京都公文書館 (東京都公文書館),東京都 国分寺市泉町二丁目2-21,1F,車椅子対応トイレ,"設備: 車椅子対応, オストメイト対応, おむつ交換台",#00cc00,139.469918,35.69758
武蔵国分寺公園,東京都 国分寺市西元町一丁目11番,1F,こもれび広場南西側トイレ,"設備: 車椅子対応, おむつ交換台",#00cc00,139.471005,35.695313
武蔵国分寺公園,東京都 国分寺市泉町二丁目1番,1F,円形広場南東側トイレ,"設備: 車椅子対応, おむつ交換台",#00cc00,139.473016,35.697157
武蔵国分寺公園,東京都 国分寺市泉町二丁目1番,1F,円形広場北西側トイレ,"設備: 車椅子対応, おむつ交換台",#00cc00,139.471269,35.698178
殿ヶ谷戸庭園,東京都 国分寺市南町二丁目16番地,1F,開放公園北側トイレ,設備: 車椅子対応,#00cc00,139.481512,35.698538
東京都立多摩図書館 (東京都立多摩図書館),東京都 国分寺市泉町二丁目2番26号,1F,多目的トイレ（１）,"設備: 車椅子対応, オストメイト対応, おむつ交換台",#00cc00,139.469609,35.697944
東京都立多摩図書館 (東京都立多摩図書館),東京都 国分寺市泉町二丁目2番26号,1F,多目的トイレ（２）,"設備: 車椅子対応, オストメイト対応, おむつ交換台",#00cc00,139.470081,35.697917
国分寺消防署,東京都 国分寺市泉町二丁目２番３号,1F,誰でもトイレ,"設備: 車椅子対応, オストメイト対応, おむつ交換台",#00cc00,139.470486,35.69651
国分寺市役所　本庁,東京都 国分寺市戸倉一丁目6番1号,1F,第一庁舎1階誰でもトイレ,"設備: 車椅子対応, オストメイト対応, おむつ交換台",#00cc00,139.463122,35.710444
国分寺市役所　本庁,東京都 国分寺市戸倉一丁目6番1号,1F,第四庁舎1階だれでもトイレ,"設備: 車椅子対応, おむつ交換台",#00cc00,139.462782,35.710925
国分寺市役所　本庁,東京都 国分寺市戸倉一丁目6番1号,1F,第二庁舎1階だれでもトイレ,"設備: 車椅子対応, おむつ交換台",#00cc00,139.462961,35.710557
国分寺市いずみプラザ,東京都 国分寺市泉町二丁目3番8号,1F,いずみプラザ1階だれでもトイレ,設備: 車椅子対応,#00cc00,139.468688,35.696222
国分寺市いずみプラザ,東京都 国分寺市泉町二丁目3番8号,2F,いずみプラザ2階誰でもトイレ,"設備: 車椅子対応, おむつ交換台",#00cc00,139.468809,35.696287
武蔵国分寺跡資料館,東京都 国分寺市西元町一丁目13番10号,1F,武蔵国分寺跡資料館,"設備: 車椅子対応, オストメイト対応, 大型ベッド, おむつ交換台",#00cc00,139.472786,35.693836
国分寺市ひかりプラザ (ひかりプラザ),東京都 国分寺市光町一丁目46番8号,1F,１階だれでもトイレ,"12月29日〜１月３日は使用不可。 | 設備: 車椅子対応, 大型ベッド, おむつ交換台",#00cc00,139.444666,35.702543
国分寺市ひかりプラザ (ひかりプラザ),東京都 国分寺市光町一丁目46番8号,2F,２階だれでもトイレ,"12月29日〜１月３日は使用不可。 | 設備: 車椅子対応, オストメイト対応",#00cc00,139.444609,35.702607
国分寺市立本多公民館,東京都 国分寺市本多一丁目7番1号,1F,1階だれでもトイレ,"休館日：毎月第1・第3月曜日・年末年始（12月29日から1月3日） | 設備: 車椅子対応, オストメイト対応, 大型ベッド, おむつ交換台",#00cc00,139.482333,35.705349
国分寺市立本多公民館,東京都 国分寺市本多一丁目7番1号,2F,2階だれでもトイレ,"休館日：毎月第1・第3月曜日・年末年始（12月29日から1月3日） | 設備: 車椅子対応, オストメイト対応",#00cc00,139.482711,35.705322
国分寺市立光公民館,東京都 国分寺市光町三丁目13番19号,2F,2階だれでもトイレ,"休館日：毎月第3月曜日・年末年始（12月29日から1月3日），休日にあたる月曜日 | 設備: 車椅子対応, オストメイト対応, おむつ交換台",#00cc00,139.443053,35.707821
国分寺市立光公民館,東京都 国分寺市光町三丁目13番19号,B1F,地下だれでもトイレ,"休館日：毎月第3月曜日・年末年始（12月29日から1月3日），休日にあたる月曜日 | 設備: 車椅子対応, おむつ交換台",#00cc00,139.44312,35.707779
国分寺市立もとまち公民館,東京都 国分寺市東元町二丁目3番13号,2F,だれでもトイレ,"休館日：毎月第3月曜日・年末年始（12月29日から1月3日），休日にあたる月曜日 | 設備: 車椅子対応, おむつ交換台",#00cc00,139.483487,35.692128
国分寺市立並木公民館,東京都 国分寺市並木町二丁目12番3号,1F,だれでもトイレ,"休館日：毎月第3月曜日・年末年始（12月29日から1月3日），休日にあたる月曜日 | 設備: 車椅子対応, オストメイト対応",#00cc00,139.453249,35.715786
生きがいセンターこいがくぼ (市民室内プール),東京都 国分寺市西恋ヶ窪三丁目32番6号,1F,生きがいセンターこいがくぼだれでもトイレ,設備: 車椅子対応,#00cc00,139.465369,35.705771
生きがいセンターほんだ (生きがいセンターほんだ),東京都 国分寺市本多五丁目29番3号,1F,生きがいセンターほんだだれでもトイレ,●年度により活動曜日に変動あり●講座や団体活動等で利用時のみ開館　●第5週は活動なし●12/29-1/3は活動なし | 設備: 車椅子対応,#00cc00,139.487216,35.705692
国分寺市いきいきセンター (トミンハイム1階),東京都 国分寺市泉町二丁目6番36号,1F,いきいきセンターだれでもトイレ,設備: 車椅子対応,#00cc00,139.468271,35.696555
国分寺市立福祉センター,東京都 国分寺市戸倉四丁目14番地,1F,１階身障者便所,設備: 車椅子対応,#00cc00,139.455714,35.708122
国分寺市立福祉センター,東京都 国分寺市戸倉四丁目14番地,2F,２階身障者便所,設備: 車椅子対応,#00cc00,139.455714,35.708122
国分寺市立福祉センター,東京都 国分寺市戸倉四丁目14番地,3F,３階身障者便所,"設備: 車椅子対応, 大型ベッド",#00cc00,139.455714,35.708122
国分寺市立アクティ・ココブンジ,東京都 国分寺市本町二丁目2番1号 cocobunji EAST 3階,3F,だれでもトイレ,"設備: 車椅子対応, オストメイト対応, おむつ交換台",#00cc00,139.481543,35.700678
国分寺市立恋ケ窪図書館,東京都 国分寺市西恋ヶ窪四丁目12番8号,1F,１階だれでもトイレ,"設備: 車椅子対応, オストメイト対応, おむつ交換台",#00cc00,139.464215,35.707662
国分寺市立光図書館,東京都 国分寺市光町三丁目13番19号,1F,光図書館だれでもトイレ,"設備: 車椅子対応, おむつ交換台",#00cc00,139.443073,35.707852
国分寺市立もとまち図書館,東京都 国分寺市東元町二丁目3番13号,1F,だれでもトイレ,"設備: 車椅子対応, オストメイト対応, おむつ交換台",#00cc00,139.483471,35.692278
国分寺市立並木図書館,東京都 国分寺市並木町二丁目12番3号,2F,だれでもトイレ,設備: 車椅子対応,#00cc00,139.453154,35.715857
国分寺市立本町・南町地域センター (ブロードアベニュー国分寺1階),東京都 国分寺市南町三丁目21番1号,1F,1階だれでもトイレ,"設備: 車椅子対応, おむつ交換台",#00cc00,139.478864,35.699822
国分寺市立北町地域センター,東京都 国分寺市北町三丁目2番地13,1F,1階だれでもトイレ,"設備: 車椅子対応, おむつ交換台",#00cc00,139.450012,35.717831
国分寺市立北の原地域センター,東京都 国分寺市東恋ヶ窪六丁目9番地11,1F,1階だれでもトイレ,"設備: 車椅子対応, おむつ交換台",#00cc00,139.46919,35.713633
国分寺市内藤地域センター,東京都 国分寺市内藤二丁目22番地34,1F,1階だれでもトイレ,設備: 車椅子対応,#00cc00,139.456225,35.698206
国分寺市立西町プラザ,東京都 国分寺市西町三丁目22番地1,1F,1階だれでもトイレ,設備: 車椅子対応,#00cc00,139.434242,35.710847
国分寺市立西町プラザ,東京都 国分寺市西町三丁目22番地1,2F,2階だれでもトイレ,設備: 車椅子対応,#00cc00,139.434322,35.710835
国分寺市立もとまちプラザ,東京都 国分寺市西元町三丁目18番12号,1F,1階だれでもトイレ,"設備: 車椅子対応, おむつ交換台",#00cc00,139.474987,35.691285
史跡の駅,東京都 国分寺市西元町一丁目13番6号,1F,史跡の駅 おたカフェ,"設備: 車椅子対応, オストメイト対応, 大型ベッド, おむつ交換台",#00cc00,139.472917,35.693225
国分寺市立cocobunjiプラザ (cocobunji WEST５階),東京都 国分寺市本町三丁目1番1号,5F,だれでもトイレ,"設備: 車椅子対応, オストメイト対応, 大型ベッド, おむつ交換台",#00cc00,139.480087,35.700464
国分寺市立いずみホール,東京都 国分寺市泉町三丁目36番12号,1F,だれでもトイレ,設備: 車椅子対応,#00cc00,139.464856,35.698843
窪東公園,東京都 国分寺市東戸倉二丁目19番1号,1F,窪東公園トイレ,"設備: 車椅子対応, おむつ交換台",#00cc00,139.465935,35.715162
北町公園,東京都 国分寺市北町五丁目24番6号,1F,北町公園トイレ,"設備: 車椅子対応, オストメイト対応, おむつ交換台",#00cc00,139.451078,35.720666
東恋ヶ窪でんしゃ公園,東京都 国分寺市東恋ヶ窪一丁目280番5号,1F,東恋ヶ窪でんしゃ公園トイレ,設備: 車椅子対応,#00cc00,139.470081,35.704299
姿見の池緑地,東京都 国分寺市西恋ヶ窪一丁目8番地７,1F,姿見の池緑地トイレ,"設備: 車椅子対応, オストメイト対応, おむつ交換台",#00cc00,139.468891,35.701024
内藤さつき公園,東京都 国分寺市内藤一丁目24番地,1F,内藤さつき公園トイレ,"設備: 車椅子対応, オストメイト対応, おむつ交換台",#00cc00,139.458472,35.697298
国分寺いきいき農園,東京都 国分寺市戸倉三丁目14番2号,1F,だれでも農園トイレ,設備: 車椅子対応,#00cc00,139.452392,35.709124
国分寺駅北口駅前広場,東京都 国分寺市本町三丁目１番,1F,国分寺駅北口駅前広場トイレ付倉庫,"設備: 車椅子対応, オストメイト対応, おむつ交換台",#00cc00,139.48045,35.701895
国分寺市障害者センター (国分寺市障害者センター),東京都 国分寺市泉町二丁目3番8号,1F,１階だれでもトイレ,"設備: 車椅子対応, オストメイト対応, 大型ベッド, おむつ交換台",#00cc00,139.468453,35.696264
市民室内プール,東京都 国分寺市西恋ケ窪三丁目32番地６,2F,だれでもトイレ,"設備: 車椅子対応, オストメイト対応",#00cc00,139.465354,35.705738