name,address,floor,toilet_name,note,color,lng,lat
野川公園,東京都 三鷹市大沢六丁目1番,1F,5号トイレ,"設備: 車椅子対応, オストメイト対応, おむつ交換台",#00cc00,139.529094,35.681567
野川公園,東京都 三鷹市大沢六丁目4番,1F,サービスセンタートイレ,"設備: 車椅子対応, オストメイト対応, おむつ交換台",#00cc00,139.52577,35.680176
井の頭恩賜公園,東京都 三鷹市下連雀一丁目1番,1F,12号グランド便所,"設備: 車椅子対応, オストメイト対応, おむつ交換台",#00cc00,139.572226,35.697345
井の頭恩賜公園,東京都 三鷹市下連雀一丁目1番,1F,14号新公園南便所,"設備: 車椅子対応, オストメイト対応, おむつ交換台",#00cc00,139.57119,35.695593
井の頭恩賜公園,東京都 三鷹市下連雀一丁目1番,1F,15号野球場横便所,"設備: 車椅子対応, オストメイト対応, おむつ交換台",#00cc00,139.57158,35.694315
井の頭恩賜公園,東京都 三鷹市井の頭四丁目1番,1F,3号ステージ横便所（女性用）,"設備: 車椅子対応, オストメイト対応, おむつ交換台",#00cc00,139.578367,35.700194
井の頭恩賜公園,東京都 三鷹市井の頭四丁目1番,1F,3号ステージ横便所（男性用）,"設備: 車椅子対応, オストメイト対応",#00cc00,139.578367,35.700194
井の頭恩賜公園,東京都 三鷹市井の頭四丁目1番,1F,4号池尻便所,"設備: 車椅子対応, オストメイト対応, おむつ交換台",#00cc00,139.580579,35.698574
井の頭恩賜公園,東京都 三鷹市井の頭三丁目35番,1F,5号公園駅下便所,"設備: 車椅子対応, オストメイト対応, おむつ交換台",#00cc00,139.582234,35.697868
井の頭恩賜公園,東京都 三鷹市下連雀一丁目1番,1F,スポーツ施設管理センター,"10月7:15〜17:45、11月12月7:15〜17:00、1月2月8:00〜17:00 | 設備: 車椅子対応, オストメイト対応, おむつ交換台",#00cc00,139.57137,35.698157
井の頭恩賜公園,東京都 三鷹市井の頭四丁目1番,1F,2号和歌水便所,"設備: 車椅子対応, オストメイト対応, おむつ交換台",#00cc00,139.576648,35.701251
井の頭恩賜公園,東京都 三鷹市井の頭四丁目1番,1F,7号便所,"設備: 車椅子対応, オストメイト対応, おむつ交換台",#00cc00,139.57799,35.698802
井の頭恩賜公園,東京都 三鷹市井の頭四丁目1番,1F,9号弁天便所,"設備: 車椅子対応, オストメイト対応, おむつ交換台",#00cc00,139.575213,35.699209
井の頭恩賜公園,東京都 三鷹市井の頭五丁目17番,1F,13号便所,"設備: 車椅子対応, オストメイト対応, おむつ交換台",#00cc00,139.574268,35.69597
井の頭恩賜公園,東京都 三鷹市井の頭三丁目1番,1F,6号便所,"設備: 車椅子対応, オストメイト対応, おむつ交換台",#00cc00,139.583275,35.696961
井の頭恩賜公園,東京都 三鷹市井の頭四丁目1番,1F,8号便所,"設備: 車椅子対応, オストメイト対応, おむつ交換台",#00cc00,139.576783,35.699828
井の頭恩賜公園,東京都 三鷹市下連雀一丁目1番,1F,11号便所,"設備: 車椅子対応, オストメイト対応, おむつ交換台",#00cc00,139.570564,35.697663
武蔵野の森公園,東京都 三鷹市大沢五丁目,1F,２号トイレ,"設備: 車椅子対応, オストメイト対応, おむつ交換台",#00cc00,139.533748,35.66781
武蔵野の森公園,東京都 三鷹市大沢六丁目,1F,７号トイレ,"多目的シート70×120　あり | 設備: 車椅子対応, オストメイト対応, 大型ベッド, おむつ交換台",#00cc00,139.528527,35.676243
井の頭自然文化園,東京都 三鷹市井の頭四丁目1番地,1F,山小屋トイレ,"利用は開園スケジュールに基づく（休園日は利用不可） | 設備: 車椅子対応, おむつ交換台",#00cc00,139.575497,35.699889
井の頭自然文化園,東京都 三鷹市井の頭四丁目1番地,1F,水生物館トイレ,"利用は開園スケジュールに基づく（休園日は利用不可） | 設備: 車椅子対応, おむつ交換台",#00cc00,139.575388,35.700433
井の頭自然文化園,東京都 三鷹市井の頭四丁目1番地,1F,七井門トイレ,"設備: 車椅子対応, オストメイト対応, おむつ交換台",#00cc00,139.576783,35.699828
三鷹消防署,東京都 三鷹市下連雀九丁目2番17号,B1F,だれでもトイレ,"設備: 車椅子対応, オストメイト対応, おむつ交換台",#00cc00,139.563224,35.683483
三鷹消防署　牟礼出張所,東京都 三鷹市牟礼二丁目６番１７号,1F,誰でもトイレ,"設備: 車椅子対応, オストメイト対応, おむつ交換台",#00cc00,139.583557,35.688416
三鷹市民センター　本庁舎,東京都 三鷹市野崎一丁目1番1号,1F,本庁舎1階　だれでもトイレ,"設備: 車椅子対応, おむつ交換台",#00cc00,139.559775,35.683208
三鷹市民センター　本庁舎,東京都 三鷹市野崎一丁目1番1号,2F,本庁舎2階　だれでもトイレ,"設備: 車椅子対応, おむつ交換台",#00cc00,139.559775,35.683208
三鷹市民センター　本庁舎,東京都 三鷹市野崎一丁目1番1号,3F,本庁舎３階　だれでもトイレ,"設備: 車椅子対応, オストメイト対応, おむつ交換台",#00cc00,139.559775,35.683208
三鷹市民センター　本庁舎,東京都 三鷹市野崎一丁目1番1号,4F,本庁舎4階　だれでもトイレ,"設備: 車椅子対応, おむつ交換台",#00cc00,139.559775,35.683208
三鷹市民センター　本庁舎,東京都 三鷹市野崎一丁目1番1号,5F,本庁舎5階　だれでもトイレ,"設備: 車椅子対応, おむつ交換台",#00cc00,139.559775,35.683208
三鷹市民センター　第二庁舎,東京都 三鷹市野崎一丁目1番1号,1F,第二庁舎1階　だれでもトイレ,設備: 車椅子対応,#00cc00,139.56049,35.682889
三鷹市民センター　第二庁舎,東京都 三鷹市野崎一丁目1番1号,2F,第二庁舎2階　だれでもトイレ,設備: 車椅子対応,#00cc00,139.560435,35.682859
三鷹市民センター　第二庁舎,東京都 三鷹市野崎一丁目1番1号,3F,第二庁舎3階　だれでもトイレ,設備: 車椅子対応,#00cc00,139.560435,35.682859
三鷹市民センター　第二庁舎,東京都 三鷹市野崎一丁目1番1号,4F,第二庁舎4階　だれでもトイレ,設備: 車椅子対応,#00cc00,139.560435,35.682859
三鷹市上連雀分庁舎,東京都 三鷹市上連雀八丁目3番10号,1F,上連雀分庁舎1階　だれでもトイレ,"設備: 車椅子対応, オストメイト対応",#00cc00,139.557752,35.684773
三鷹市上連雀分庁舎,東京都 三鷹市上連雀八丁目3番10号,2F,上連雀分庁舎2階　だれでもトイレ,"設備: 車椅子対応, おむつ交換台",#00cc00,139.557752,35.684773
三鷹台市政窓口,東京都 三鷹市井の頭二丁目13番2号,1F,だれでもトイレ,"設備: 車椅子対応, オストメイト対応",#00cc00,139.587346,35.691777
三鷹東部市政窓口,東京都 三鷹市中原一丁目29番35号,1F,だれでもトイレ,設備: 車椅子対応,#00cc00,139.575955,35.667287
三鷹西部市政窓口,東京都 三鷹市野崎三丁目28番11号,1F,だれでもトイレ,"設備: 車椅子対応, オストメイト対応",#00cc00,139.538916,35.683927
三鷹中央防災公園・元気創造プラザ（屋内部分） (三鷹中央防災公園・元気創造プラザ),東京都 三鷹市新川六丁目37番1号,1F,1F多機能トイレ1（支援センター南側階段前）,"※管理上、子ども発達支援センター利用者に限ります※以下の休館日のご利用はできません・土日祝・年末年始・全館臨時休館日、センターの臨時休館日 | 設備: 車椅子対応, オストメイト対応, おむつ交換台",#00cc00,139.561757,35.681517
三鷹中央防災公園・元気創造プラザ（屋内部分） (三鷹中央防災公園・元気創造プラザ),東京都 三鷹市新川六丁目37番1号,1F,1F多機能トイレ2（共用廊下南）,"※第4月曜日（祝日の場合は第4火曜日）は、9時〜18時のみの利用です※以下の休館日のご利用はできません・年末年始・全館臨時休館日 | 設備: 車椅子対応, オストメイト対応, おむつ交換台",#00cc00,139.562162,35.681578
三鷹中央防災公園・元気創造プラザ（屋内部分） (三鷹中央防災公園・元気創造プラザ),東京都 三鷹市新川六丁目37番1号,1F,1F多機能トイレ3（共用廊下北）,"※第4月曜日（祝日の場合は第4火曜日）は、9時〜18時のみの利用です※以下の休館日のご利用はできません・年末年始・全館臨時休館日 | 設備: 車椅子対応, 大型ベッド",#00cc00,139.562157,35.681611
三鷹中央防災公園・元気創造プラザ（屋内部分） (三鷹中央防災公園・元気創造プラザ),東京都 三鷹市新川六丁目37番1号,1F,1F多機能トイレ4（プール多機能更衣室）,※以下の休館日のご利用はできません・第4月曜日（祝日の場合は第4火曜日）・年末年始・プール臨時休場日・全館臨時休館日 | 設備: 車椅子対応,#00cc00,139.562498,35.682007
三鷹中央防災公園・元気創造プラザ（屋内部分） (三鷹中央防災公園・元気創造プラザ),東京都 三鷹市新川六丁目37番1号,1F,1F多機能トイレ5（プールゲート奥）,"※以下の休館日のご利用はできません・第4月曜日（祝日の場合は第4火曜日）・年末年始・プール臨時休場日・全館臨時休館日 | 設備: 車椅子対応, オストメイト対応, 大型ベッド, おむつ交換台",#00cc00,139.562591,35.681989
三鷹中央防災公園・元気創造プラザ（屋内部分） (三鷹中央防災公園・元気創造プラザ),東京都 三鷹市新川六丁目37番1号,1F,1F多機能トイレ6（プール女子更衣室）,"※以下の休館日のご利用はできません・第4月曜日（祝日の場合は第4火曜日）・年末年始・プール臨時休場日・全館臨時休館日 | 設備: 車椅子対応, オストメイト対応",#00cc00,139.562527,35.68207
三鷹中央防災公園・元気創造プラザ（屋内部分） (三鷹中央防災公園・元気創造プラザ),東京都 三鷹市新川六丁目37番1号,1F,1F多機能トイレ7（プール男子更衣室）,"※以下の休館日のご利用はできません・第4月曜日（祝日の場合は第4火曜日）・年末年始・プール臨時休場日・全館臨時休館日 | 設備: 車椅子対応, オストメイト対応",#00cc00,139.56263,35.682027
三鷹中央防災公園・元気創造プラザ（屋内部分） (三鷹中央防災公園・元気創造プラザ),東京都 三鷹市新川六丁目37番1号,2F,2F多機能トイレ1（交流サロン）,"※以下の休館日のご利用はできません・年末年始・全館臨時休館日※休日歯科応急診療受診者は、年末年始の診療時間帯の利用可 | 設備: 車椅子対応, オストメイト対応, おむつ交換台",#00cc00,139.561827,35.681782
三鷹中央防災公園・元気創造プラザ（屋内部分） (三鷹中央防災公園・元気創造プラザ),東京都 三鷹市新川六丁目37番1号,2F,2F多機能トイレ2（健診ホール）,"※利用可能期間は不定期（健診ホール内の事業実施日）※管理上、総合保健センターの健診ホールの事業実施日（不定期）の利用者に限ります | 設備: 車椅子対応, オストメイト対応, おむつ交換台",#00cc00,139.561679,35.681967
三鷹中央防災公園・元気創造プラザ（屋内部分） (三鷹中央防災公園・元気創造プラザ),東京都 三鷹市新川六丁目37番1号,3F,3F多機能トイレ（南側階段前）,"※以下の休館日のご利用はできません・年末年始・全館臨時休館日 | 設備: 車椅子対応, オストメイト対応, おむつ交換台",#00cc00,139.561757,35.681517
三鷹中央防災公園・元気創造プラザ（屋内部分） (三鷹中央防災公園・元気創造プラザ),東京都 三鷹市新川六丁目37番1号,4F,4F多機能トイレ（南側階段前）,"※以下の休館日のご利用はできません・第4月曜日（祝日の場合は第4火曜日）・年末年始・全館臨時休館日 | 設備: 車椅子対応, オストメイト対応, おむつ交換台",#00cc00,139.561757,35.681517
三鷹中央防災公園・元気創造プラザ（屋内部分） (三鷹中央防災公園・元気創造プラザ),東京都 三鷹市新川六丁目37番1号,5F,5F多機能トイレ（南側階段前）,"※第4月曜日（祝日の場合は第4火曜日）は、9時〜18時のみの利用です※以下の休館日のご利用はできません・年末年始・全館臨時休館日 | 設備: 車椅子対応, オストメイト対応, おむつ交換台",#00cc00,139.561757,35.681517
三鷹中央防災公園・元気創造プラザ（屋内部分） (三鷹中央防災公園・元気創造プラザ),東京都 三鷹市新川六丁目37番1号,B1F,B1F多機能トイレ1（スポーツEV横）,"※以下の休館日のご利用はできません・第4月曜日（祝日の場合は第4火曜日）・年末年始・全館臨時休館日 | 設備: 車椅子対応, オストメイト対応, おむつ交換台",#00cc00,139.562111,35.681852
三鷹中央防災公園・元気創造プラザ（屋内部分） (三鷹中央防災公園・元気創造プラザ),東京都 三鷹市新川六丁目37番1号,B1F,B1F多機能トイレ2（共用廊下奥）,"※以下の休館日のご利用はできません・第4月曜日（祝日の場合は第4火曜日）・年末年始・全館臨時休館日 | 設備: 車椅子対応, オストメイト対応, おむつ交換台",#00cc00,139.562619,35.682029
三鷹中央防災公園・元気創造プラザ（屋内部分） (三鷹中央防災公園・元気創造プラザ),東京都 三鷹市新川六丁目37番1号,B2F,B2F多機能トイレ１（男子更衣室）,"※以下の休館日のご利用はできません・第4月曜日（祝日の場合は第4火曜日）・年末年始・全館臨時休館日 | 設備: 車椅子対応, オストメイト対応, おむつ交換台",#00cc00,139.562101,35.681983
三鷹中央防災公園・元気創造プラザ（屋内部分） (三鷹中央防災公園・元気創造プラザ),東京都 三鷹市新川六丁目37番1号,B2F,B2F多機能トイレ2（女子更衣室）,"※以下の休館日のご利用はできません・第4月曜日（祝日の場合は第4火曜日）・年末年始・全館臨時休館日 | 設備: 車椅子対応, オストメイト対応, おむつ交換台",#00cc00,139.562446,35.681997
三鷹中央防災公園・元気創造プラザ（屋内部分） (三鷹中央防災公園・元気創造プラザ),東京都 三鷹市新川六丁目37番1号,B2F,B2F多機能トイレ3（共用廊下奥南）,"※以下の休館日のご利用はできません・第4月曜日（祝日の場合は第4火曜日）・年末年始・全館臨時休館日 | 設備: 車椅子対応, オストメイト対応, おむつ交換台",#00cc00,139.562592,35.681968
三鷹中央防災公園・元気創造プラザ（屋内部分） (三鷹中央防災公園・元気創造プラザ),東京都 三鷹市新川六丁目37番1号,B2F,B2F多機能トイレ4（共用廊下奥北）,"※以下の休館日のご利用はできません・第4月曜日（祝日の場合は第4火曜日）・年末年始・全館臨時休館日 | 設備: 車椅子対応, 大型ベッド",#00cc00,139.562619,35.682029
大沢コミュニティ・センター,東京都 三鷹市大沢四丁目25番30号,1F,1階だれでもトイレ,"【休館日について】毎週火曜日（祝日を除く）祝日の翌日（土曜日、日曜日を除く）５月の祝日年末年始12/28〜1/4 | 設備: 車椅子対応, オストメイト対応",#00cc00,139.537508,35.668568
大沢コミュニティ・センター,東京都 三鷹市大沢四丁目25番30号,3F,３階だれでもトイレ,【休館日について】毎週火曜日（祝日を除く）祝日の翌日（土曜日、日曜日を除く）５月の祝日年末年始12/28〜1/4 | 設備: 車椅子対応,#00cc00,139.537481,35.668537
井口コミュニティ・センター,東京都 三鷹市井口一丁目13番32号,1F,１階身障者用トイレ,"【休館日について】毎週木曜日国民の祝日（ただし、祝日が木曜日と重なる時はその翌日）年末年始12/28〜1/4その他臨時休館あり | 設備: 車椅子対応, おむつ交換台",#00cc00,139.548532,35.693522
井口コミュニティ・センター,東京都 三鷹市井口一丁目13番32号,2F,２階身障者用トイレ,"【休館日について】毎週木曜日国民の祝日（ただし、祝日が木曜日と重なる時はその翌日）年末年始12/28〜1/4その他臨時休館あり | 設備: 車椅子対応, おむつ交換台",#00cc00,139.548532,35.693522
井の頭コミュニティ・センター,東京都 三鷹市井の頭二丁目32番30号,1F,新館１階だれでもトイレ,"【休館日について】毎週月曜日国民の祝日（祝日が月曜の場合は翌火曜日）年末年始12/29〜1/3その他臨時休館あり | 設備: 車椅子対応, オストメイト対応",#00cc00,139.583091,35.693853
三鷹駅前コミュニティ・センター,東京都 三鷹市下連雀三丁目13番10号,1F,１階多目的トイレ,【休館日について】毎週月曜日国民の祝日（祝日が月曜と重なる場合には月曜・火曜）年末年始12/29〜1/3、5/4その他臨時休館あり | 設備: 車椅子対応,#00cc00,139.563134,35.699526
三鷹駅前コミュニティ・センター,東京都 三鷹市下連雀三丁目13番10号,3F,３階多目的トイレ,【休館日について】毎週月曜日国民の祝日（祝日が月曜と重なる場合には月曜・火曜）年末年始12/29〜1/3、5/4その他臨時休館あり | 設備: 車椅子対応,#00cc00,139.563134,35.699526
三鷹駅前コミュニティ・センター,東京都 三鷹市下連雀三丁目13番10号,4F,４階多目的トイレ,【休館日について】毎週月曜日国民の祝日（祝日が月曜と重なる場合には月曜・火曜）年末年始12/29〜1/3、5/4その他臨時休館あり | 設備: 車椅子対応,#00cc00,139.563134,35.699526
三鷹駅前コミュニティ・センター,東京都 三鷹市下連雀三丁目13番10号,B1F,地下1階多目的トイレ,"【休館日について】毎週月曜日国民の祝日（祝日が月曜と重なる場合には月曜・火曜）年末年始12/29〜1/3、5/4その他臨時休館あり | 設備: 車椅子対応, オストメイト対応",#00cc00,139.563152,35.699327
三鷹駅前コミュニティ・センター,東京都 三鷹市下連雀三丁目13番10号,B2F,地下2階多目的トイレ,【休館日について】毎週月曜日国民の祝日（祝日が月曜と重なる場合には月曜・火曜）年末年始12/29〜1/3、5/4その他臨時休館あり | 設備: 車椅子対応,#00cc00,139.563106,35.699359
三鷹市立三鷹図書館,東京都 三鷹市上連雀八丁目3番3号,1F,だれでもトイレ,"設備: 車椅子対応, おむつ交換台",#00cc00,139.557878,35.685186
三鷹市立西部図書館,東京都 三鷹市大沢二丁目6番47号,1F,だれでもトイレ,"設備: 車椅子対応, おむつ交換台",#00cc00,139.535699,35.681036
三鷹市立南部図書館みんなみ,東京都 三鷹市新川五丁目14番16号,1F,だれでもトイレ,"設備: 車椅子対応, オストメイト対応, 大型ベッド, おむつ交換台",#00cc00,139.568707,35.67508
三鷹市立三鷹駅前図書館 (三鷹駅前コミュニティ・センター内),東京都 三鷹市下連雀三丁目13番10号,2F,２階図書館車いす用トイレ,"設備: 車椅子対応, おむつ交換台",#00cc00,139.563145,35.69953
三鷹市立東部図書館,東京都 三鷹市牟礼五丁目8番16号,1F,1階　誰でもトイレ,"設備: 車椅子対応, オストメイト対応, おむつ交換台",#00cc00,139.578581,35.682711
三鷹市芸術文化センター,東京都 三鷹市上連雀六丁目12番14号,1F,1階エントランスホールだれでもトイレ,"設備: 車椅子対応, おむつ交換台",#00cc00,139.55808,35.692548
三鷹市芸術文化センター,東京都 三鷹市上連雀六丁目12番14号,1F,1階星のホールだれでもトイレ,"設備: 車椅子対応, おむつ交換台",#00cc00,139.558396,35.693098
三鷹市芸術文化センター,東京都 三鷹市上連雀六丁目12番14号,2F,2階だれでもトイレ,"設備: 車椅子対応, おむつ交換台",#00cc00,139.5582,35.693078
三鷹市芸術文化センター,東京都 三鷹市上連雀六丁目12番14号,B1F,地下1階だれでもトイレ,"設備: 車椅子対応, おむつ交換台",#00cc00,139.5582,35.693078
三鷹市公会堂,東京都 三鷹市野崎一丁目1番1号,1F,さんさん館1階だれでもトイレ,"設備: 車椅子対応, オストメイト対応, おむつ交換台",#00cc00,139.559047,35.682957
三鷹市公会堂,東京都 三鷹市野崎一丁目1番1号,2F,さんさん館2階だれでもトイレ,"設備: 車椅子対応, おむつ交換台",#00cc00,139.559205,35.682844
三鷹市公会堂,東京都 三鷹市野崎一丁目1番1号,2F,光のホールだれでもトイレ,"設備: 車椅子対応, オストメイト対応, おむつ交換台",#00cc00,139.559317,35.683396
三鷹市公会堂,東京都 三鷹市野崎一丁目1番1号,3F,さんさん館3階だれでもトイレ,"設備: 車椅子対応, おむつ交換台",#00cc00,139.559178,35.682888
三鷹市公会堂,東京都 三鷹市野崎一丁目1番1号,4F,さんさん館4階だれでもトイレ,"設備: 車椅子対応, おむつ交換台",#00cc00,139.559205,35.682844
三鷹市美術ギャラリー,東京都 三鷹市下連雀三丁目35番1号,5F,美術ギャラリーだれでもトイレ,"本施設は、駅前商業ビルの１フロア（5F）にある施設である。 | 設備: 車椅子対応, おむつ交換台",#00cc00,139.560722,35.701507
みたか井心亭,東京都 三鷹市下連雀二丁目10番48号,1F,みたか井心亭だれでもトイレ,設備: 車椅子対応,#00cc00,139.56694,35.696792
三鷹市山本有三記念館,東京都 三鷹市下連雀二丁目12番27号,1F,山本有三記念館だれでもトイレ,"設備: 車椅子対応, オストメイト対応, おむつ交換台",#00cc00,139.567756,35.699734
三鷹市星と森と絵本の家,東京都 三鷹市大沢二丁目21番3号,1F,絵本の家だれでもトイレ,"設備: 車椅子対応, オストメイト対応, 大型ベッド",#00cc00,139.538656,35.676943
三鷹市立アニメーション美術館,東京都 三鷹市下連雀一丁目1番83号,館外,三鷹市立アニメーション美術館多目的トイレ,"設備: 車椅子対応, おむつ交換台",#00cc00,139.570487,35.696307
三鷹市立アニメーション美術館,東京都 三鷹市下連雀一丁目1番83号,館外,三鷹市立アニメーション美術館多目的トイレ,"設備: 車椅子対応, おむつ交換台",#00cc00,139.570487,35.696307
三鷹市立アニメーション美術館,東京都 三鷹市下連雀一丁目1番83号,B1F,三鷹市立アニメーション美術館多目的トイレ,"設備: 車椅子対応, おむつ交換台",#00cc00,139.570487,35.696307
三鷹市立アニメーション美術館,東京都 三鷹市下連雀一丁目1番83号,1F,三鷹市立アニメーション美術館多目的トイレ,設備: 車椅子対応,#00cc00,139.570487,35.696307
三鷹市立アニメーション美術館,東京都 三鷹市下連雀一丁目1番83号,2F,三鷹市立アニメーション美術館多目的トイレ,"設備: 車椅子対応, おむつ交換台",#00cc00,139.570487,35.696307
三鷹市立アニメーション美術館,東京都 三鷹市下連雀一丁目1番83号,1Fカフェ店内,三鷹市立アニメーション美術館多目的トイレ,"設備: 車椅子対応, おむつ交換台",#00cc00,139.570487,35.696307
三鷹市吉村昭書斎,東京都 三鷹市井の頭三丁目3番17号,1F,吉村昭書斎バリアフリートイレ　,"設備: 車椅子対応, オストメイト対応, おむつ交換台",#00cc00,139.5840834,35.69616269
新川児童公園,東京都 三鷹市新川六丁目26番12号,1F,新川児童公園＿1,"設備: 車椅子対応, おむつ交換台",#00cc00,139.567299,35.682342
むらさき児童公園,東京都 三鷹市下連雀二丁目10番22号,1F,むらさき児童公園＿1,"設備: 車椅子対応, オストメイト対応, おむつ交換台",#00cc00,139.567089,35.694623
下連雀児童公園,東京都 三鷹市下連雀三丁目6番18号,1F,下連雀児童公園＿1,"設備: 車椅子対応, おむつ交換台",#00cc00,139.564471,35.698898
上連雀児童公園,東京都 三鷹市上連雀四丁目26番6号,1F,上連雀児童公園＿1,"設備: 車椅子対応, おむつ交換台",#00cc00,139.55523,35.697578
三鷹台児童公園,東京都 三鷹市井の頭一丁目3番26号,1F,三鷹台児童公園＿1,"設備: 車椅子対応, オストメイト対応, おむつ交換台",#00cc00,139.591834,35.68981
牟礼の里公園,東京都 三鷹市牟礼三丁目7番7号,1F,牟礼の里＿1,設備: 車椅子対応,#00cc00,139.581756,35.688606
新川丸池公園,東京都 三鷹市新川五丁目1番8号,1F,新川丸池公園＿1,設備: 車椅子対応,#00cc00,139.570634,35.677329
連雀中央公園,東京都 三鷹市上連雀六丁目14番1号,1F,連雀中央公園＿1,"設備: 車椅子対応, オストメイト対応",#00cc00,139.558298,35.69155
下連雀きたうら児童公園,東京都 三鷹市下連雀四丁目19番9号,1F,下連雀きたうら児童公園＿1,"設備: 車椅子対応, オストメイト対応, おむつ交換台",#00cc00,139.560471,35.695564
中仙川児童公園,東京都 三鷹市中原二丁目8番14号,1F,中仙川児童公園＿1,"設備: 車椅子対応, オストメイト対応, おむつ交換台",#00cc00,139.573097,35.666499
仙川平和公園,東京都 三鷹市新川六丁目7番1号,1F,仙川平和公園＿1,"設備: 車椅子対応, オストメイト対応, おむつ交換台",#00cc00,139.569301,35.679753
新川あおやぎ公園,東京都 三鷹市新川一丁目11番16号,1F,新川あおやぎ公園＿1,設備: 車椅子対応,#00cc00,139.575094,35.669408
下連雀あじさい児童遊園,東京都 三鷹市下連雀四丁目9番3号,1F,下連雀あじさい児童遊園＿1,"設備: 車椅子対応, おむつ交換台",#00cc00,139.563628,35.696919
大沢の里公園,東京都 三鷹市大沢二丁目17番地,1F,大沢の里公園＿1,"設備: 車椅子対応, オストメイト対応, おむつ交換台",#00cc00,139.530723,35.678468
三鷹中央防災公園・元気創造プラザ（公園部分） (三鷹中央防災公園・元気創造プラザ),東京都 三鷹市新川六丁目37番1号,1F,屋外多機能トイレ1（東広場南）,"※以下の休館日のご利用はできません・年末年始・全館臨時休館日 | 設備: 車椅子対応, おむつ交換台",#00cc00,139.562699,35.681991
三鷹中央防災公園・元気創造プラザ（公園部分） (三鷹中央防災公園・元気創造プラザ),東京都 三鷹市新川六丁目37番1号,1F,屋外多機能トイレ2（東広場北）,"※以下の休館日のご利用はできません・年末年始・全館臨時休館日 | 設備: 車椅子対応, オストメイト対応",#00cc00,139.562706,35.682016
下連雀こでまり児童遊園,東京都 三鷹市下連雀五丁目1番35号,1F,下連雀こでまり児童遊園＿1,"設備: 車椅子対応, おむつ交換台",#00cc00,139.571144,35.687029
深大寺公園,東京都 三鷹市深大寺三丁目15番１号,1F,深大寺公園＿1,"設備: 車椅子対応, おむつ交換台",#00cc00,139.535242,35.690433
上連雀くすのき児童遊園 (上連雀くすのき児童遊園),東京都 三鷹市上連雀九丁目25番４号,1F,,"設備: 車椅子対応, おむつ交換台",#00cc00,139.551908,35.687932
下連雀鷹の子児童公園,東京都 三鷹市下連雀九丁目5番51号,1F,,"ｹｱｸﾘﾆｯｸあり | 設備: 車椅子対応, オストメイト対応, おむつ交換台",#00cc00,139.561074,35.685889
牟礼ひばり野児童公園,東京都 三鷹市牟礼七丁目３番17号,1F,バリアフリートイレ,"設備: 車椅子対応, オストメイト対応, おむつ交換台",#00cc00,139.5754933,35.68266736
三鷹駅南口公衆トイレ,東京都 三鷹市下連雀三丁目46番2号,1F,三鷹駅南口公衆トイレ,設備: 車椅子対応,#00cc00,139.561298,35.702509
三鷹台駅前公衆トイレ,東京都 三鷹市井の頭二丁目1番20号,1F,三鷹台駅前公衆トイレ,設備: 車椅子対応,#00cc00,139.588444,35.692475
三鷹市下連雀複合施設,東京都 三鷹市下連雀四丁目15番18号,2F,２階だれでもトイレ,設備: 車椅子対応,#00cc00,139.561591,35.69521
福祉コアかみれん,東京都 三鷹市上連雀四丁目1番8号,1F,１階西側だれでもトイレ,"設備: 車椅子対応, オストメイト対応",#00cc00,139.558885,35.69708
福祉コアかみれん,東京都 三鷹市上連雀四丁目1番8号,1F,１階東側だれでもトイレ,"設備: 車椅子対応, 大型ベッド",#00cc00,139.558926,35.69708
教育センター,東京都 三鷹市下連雀九丁目11番7号,B1F,地下1階　誰でもトイレ,"設備: 車椅子対応, 大型ベッド, おむつ交換台",#00cc00,139.560006,35.684329
教育センター,東京都 三鷹市下連雀九丁目11番7号,1F,1階　誰でもトイレ,"設備: 車椅子対応, オストメイト対応, おむつ交換台",#00cc00,139.560006,35.684329
教育センター,東京都 三鷹市下連雀九丁目11番7号,2F,2階　誰でもトイレ,"設備: 車椅子対応, おむつ交換台",#00cc00,139.560006,35.684329
教育センター,東京都 三鷹市下連雀九丁目11番7号,3F,3階　誰でもトイレ,"設備: 車椅子対応, オストメイト対応",#00cc00,139.560006,35.684329
旧環境センター暫定開放広場,東京都 三鷹市新川一丁目6番,1F,旧環境センター暫定開放広場＿1,"設備: 車椅子対応, オストメイト対応, おむつ交換台",#00cc00,139.577899,35.672238
東多世代交流センター,東京都 三鷹市牟礼2-13-19,1F,１Fだれでもトイレ,"設備: 車椅子対応, おむつ交換台",#00cc00,139.584709,35.684243
東多世代交流センター,東京都 三鷹市牟礼2-13-19,2F,２Fだれでもトイレ,設備: 車椅子対応,#00cc00,139.584709,35.684243
西多世代交流センター,東京都 三鷹市深大寺2-3-5,1F,１Fだれでもトイレ,"設備: 車椅子対応, オストメイト対応, おむつ交換台",#00cc00,139.545195,35.688652
西多世代交流センター,東京都 三鷹市深大寺2-3-5,2F,２Fだれでもトイレ,"乳幼児用トイレ設置 | 設備: 車椅子対応, オストメイト対応",#00cc00,139.545195,35.688652
SUBARU総合スポーツセンター弓道場・アーチェリー場,東京都 三鷹市野崎一丁目１番１号,2F,2階多機能トイレ,"※以下の休館日のご利用はできません・第4月曜日（祝日の場合は第4火曜日）・年末年始・全館臨時休館日 | 設備: 車椅子対応, オストメイト対応, おむつ交換台",#00cc00,139.559552,35.682595
新川テニスコート,東京都 三鷹市新川六丁目23番13号,1F,,設備: 車椅子対応,#00cc00,139.566728,35.680693
大沢総合グラウンド,東京都 三鷹市大沢五丁目７番１号,1F,管理棟多目的トイレ,"設備: 車椅子対応, オストメイト対応, 大型ベッド",#00cc00,139.532842,35.669523
大沢野川グラウンド,東京都 三鷹市大沢５丁目21番12号,1F,管理棟多目的トイレ,"設備: 車椅子対応, おむつ交換台",#00cc00,139.530281,35.672741