name,address,floor,toilet_name,note,color,lng,lat
地方独立行政法人東京都立病院機構　東京都立多摩南部地域病院,東京都 多摩市中沢二丁目1番2号,1F,1階西側障害者用トイレ,設備: 車椅子対応,#00cc00,139.414977,35.622816
桜ヶ丘公園,東京都 多摩市連光寺五丁目1番地,1F,記念館口トイレ,"設備: 車椅子対応, オストメイト対応, 大型ベッド",#00cc00,139.461183,35.637903
桜ヶ丘公園,東京都 多摩市連光寺五丁目16番地,1F,聖ヶ丘口トイレ,"設備: 車椅子対応, オストメイト対応",#00cc00,139.459384,35.634188
桜ヶ丘公園,東京都 多摩市連光寺三丁目23番地,1F,遊びの広場トイレ,"設備: 車椅子対応, オストメイト対応, おむつ交換台",#00cc00,139.462738,35.639617
水道局多摩サービスステーション,東京都 多摩市山王下一丁目17番,1F,1階だれでもトイレ,"設備: 車椅子対応, おむつ交換台",#00cc00,139.416699,35.625201
東京都立埋蔵文化財調査センター,東京都 多摩市落合一丁目14番2号,2F,展示フロア車椅子使用者対応トイレ,"カーテン内、トイレの外側に大型ベッドあり | 設備: 車椅子対応, オストメイト対応, おむつ交換台",#00cc00,139.427815,35.626116
多摩消防署,東京都 多摩市諏訪一丁目69番地,1F,だれでもトイレ,"設備: 車椅子対応, オストメイト対応, おむつ交換台",#00cc00,139.448261,35.632441
多摩市役所,東京都 多摩市関戸六丁目12番地1,2F,２階だれでもトイレ,"設備: 車椅子対応, オストメイト対応",#00cc00,139.446306,35.637112
多摩市役所,東京都 多摩市関戸六丁目12番地1,3F,3階だれでもトイレ,"設備: 車椅子対応, オストメイト対応, 大型ベッド",#00cc00,139.446306,35.637112
多摩市役所,東京都 多摩市関戸六丁目12番地1,4F,4階だれでもトイレ,"設備: 車椅子対応, オストメイト対応",#00cc00,139.446355,35.636963
多摩市役所 (本庁舎),東京都 多摩市関戸六丁目12番地1,1F,1階だれでもトイレ,"設備: 車椅子対応, オストメイト対応, おむつ交換台",#00cc00,139.446144,35.637077
多摩市役所東庁舎,東京都 多摩市関戸六丁目12番地1,1F,1階だれでもトイレ,"設備: 車椅子対応, おむつ交換台",#00cc00,139.447601,35.63749
多摩市役所第二庁舎,東京都 多摩市関戸六丁目12番地1,1F,1階だれでもトイレ,設備: 車椅子対応,#00cc00,139.447377,35.637058
多摩市役所第二庁舎,東京都 多摩市関戸六丁目12番地1,2F,2階だれでもトイレ,設備: 車椅子対応,#00cc00,139.447377,35.637058
多摩市立関戸公民館 (ヴィータ・コミューネ７階),東京都 多摩市関戸四丁目72番地,7F,7階ファミリー化粧室（女性用）,"設備: 車椅子対応, オストメイト対応, おむつ交換台",#00cc00,139.447014,35.649695
多摩市立関戸公民館 (ヴィータ・コミューネ７階),東京都 多摩市関戸四丁目72番地,7F,7階ファミリー化粧室（男性用）,"設備: 車椅子対応, オストメイト対応, おむつ交換台",#00cc00,139.447014,35.649695
多摩市立関戸公民館 (ヴィータ・コミューネ７階),東京都 多摩市関戸四丁目72番地,8F,8階ファミリー化粧室1,"設備: 車椅子対応, おむつ交換台",#00cc00,139.447014,35.649695
多摩市立関戸公民館 (ヴィータ・コミューネ７階),東京都 多摩市関戸四丁目72番地,8F,8階ファミリー化粧室2,"設備: 車椅子対応, おむつ交換台",#00cc00,139.447014,35.649695
多摩市立永山公民館 (ベルブ永山),東京都 多摩市永山一丁目5番地,3F,3階だれでもトイレ,"設備: 車椅子対応, オストメイト対応, おむつ交換台",#00cc00,139.448569,35.628189
多摩市立永山公民館 (ベルブ永山),東京都 多摩市永山一丁目5番地,4F,4階だれでもトイレ,"設備: 車椅子対応, オストメイト対応, おむつ交換台",#00cc00,139.448315,35.628161
多摩市立永山公民館 (ベルブ永山),東京都 多摩市永山一丁目5番地,5F,5階だれでもトイレ,"設備: 車椅子対応, オストメイト対応, おむつ交換台",#00cc00,139.448194,35.628222
多摩市立永山図書館 (ベルブ永山),東京都 多摩市永山一丁目5番地,3F,3階だれでもトイレ,"設備: 車椅子対応, おむつ交換台",#00cc00,139.448267,35.628116
多摩市立東寺方図書館,東京都 多摩市東寺方626番地7号,2F,2階だれでもトイレ,設備: 車椅子対応,#00cc00,139.43776,35.643336
多摩市立豊ヶ丘図書館,東京都 多摩市豊ケ丘五丁目6番地,1F,１階だれでもトイレ,"設備: 車椅子対応, おむつ交換台",#00cc00,139.434849,35.614634
多摩市立中央図書館,東京都 多摩市落合２−３５,1F,バリアフリートイレ,"設備: 車椅子対応, オストメイト対応, 大型ベッド, おむつ交換台",#00cc00,139.424168,35.621055
多摩市立中央図書館,東京都 多摩市落合２−３５,2F,バリアフリートイレ,"設備: 車椅子対応, オストメイト対応, おむつ交換台",#00cc00,139.424168,35.621055
多摩市立諏訪老人福祉館・地区市民ホール,東京都 多摩市諏訪五丁目4番地,1F,１階だれでもトイレ,"設備: 車椅子対応, オストメイト対応",#00cc00,139.450946,35.622476
多摩市立諏訪老人福祉館・地区市民ホール,東京都 多摩市諏訪五丁目4番地,2F,2階だれでもトイレ,"設備: 車椅子対応, オストメイト対応",#00cc00,139.450941,35.62249
多摩市立豊ヶ丘老人福祉館・地区市民ホール,東京都 多摩市豊ケ丘五丁目6番地,2F,２階だれでもトイレ,"設備: 車椅子対応, オストメイト対応",#00cc00,139.434577,35.614544
多摩市立東寺方老人福祉館兼地区市民ホール (東寺方複合施設),東京都 多摩市東寺方626番地7,3F,3階北側だれでもトイレ,"設備: 車椅子対応, オストメイト対応",#00cc00,139.43775,35.64334
多摩市立複合文化施設（パルテノン多摩） (多摩市立複合文化施設（パルテノン多摩）),東京都 多摩市落合二丁目35番地,B1F,多目的トイレ(大ホール楽屋),"設備: 車椅子対応, オストメイト対応, おむつ交換台",#00cc00,139.426243,35.621654
多摩市立複合文化施設（パルテノン多摩） (多摩市立複合文化施設（パルテノン多摩）),東京都 多摩市落合二丁目35番地,1F,多目的トイレ(大ホールロビー),"設備: 車椅子対応, オストメイト対応, おむつ交換台",#00cc00,139.426243,35.621654
多摩市立複合文化施設（パルテノン多摩） (多摩市立複合文化施設（パルテノン多摩）),東京都 多摩市落合二丁目35番地,1F,多目的トイレ(小ホール楽屋),"設備: 車椅子対応, オストメイト対応, おむつ交換台",#00cc00,139.426243,35.621654
多摩市立複合文化施設（パルテノン多摩） (多摩市立複合文化施設（パルテノン多摩）),東京都 多摩市落合二丁目35番地,1F,多目的トイレ(中央監視室横),"設備: 車椅子対応, オストメイト対応, おむつ交換台",#00cc00,139.426243,35.621654
多摩市立複合文化施設（パルテノン多摩） (多摩市立複合文化施設（パルテノン多摩）),東京都 多摩市落合二丁目35番地,2F,多目的トイレ(ロビー男子トイレ側),"設備: 車椅子対応, オストメイト対応, 大型ベッド, おむつ交換台",#00cc00,139.426243,35.621654
多摩市立複合文化施設（パルテノン多摩） (多摩市立複合文化施設（パルテノン多摩）),東京都 多摩市落合二丁目35番地,2F,多目的トイレ(ロビー女子トイレ側),"設備: 車椅子対応, オストメイト対応, 大型ベッド, おむつ交換台",#00cc00,139.426243,35.621654
多摩市立複合文化施設（パルテノン多摩） (多摩市立複合文化施設（パルテノン多摩）),東京都 多摩市落合二丁目35番地,2F,多目的トイレ(大ホールロビー),"設備: 車椅子対応, オストメイト対応, おむつ交換台",#00cc00,139.426243,35.621654
多摩市立複合文化施設（パルテノン多摩） (多摩市立複合文化施設（パルテノン多摩）),東京都 多摩市落合二丁目35番地,2F,多目的トイレ(小ホールロビー),"設備: 車椅子対応, オストメイト対応, おむつ交換台",#00cc00,139.426243,35.621654
多摩市立複合文化施設（パルテノン多摩） (多摩市立複合文化施設（パルテノン多摩）),東京都 多摩市落合二丁目35番地,2F,多目的トイレ(こどもひろば),"設備: 車椅子対応, オストメイト対応, おむつ交換台",#00cc00,139.426243,35.621654
貝取南公園　　,東京都 多摩市貝取四丁目13番地,1F,貝取南公園だれでもトイレ　　,設備: 車椅子対応,#00cc00,139.439805,35.616685
貝取北公園　　　　　,東京都 多摩市貝取二丁目1番地1,1F,貝取北公園だれでもトイレ　　　　　,設備: 車椅子対応,#00cc00,139.440692,35.6224
宝野公園,東京都 多摩市落合五丁目5番地,1F,宝野公園だれでもトイレ,設備: 車椅子対応,#00cc00,139.423799,35.616035
豊ヶ丘南公園　　　　,東京都 多摩市豊ケ丘五丁目12番地,1F,豊ヶ丘南公園だれでもトイレ　　　　,設備: 車椅子対応,#00cc00,139.434456,35.615613
豊ケ丘北公園,東京都 多摩市豊ケ丘一丁目39番地,1F,豊ケ丘北公園だれでもトイレ,設備: 車椅子対応,#00cc00,139.434685,35.626933
中沢池公園,東京都 多摩市中沢一丁目33番地,1F,中沢池公園だれでもトイレ,設備: 車椅子対応,#00cc00,139.407884,35.620825
よこやまの道（唐木田）,東京都 多摩市諏訪六丁目1番地2,1F,よこやまの道（唐木田）だれでもトイレ,設備: 車椅子対応,#00cc00,139.462403,35.624916
よこやまの道（南野）,東京都 多摩市諏訪六丁目1番地2,1F,よこやまの道（南野）だれでもトイレ,設備: 車椅子対応,#00cc00,139.462403,35.624916
よこやまの道（永山）,東京都 多摩市諏訪六丁目1番地2,1F,よこやまの道（永山）だれでもトイレ,設備: 車椅子対応,#00cc00,139.462403,35.624916
愛宕東公園,東京都 多摩市愛宕一丁目66番地,1F,愛宕東公園だれでもトイレ,設備: 車椅子対応,#00cc00,139.435861,35.63378
瓜生緑地,東京都 多摩市永山五丁目8番地,1F,瓜生緑地だれでもトイレ,設備: 車椅子対応,#00cc00,139.443477,35.62052
大谷戸公園,東京都 多摩市連光寺五丁目17番地1,1F,大谷戸公園だれでもトイレ,設備: 車椅子対応,#00cc00,139.45794,35.638873
諏訪南公園　,東京都 多摩市諏訪五丁目14番地1,1F,諏訪南公園だれでもトイレ,設備: 車椅子対応,#00cc00,139.453694,35.620748
諏訪北公園　,東京都 多摩市諏訪三丁目11番地,1F,諏訪北公園だれでもトイレ,設備: 車椅子対応,#00cc00,139.452206,35.628208
永山南公園　　　　　,東京都 多摩市永山七丁目12番地,1F,永山南公園だれでもトイレ　　　　　,設備: 車椅子対応,#00cc00,139.449538,35.622037
永山北公園　,東京都 多摩市永山二丁目5番地,1F,永山北公園だれでもトイレ　,設備: 車椅子対応,#00cc00,139.448084,35.627373
連光寺公園　　,東京都 多摩市連光寺五丁目8番地6,1F,連光寺公園だれでもトイレ　　,設備: 車椅子対応,#00cc00,139.463331,35.635676
関戸三丁目公園　　,東京都 多摩市関戸三丁目10番地9,1F,関戸三丁目公園だれでもトイレ　　,設備: 車椅子対応,#00cc00,139.45462,35.649827
くるまぼり公園,東京都 多摩市東寺方一丁目16番地5,1F,くるまぼり公園だれでもトイレ,設備: 車椅子対応,#00cc00,139.442012,35.648234
関戸公園,東京都 多摩市関戸三丁目5番地先,1F,関戸公園だれでもトイレ,"設備: 車椅子対応, オストメイト対応, おむつ交換台",#00cc00,139.459866,35.649797
中和田橋公園,東京都 多摩市和田2001番地1,1F,中和田橋公園だれでもトイレ,"設備: 車椅子対応, オストメイト対応",#00cc00,139.428816,35.641903
多摩東公園,東京都 多摩市諏訪四丁目9番地,1F,多摩東公園だれでもトイレ1,設備: 車椅子対応,#00cc00,139.45923,35.625035
多摩東公園,東京都 多摩市諏訪四丁目9番地,1F,多摩東公園だれでもトイレ2,設備: 車椅子対応,#00cc00,139.461306,35.625214
宮之下公園,東京都 多摩市一ノ宮二丁目17番地,1F,宮之下公園だれでもトイレ,"設備: 車椅子対応, オストメイト対応",#00cc00,139.444087,35.654422
一本杉公園,東京都 多摩市南野二丁目14番地,1F,一本杉公園だれでもトイレ1,設備: 車椅子対応,#00cc00,139.432355,35.608532
一本杉公園,東京都 多摩市南野二丁目14番地,1F,一本杉公園だれでもトイレ2,設備: 車椅子対応,#00cc00,139.434933,35.606954
多摩中央公園,東京都 多摩市落合二丁目35番地,1F,多摩中央公園だれでもトイレ2,設備: 車椅子対応,#00cc00,139.426514,35.620292
鶴牧西公園,東京都 多摩市鶴牧二丁目18番地,1F,鶴牧西公園だれでもトイレ,設備: 車椅子対応,#00cc00,139.416718,35.616957
多摩市立グリーンライブセンター,東京都 多摩市落合二丁目35番地,1F,グリーンライブセンターだれでもトイレ,"令和5年12月1日より施設が一時閉館するため利用不可。 | 設備: 車椅子対応, オストメイト対応",#00cc00,139.427856,35.622296
せいせき公園,東京都 多摩市関戸一丁目19番地２,1F,せいせき公園だれでもトイレ,"設備: 車椅子対応, オストメイト対応, おむつ交換台",#00cc00,139.446475,35.653548
落合南公園,東京都 多摩市落合三丁目30番地,1F,落合南公園だれでもトイレ,"設備: 車椅子対応, オストメイト対応, おむつ交換台",#00cc00,139.429243,35.616689
聖蹟桜ケ丘駅前公衆トイレ,東京都 多摩市関戸一丁目11番地2,1F,聖蹟桜ケ丘駅前公衆トイレ,設備: 車椅子対応,#00cc00,139.447168,35.650296
多摩センター駅前公衆トイレ,東京都 多摩市落合一丁目40番地1,1F,多摩センター駅前公衆トイレ,,#00cc00,139.423827,35.624313
永山駅前公衆トイレ,東京都 多摩市永山一丁目45番地,1F,永山駅前公衆トイレ,設備: 車椅子対応,#00cc00,139.44764,35.62939
豊ヶ丘商店街公衆トイレ,東京都 多摩市豊ケ丘四丁目2番地,1F,豊ヶ丘商店街公衆トイレ,設備: 車椅子対応,#00cc00,139.437089,35.614728
多摩市立総合福祉センター (多摩市立総合福祉センター),東京都 多摩市南野三丁目15番地1,1F,１階身障者用トイレ,設備: 車椅子対応,#00cc00,139.41289,35.612608
多摩市立総合福祉センター (多摩市立総合福祉センター),東京都 多摩市南野三丁目15番地1,3F,３階女性側身障者用トイレ,"設備: 車椅子対応, オストメイト対応, おむつ交換台",#00cc00,139.412537,35.612765
多摩市立総合福祉センター (多摩市立総合福祉センター),東京都 多摩市南野三丁目15番地1,3F,３階男子側身障者用トイレ,"設備: 車椅子対応, オストメイト対応, おむつ交換台",#00cc00,139.412447,35.612775
多摩市立総合福祉センター (多摩市立総合福祉センター),東京都 多摩市南野三丁目15番地1,4F,４階身障者用トイレ,設備: 車椅子対応,#00cc00,139.412995,35.612679
多摩市立総合福祉センター (多摩市立総合福祉センター),東京都 多摩市南野三丁目15番地1,5F,５階西側身障者用トイレ,設備: 車椅子対応,#00cc00,139.412447,35.612775
多摩市立総合福祉センター (多摩市立総合福祉センター),東京都 多摩市南野三丁目15番地1,5F,５階東側身障者用トイレ,設備: 車椅子対応,#00cc00,139.41308,35.612646
多摩市立総合福祉センター (多摩市立総合福祉センター),東京都 多摩市南野三丁目15番地1,6F,６階身障者用トイレ,設備: 車椅子対応,#00cc00,139.412447,35.612775
多摩市立総合福祉センター (多摩市立総合福祉センター),東京都 多摩市南野三丁目15番地1,7F,７階身障者用トイレ,設備: 車椅子対応,#00cc00,139.412447,35.612775
多摩市立関戸・一ノ宮コミュニティセンター,東京都 多摩市関戸四丁目19番地５,3F,だれでもトイレ,"設備: 車椅子対応, おむつ交換台",#00cc00,139.449426,35.648901
多摩市立関戸・一ノ宮コミュニティセンター,東京都 多摩市関戸四丁目19番地５,4F,だれでもトイレ,"設備: 車椅子対応, おむつ交換台",#00cc00,139.449425,35.648902
多摩市立桜ケ丘コミュニティセンター,東京都 多摩市桜ケ丘一丁目17番地７,1F,身障者用便所,"設備: 車椅子対応, オストメイト対応, おむつ交換台",#00cc00,139.446644,35.639906
多摩市立乞田・貝取コミュニティセンター,東京都 多摩市乞田810番地,1F,身障者用トイレ,"設備: 車椅子対応, オストメイト対応",#00cc00,139.434606,35.630857
多摩市立乞田・貝取コミュニティセンター,東京都 多摩市乞田810番地,2F,身障者用トイレ,"設備: 車椅子対応, おむつ交換台",#00cc00,139.434562,35.630843
多摩市立鶴牧・落合・南野コミュニティセンター,東京都 多摩市落合六丁目５番地,B1F,身障者用便所,"４年度9月リニューアルオ＾プン | 設備: 車椅子対応, おむつ交換台",#00cc00,139.425601,35.612274
多摩市立鶴牧・落合・南野コミュニティセンター,東京都 多摩市落合六丁目５番地,1F,身障者用便所,"４年度9月リニューアルオ＾プン | 設備: 車椅子対応, オストメイト対応",#00cc00,139.425626,35.61235
多摩市立鶴牧・落合・南野コミュニティセンター,東京都 多摩市落合六丁目５番地,2F,身障者用便所,"４年度9月リニューアルオ＾プン | 設備: 車椅子対応, おむつ交換台",#00cc00,139.425625,35.61235
多摩市立貝取コミュニティセンター,東京都 多摩市貝取四丁目５番地１,1F,身障者用便所,"設備: 車椅子対応, おむつ交換台",#00cc00,139.439799,35.615825
多摩市立貝取コミュニティセンター,東京都 多摩市貝取四丁目５番地１,2F,身障者用便所,設備: 車椅子対応,#00cc00,139.439811,35.61575
多摩市立聖ケ丘コミュニティセンター,東京都 多摩市聖ケ丘二丁目21番地１,B2F,身障者用便所,"設備: 車椅子対応, おむつ交換台",#00cc00,139.458064,35.630948
多摩市立聖ケ丘コミュニティセンター,東京都 多摩市聖ケ丘二丁目21番地１,1F,身障者用便所,"設備: 車椅子対応, オストメイト対応, おむつ交換台",#00cc00,139.458026,35.630879
多摩市立聖ケ丘コミュニティセンター,東京都 多摩市聖ケ丘二丁目21番地１,2F,身障者用便所,設備: 車椅子対応,#00cc00,139.457968,35.630842
多摩市立愛宕コミュニティセンター,東京都 多摩市愛宕三丁目２番地,1F,ファミリートイレ,"設備: 車椅子対応, オストメイト対応, おむつ交換台",#00cc00,139.434621,35.633429
多摩市立愛宕コミュニティセンター,東京都 多摩市愛宕三丁目２番地,2F,ファミリートイレ,"設備: 車椅子対応, オストメイト対応, おむつ交換台",#00cc00,139.43462,35.63343
多摩市立唐木田コミュニティセンター,東京都 多摩市鶴牧六丁目14番地,1F,多目的トイレ,"設備: 車椅子対応, オストメイト対応, 大型ベッド",#00cc00,139.413483,35.615443
多摩市立唐木田コミュニティセンター,東京都 多摩市鶴牧六丁目14番地,2F,多目的トイレ,"設備: 車椅子対応, オストメイト対応, おむつ交換台",#00cc00,139.41345,35.615613
多摩市立和田・東寺方コミュニティセンター,東京都 多摩市和田2006番地４,1F,多目的トイレ,"設備: 車椅子対応, オストメイト対応, おむつ交換台",#00cc00,139.427486,35.641144
多摩市立和田・東寺方コミュニティセンター,東京都 多摩市和田2006番地４,2F,多目的トイレ,"設備: 車椅子対応, 大型ベッド",#00cc00,139.427487,35.641144
多摩市立三方の森コミュニティ会館,東京都 多摩市和田1254番地12,1F,だれでもトイレ,"設備: 車椅子対応, オストメイト対応, 大型ベッド",#00cc00,139.416068,35.64615
多摩市立健康センター (多摩市立健康センター),東京都 多摩市関戸四丁目19番地５,1F,だれでもトイレ,"設備: 車椅子対応, オストメイト対応, 大型ベッド, おむつ交換台",#00cc00,139.449552,35.649125
多摩市立健康センター (多摩市立健康センター),東京都 多摩市関戸四丁目19番地５,2F,だれでもトイレ,"設備: 車椅子対応, オストメイト対応, おむつ交換台",#00cc00,139.449425,35.648902
多摩市立資源化センター(エコプラザ多摩)管理棟 (資源化センター管理棟),東京都 多摩市諏訪六丁目３番地２,2F,だれでもトイレ,"設備: 車椅子対応, オストメイト対応, おむつ交換台",#00cc00,139.455459,35.618982
多摩市立資源化センター(エコプラザ多摩)管理棟 (資源化センター管理棟),東京都 多摩市諏訪六丁目３番地２,3F,だれでもトイレ,"設備: 車椅子対応, オストメイト対応, おむつ交換台",#00cc00,139.455426,35.619025
多摩市立資源化センター(エコプラザ多摩)資源選別保管棟 (資源化センター選別保管棟),東京都 多摩市諏訪六丁目３番地２,2F,だれでもトイレ,"設備: 車椅子対応, オストメイト対応, おむつ交換台",#00cc00,139.454874,35.618877
多摩市立資源化センター(エコプラザ多摩)草枝資源化棟 (資源化センター草枝資源化棟),東京都 多摩市諏訪六丁目３番地２,1F,だれでもトイレ,"設備: 車椅子対応, オストメイト対応, おむつ交換台",#00cc00,139.454739,35.618823
諏訪複合教育施設(多摩市立教育センター),東京都 多摩市諏訪五丁目１番地,2F,だれでもトイレ,"設備: 車椅子対応, オストメイト対応, 大型ベッド",#00cc00,139.454408,35.623448
諏訪複合教育施設(多摩市立教育センター),東京都 多摩市諏訪五丁目１番地,3F,だれでもトイレ,設備: 車椅子対応,#00cc00,139.454408,35.623448
諏訪複合教育施設(多摩市立教育センター),東京都 多摩市諏訪五丁目１番地,4F,だれでもトイレ,設備: 車椅子対応,#00cc00,139.454408,35.623448
多摩市立一ノ宮児童館,東京都 多摩市一ノ宮一丁目18番地7,1F,だれでもトイレ,設備: おむつ交換台,#00cc00,139.442783,35.652924
多摩市立永山児童館,東京都 多摩市永山三丁目6番地,1F,だれでもトイレ,"設備: 車椅子対応, おむつ交換台",#00cc00,139.445801,35.625609
多摩市立豊ヶ丘児童館,東京都 多摩市豊ヶ丘五丁目6番地,1F,だれでもトイレ,"設備: 車椅子対応, おむつ交換台",#00cc00,139.434577,35.614544
多摩市立東寺方児童館,東京都 多摩市東寺方626番地7,1F,だれでもトイレ,"開館時間は10:00ですが、施設は9:00から開館しており、児童館職員は9:30から勤務のため使用できる。 | 設備: 車椅子対応, おむつ交換台",#00cc00,139.43775,35.64334
多摩市立諏訪児童館,東京都 多摩市諏訪二丁目8番地,1F,だれでもトイレ,"設備: 車椅子対応, おむつ交換台",#00cc00,139.451495,35.625326
多摩市立唐木田児童館 (からきだ菖蒲館),東京都 多摩市鶴牧六丁目14番地,1F,だれでもトイレ,"設備: 車椅子対応, おむつ交換台",#00cc00,139.413497,35.61556
多摩市子ども家庭支援センター,東京都 多摩市豊ヶ丘１丁目２１番地３,1F,だれでもトイレ,"大型ベットは１Ｆのみ | 設備: 車椅子対応, オストメイト対応, 大型ベッド",#00cc00,139.429907,35.627891
多摩市子ども家庭支援センター,東京都 多摩市豊ヶ丘１丁目２１番地３,2F,だれでもトイレ,設備: 車椅子対応,#00cc00,139.429907,35.627891
多摩市立連光寺コミュニティ会館,東京都 多摩市連光寺三丁目57番地1,2F,多目的便所,"設備: 車椅子対応, オストメイト対応, おむつ交換台",#00cc00,139.456811,35.642766
多摩市立総合体育館,東京都 多摩市東寺方５８８−１,1Fホール,バリアフリートイレ,"設備: 車椅子対応, 大型ベッド, おむつ交換台",#00cc00,139.4365414,35.643633
多摩市立総合体育館,東京都 多摩市東寺方５８８−１,1F第1スポーツホール前,バリアフリートイレ,"設備: 車椅子対応, オストメイト対応, 大型ベッド, おむつ交換台",#00cc00,139.4359858,35.643633
多摩市立総合体育館,東京都 多摩市東寺方５８８−１,2F,バリアフリートイレ,"設備: 車椅子対応, オストメイト対応, 大型ベッド, おむつ交換台",#00cc00,139.4359858,35.643633
多摩市立武道館,東京都 多摩市諏訪４−９（多摩東公園内）,1F,バリアフリートイレ,"土足禁止 | 設備: 車椅子対応, オストメイト対応, おむつ交換台",#00cc00,139.458887,35.625398
多摩市立陸上競技場,東京都 多摩市諏訪４−９（多摩東公園内）,1F,車イス使用者対応トイレ,"設備: 車椅子対応, オストメイト対応, 大型ベッド, おむつ交換台",#00cc00,139.459594,35.625229
多摩市立陸上競技場,東京都 多摩市諏訪４−９（多摩東公園内）,2F,車イス使用者対応トイレ,"観覧席利用者のみ使用 | 設備: 車椅子対応, 大型ベッド, おむつ交換台",#00cc00,139.459594,35.625229
多摩市立陸上競技場,東京都 多摩市諏訪４−９（多摩東公園内）,B1F,車イス使用者対応トイレ,"グラウンド利用者の使用 | 設備: 車椅子対応, オストメイト対応, 大型ベッド, おむつ交換台",#00cc00,139.459594,35.625229
多摩市立温水プール（アクアブルー多摩）,東京都 多摩市南野3-15-2,3F,車イス使用者対応トイレ,"設備: 車椅子対応, オストメイト対応, おむつ交換台",#00cc00,139.413698,35.612205
多摩市立温水プール（アクアブルー多摩）,東京都 多摩市南野3-15-2,4F,車イス使用者対応トイレ,設備: 車椅子対応,#00cc00,139.413698,35.612205