name,address,floor,toilet_name,note,color,lng,lat
軍畑園地,東京都 青梅市柚木町二丁目466番地34,1F,軍畑園地便所,"設備: 車椅子対応, おむつ交換台",#00cc00,139.211754,35.804419
御岳丸山園地,東京都 青梅市御岳山,1F,御岳丸山園地便所,設備: おむつ交換台,#00cc00,139.150989,35.784061
御岳渓谷,東京都 青梅市沢井三丁目493番地2,1F,御岳渓谷便所,"設備: 車椅子対応, おむつ交換台",#00cc00,139.187804,35.805331
御岳渓谷園地,東京都 青梅市御岳本町,1F,御岳渓谷園地便所,設備: おむつ交換台,#00cc00,139.184876,35.801307
御岳射山渓駐車場,東京都 青梅市柚木町三丁目,1F,御岳射山渓駐車場便所,"12月〜3月は閉鎖 | 設備: 車椅子対応, おむつ交換台",#00cc00,139.195699,35.802681
御岳平園地,東京都 青梅市御岳山,1F,御岳平園地便所,12月〜3月は閉鎖,#00cc00,139.152976,35.790007
丹縄園地,東京都 青梅市御岳二丁目,1F,丹縄園地便所,"月曜（月曜が祝日の場合は火曜）および年末年始（12月29日〜1月3日）は休館（ただし7月第3週〜8月31日は月曜も開館） | 設備: 車椅子対応, おむつ交換台",#00cc00,139.176097,35.805966
御岳ビジターセンター,東京都 青梅市御岳山38番地5号,1F,御岳ビジターセンター便所,"利用可能時間は09:00〜16:30、月曜（月曜が祝日の場合は火曜）および年末年始（12月29日-1月3日）は休館 | 設備: 車椅子対応, おむつ交換台",#00cc00,139.150582,35.78675
東京都西多摩保健所 (東京都西多摩保健所),東京都 青梅市東青梅一丁目167番地の15,1F,だれでもトイレ,※乳幼児用おむつ交換台は、隣接の授乳室内にあります。（窓口への申し出により使用可） | 設備: 車椅子対応,#00cc00,139.27145,35.787716
東京都西多摩保健所 (東京都西多摩保健所),東京都 青梅市東青梅一丁目167番地の15,2F,だれでもトイレ,設備: 車椅子対応,#00cc00,139.271495,35.787763
東京都青梅合同庁舎,東京都 青梅市河辺町六丁目4番1号,1F,1階女性用ピクトグラム表記のみ,設備: 車椅子対応,#00cc00,139.289651,35.779982
東京都青梅合同庁舎,東京都 青梅市河辺町六丁目4番1号,1F,1階男性用ピクトグラム表記のみ,設備: 車椅子対応,#00cc00,139.289675,35.779972
東京都青梅合同庁舎,東京都 青梅市河辺町六丁目4番1号,2F,2階女性用ピクトグラム表記のみ,設備: 車椅子対応,#00cc00,139.289651,35.779982
東京都青梅合同庁舎,東京都 青梅市河辺町六丁目4番1号,2F,2階男性用ピクトグラム表記のみ,設備: 車椅子対応,#00cc00,139.289675,35.779972
東京都青梅合同庁舎,東京都 青梅市河辺町六丁目4番1号,3F,3階女性用ピクトグラム表記のみ,設備: 車椅子対応,#00cc00,139.289651,35.779982
東京都青梅合同庁舎,東京都 青梅市河辺町六丁目4番1号,3F,3階男性用ピクトグラム表記のみ,設備: 車椅子対応,#00cc00,139.289675,35.779972
青梅サービスステーション,東京都 青梅市師岡町一丁目1301番10号,1F,青梅サービスステーション１階　だれでもトイレ,"設備: 車椅子対応, オストメイト対応, おむつ交換台",#00cc00,139.277224,35.792569
青梅市役所,東京都 青梅市東青梅一丁目11番1号,1F,１階多目的トイレ,"設備: 車椅子対応, オストメイト対応, 大型ベッド",#00cc00,139.275435,35.78774
青梅市役所,東京都 青梅市東青梅一丁目11番1号,2F,２階多目的トイレ,"開庁時間外の御利用は、夜間休日窓口職員にお声かけください | 設備: 車椅子対応, オストメイト対応, 大型ベッド",#00cc00,139.275487,35.78805
青梅市役所,東京都 青梅市東青梅一丁目11番1号,3F,３階多目的トイレ,"設備: 車椅子対応, オストメイト対応, 大型ベッド",#00cc00,139.275487,35.78805
青梅市役所,東京都 青梅市東青梅一丁目11番1号,4F,４階多目的トイレ,"設備: 車椅子対応, 大型ベッド",#00cc00,139.275487,35.78805
青梅市役所,東京都 青梅市東青梅一丁目11番1号,4F,議会棟４階多目的トイレ,"設備: 車椅子対応, 大型ベッド",#00cc00,139.275769,35.78769
青梅市役所,東京都 青梅市東青梅一丁目11番1号,5F,５階多目的トイレ,"設備: 車椅子対応, 大型ベッド",#00cc00,139.275487,35.78805
青梅市役所,東京都 青梅市東青梅一丁目11番1号,6F,６階多目的トイレ,"設備: 車椅子対応, 大型ベッド",#00cc00,139.275487,35.78805
青梅市役所,東京都 青梅市東青梅一丁目11番1号,7F,７階多目的トイレ,"設備: 車椅子対応, 大型ベッド",#00cc00,139.275769,35.78769
青梅図書館,東京都 青梅市仲町268番地9号,1F,だれでもトイレ,設備: 車椅子対応,#00cc00,139.256646,35.791136
青梅市長淵市民センター,東京都 青梅市長淵六丁目492番1号,1F,多目的トイレ,"設備: 車椅子対応, おむつ交換台",#00cc00,139.268494,35.780438
青梅市大門市民センター,東京都 青梅市大門二丁目288番地,1F,身障者用お手洗い,"設備: 車椅子対応, おむつ交換台",#00cc00,139.291215,35.79682
青梅市沢井市民センター,東京都 青梅市沢井二丁目682番地,2F,だれでもトイレ,設備: 車椅子対応,#00cc00,139.196294,35.804706
青梅市成木市民センター,東京都 青梅市成木四丁目644番地,1F,だれでもトイレ,設備: 車椅子対応,#00cc00,139.248524,35.824075
青梅市東青梅市民センター,東京都 青梅市師岡町三丁目9番6号,1F,だれでもトイレ,"設備: 車椅子対応, おむつ交換台",#00cc00,139.282318,35.790692
青梅市新町市民センター,東京都 青梅市新町四丁目17番1号,1F,多目的トイレ,"設備: 車椅子対応, おむつ交換台",#00cc00,139.305157,35.785987
青梅市河辺市民センター,東京都 青梅市河辺町六丁目18番1号,1F,多目的トイレ,"設備: 車椅子対応, おむつ交換台",#00cc00,139.293653,35.778477
青梅市今井市民センター,東京都 青梅市今井二丁目908番1号,1F,多目的トイレ,"設備: 車椅子対応, おむつ交換台",#00cc00,139.310886,35.806537
青梅市健康センター (青梅市健康センター),東京都 青梅市東青梅一丁目174番1号,1F,１階だれでもトイレ,"健康センターでは休日診療業務を委託しており、平日の19：45〜22：45の時間帯で再度利用可能となります。 | 設備: 車椅子対応, おむつ交換台",#00cc00,139.273322,35.787704
青梅市健康センター (青梅市健康センター),東京都 青梅市東青梅一丁目174番1号,2F,２階だれでもトイレ,"健康センターでは休日診療業務を委託しており、平日の19：45〜22：45の時間帯で再度利用可能となります。 | 設備: 車椅子対応, おむつ交換台",#00cc00,139.273322,35.787704
青梅市健康センター (青梅市健康センター),東京都 青梅市東青梅一丁目174番1号,3F,３階だれでもトイレ,健康センターでは休日診療業務を委託しており、平日の19：45〜22：45の時間帯で再度利用可能となります。 | 設備: 車椅子対応,#00cc00,139.273271,35.78768
青梅市福祉センター,東京都 青梅市東青梅一丁目177番3号,1F,１階障害者用トイレ,設備: 車椅子対応,#00cc00,139.274074,35.78741
青梅市子育て支援センター,東京都 青梅市新町二丁目21番9号,1F,多目的トイレ,"第２月曜日（祝日の場合はその翌日以降の最初の平日）および年末年始（１２月２８日〜１月３日）は休館です。 | 設備: 車椅子対応, おむつ交換台",#00cc00,139.302211,35.788284
S＆Dたまぐーセンター（青梅市文化交流センター）,東京都 青梅市上町374番地,1F,多目的トイレ,"設備: 車椅子対応, オストメイト対応, 大型ベッド",#00cc00,139.254873,35.790212
S＆Dたまぐーセンター（青梅市文化交流センター）,東京都 青梅市上町374番地,4F,多目的トイレ,"設備: 車椅子対応, オストメイト対応, おむつ交換台",#00cc00,139.254873,35.790212
青梅市御岳交流センター,東京都 青梅市御岳本町362番8号,1F,多目的トイレ,"設備: 車椅子対応, オストメイト対応, おむつ交換台",#00cc00,139.184586,35.801451
青梅市中央図書館 (河辺タウンビルB),東京都 青梅市河辺町十丁目8番1号,2F,2階多目的トイレ,"設備: 車椅子対応, オストメイト対応, おむつ交換台",#00cc00,139.284962,35.785465
青梅市中央図書館 (河辺タウンビルB),東京都 青梅市河辺町十丁目8番1号,3F,3階多目的トイレ,"設備: 車椅子対応, おむつ交換台",#00cc00,139.284943,35.785489
青梅市立美術館,東京都 青梅市滝ノ上町1346番地1号,1F,多目的トイレ,"設備: 車椅子対応, おむつ交換台",#00cc00,139.255873,35.787614
住友金属鉱山アリーナ青梅（青梅市総合体育館）,東京都 青梅市河辺町四丁目16番1号,1F,バリアフリートイレ,"設備: 車椅子対応, オストメイト対応",#00cc00,139.284745,35.780782
青梅市民斎場,東京都 青梅市長淵五丁目698番2号,2F,青梅市民斎場２階多目的トイレ,"設備: 車椅子対応, おむつ交換台",#00cc00,139.262981,35.772368
青梅市民斎場,東京都 青梅市長淵五丁目698番2号,3F,青梅市民斎場３階多目的トイレ,"設備: 車椅子対応, おむつ交換台",#00cc00,139.262981,35.772368
青梅市青梅市民センター天ケ瀬体育館,東京都 青梅市天ヶ瀬町1111番地1号,2F,だれでもトイレ,設備: 車椅子対応,#00cc00,139.250654,35.789187
青梅市吉川英治記念館,東京都 青梅市柚木町一丁目101番1,1F,,設備: 車椅子対応,#00cc00,139.212881,35.79633
永山公園,東京都 青梅市本町217番地,1F,永山公園身障者用トイレ,設備: 車椅子対応,#00cc00,139.260213,35.791453
早道公園,東京都 青梅市東青梅五丁目17番5号,1F,早道公園身障者用トイレ,設備: 車椅子対応,#00cc00,139.280184,35.789971
釜の淵公園大柳駐車場,東京都 青梅市大柳町1392番地,1F,釜の淵公園大柳駐車場身障者用トイレ,"設備: 車椅子対応, おむつ交換台",#00cc00,139.253232,35.785637
わかぐさ公園,東京都 青梅市河辺町八丁目14番3号,1F,わかぐさ公園身障者用トイレ,設備: 車椅子対応,#00cc00,139.295897,35.783264
富士塚公園,東京都 青梅市新町五丁目22番地,1F,富士塚公園身障者用トイレ,設備: 車椅子対応,#00cc00,139.307604,35.789516
新田山公園,東京都 青梅市新町七丁目33番地,1F,新田山公園管理棟身障者用トイレ,設備: 車椅子対応,#00cc00,139.314355,35.786312
新田山公園,東京都 青梅市新町七丁目33番地,1F,新田山公園身障者用トイレ,設備: 車椅子対応,#00cc00,139.31267,35.786935
沢井駅前広場,東京都 青梅市沢井二丁目833番4号,1F,沢井駅前広場身障者用トイレ,設備: 車椅子対応,#00cc00,139.194182,35.805641
吹上しょうぶ公園,東京都 青梅市吹上425番地,1F,吹上しょうぶ公園身障者用トイレ,"設備: 車椅子対応, おむつ交換台",#00cc00,139.276045,35.797394
寺改戸公園,東京都 青梅市長淵三丁目285番1号,1F,寺改戸公園身障者用トイレ,"設備: 車椅子対応, オストメイト対応, おむつ交換台",#00cc00,139.275158,35.780987
畑中戸田山公園,東京都 青梅市畑中三丁目898番2号,1F,畑中戸田山公園身障者用トイレ,"設備: 車椅子対応, オストメイト対応",#00cc00,139.237305,35.779212
上開戸公園,東京都 青梅市大門一丁目783番2号,1F,上開戸公園身障者用トイレ,"設備: 車椅子対応, オストメイト対応, おむつ交換台",#00cc00,139.286326,35.800961
梅の公園,東京都 青梅市梅郷四丁目527番地,1F,梅の公園正面口身障者用トイレ,設備: 車椅子対応,#00cc00,139.218732,35.786315
梅の公園,東京都 青梅市梅郷四丁目527番地,1F,梅の公園東口身障者用トイレ,設備: 車椅子対応,#00cc00,139.221137,35.7849
今井ふれあい公園,東京都 青梅市今井二丁目936番地,1F,今井ふれあい公園身障者用トイレ,"設備: 車椅子対応, オストメイト対応, おむつ交換台",#00cc00,139.308784,35.806944
花木園,東京都 青梅市小曾木四丁目2615番1,1F,花木園身障者用トイレ,設備: 車椅子対応,#00cc00,139.284252,35.818034
梅郷１・２丁目運動広場,東京都 青梅市梅郷一丁目２０３番地３,1F,梅郷１・２丁目運動広場トイレ,"設備: 車椅子対応, おむつ交換台",#00cc00,139.223786,35.783223
青梅駅前公衆便所,東京都 青梅市本町163番地16号,1F,青梅駅前公衆便所,設備: 車椅子対応,#00cc00,139.258815,35.790268
東青梅駅南口公衆便所,東京都 青梅市勝沼15番地12号,1F,東青梅駅南口公衆便所,設備: 車椅子対応,#00cc00,139.271865,35.790096
東青梅駅北口公衆便所,東京都 青梅市東青梅二丁目14番9号,1F,東青梅駅北口公衆便所,"設備: 車椅子対応, オストメイト対応, おむつ交換台",#00cc00,139.272971,35.789972
河辺駅南口公衆便所,東京都 青梅市河辺町五丁目29番1号,1F,河辺駅南口公衆便所,"設備: 車椅子対応, おむつ交換台",#00cc00,139.28478,35.784241
河辺駅北口公衆便所,東京都 青梅市河辺町十丁目18番地,1F,河辺駅北口公衆便所,設備: 車椅子対応,#00cc00,139.284839,35.78465
長淵３丁目水泳場脇,東京都 青梅市長淵三丁目334番3号,1F,長淵３丁目水泳場脇,"設備: 車椅子対応, オストメイト対応, おむつ交換台",#00cc00,139.277735,35.7799
青梅市火葬場,東京都 青梅市長淵五丁目743番,1F,青梅市火葬場１階多目的トイレ,"設備: 車椅子対応, おむつ交換台",#00cc00,139.262383,35.772696
青梅市火葬場,東京都 青梅市長淵五丁目743番,1F,青梅市火葬場１階屋外多目的トイレ,,#00cc00,139.262383,35.772696
青梅市火葬場,東京都 青梅市長淵五丁目743番,2F,青梅市火葬場２階多目的トイレ,"設備: 車椅子対応, おむつ交換台",#00cc00,139.262383,35.772696
梅の里駐車場,東京都 青梅市柚木町一丁目69番4,1F,梅の里駐車場身障者用トイレ,設備: 車椅子対応,#00cc00,139.214148,35.796215
御岳苑地駐車場,東京都 青梅市御岳一丁目190番3号,1F,御岳苑地駐車場身障者用トイレ,設備: 車椅子対応,#00cc00,139.177744,35.798964
青梅柚木苑地駐車場,東京都 青梅市柚木町三丁目643番,,柚木苑地駐車場身障者用トイレ,"設備: 車椅子対応, オストメイト対応",#00cc00,139.207536,35.802944