name,address,floor,toilet_name,note,color,lng,lat
品川駅 (本線),東京都 港区高輪3丁目26番26号,1F,多機能トイレ,"鉄道会社: 京浜急行電鉄 | 路線: 本線 | 設備: 車椅子対応, オストメイト対応, 大型ベッド",#0066cc,139.73814,35.628451
新橋駅 (3号線銀座線),東京都 港区新橋2丁目17番5号,B1F,バリアフリートイレ,"鉄道会社: 東京地下鉄 | 路線: 3号線銀座線 | 設備: 車椅子対応, オストメイト対応, おむつ交換台",#0066cc,139.759275,35.667236
表参道駅 (3号線銀座線/9号線千代田線/11号線半蔵門線),東京都 港区北青山3丁目6番12号,B2F,バリアフリートイレ,"鉄道会社: 東京地下鉄 | 路線: 3号線銀座線/9号線千代田線/11号線半蔵門線 | 設備: 車椅子対応, オストメイト対応, おむつ交換台",#0066cc,139.712295,35.664748
表参道駅 (3号線銀座線/9号線千代田線/11号線半蔵門線),東京都 港区北青山3丁目6番12号,B1F,バリアフリートイレ,"鉄道会社: 東京地下鉄 | 路線: 3号線銀座線/9号線千代田線/11号線半蔵門線 | 設備: 車椅子対応, オストメイト対応, おむつ交換台",#0066cc,139.712069,35.665171
六本木駅 (2号線日比谷線),東京都 港区六本木6丁目1番25号,B2F,バリアフリートイレ,"鉄道会社: 東京地下鉄 | 路線: 2号線日比谷線 | 設備: 車椅子対応, オストメイト対応, おむつ交換台",#0066cc,139.7314,35.66276
六本木駅 (2号線日比谷線),東京都 港区六本木6丁目1番25号,B2F,バリアフリートイレ,"鉄道会社: 東京地下鉄 | 路線: 2号線日比谷線 | 設備: 車椅子対応, オストメイト対応, おむつ交換台",#0066cc,139.7305,35.66235
赤坂見附駅 (3号線銀座線/4号線丸ノ内線),東京都 港区赤坂3丁目1番6号,B1F,バリアフリートイレ,"鉄道会社: 東京地下鉄 | 路線: 3号線銀座線/4号線丸ノ内線 | 設備: 車椅子対応, オストメイト対応, おむつ交換台",#0066cc,139.736727,35.677652
赤坂見附駅 (3号線銀座線/4号線丸ノ内線),東京都 港区赤坂3丁目1番6号,B3F,バリアフリートイレ,"鉄道会社: 東京地下鉄 | 路線: 3号線銀座線/4号線丸ノ内線 | 設備: 車椅子対応, オストメイト対応, おむつ交換台",#0066cc,139.737749,35.675901
虎ノ門駅 (3号線銀座線),東京都 港区虎ノ門1丁目1番21号先,B1F,バリアフリートイレ,"鉄道会社: 東京地下鉄 | 路線: 3号線銀座線 | 設備: 車椅子対応, オストメイト対応, おむつ交換台",#0066cc,139.749966,35.670212
虎ノ門駅 (3号線銀座線),東京都 港区虎ノ門1丁目1番21号先,B1F,バリアフリートイレ,"鉄道会社: 東京地下鉄 | 路線: 3号線銀座線 | 設備: 車椅子対応, オストメイト対応, おむつ交換台",#0066cc,139.749434,35.670222
青山一丁目駅 (3号線銀座線/11号線半蔵門線),東京都 港区南青山1丁目1番19号,B1F,バリアフリートイレ,"鉄道会社: 東京地下鉄 | 路線: 3号線銀座線/11号線半蔵門線 | 設備: 車椅子対応, オストメイト対応, おむつ交換台",#0066cc,139.723728,35.672798
神谷町駅 (2号線日比谷線),東京都 港区虎ノ門5丁目12番11号,B2F,バリアフリートイレ,"鉄道会社: 東京地下鉄 | 路線: 2号線日比谷線 | 設備: 車椅子対応, オストメイト対応, おむつ交換台",#0066cc,139.7447,35.66253
神谷町駅 (2号線日比谷線),東京都 港区虎ノ門5丁目12番11号,B2F,バリアフリートイレ,"鉄道会社: 東京地下鉄 | 路線: 2号線日比谷線 | 設備: 車椅子対応, オストメイト対応, おむつ交換台",#0066cc,139.7446,35.66253
赤坂駅 (9号線千代田線),東京都 港区赤坂5丁目4番5号,B1F,バリアフリートイレ,"鉄道会社: 東京地下鉄 | 路線: 9号線千代田線 | 設備: 車椅子対応, オストメイト対応, おむつ交換台",#0066cc,139.73668,35.67241
赤坂駅 (9号線千代田線),東京都 港区赤坂5丁目4番5号,B1F,バリアフリートイレ,"鉄道会社: 東京地下鉄 | 路線: 9号線千代田線 | 設備: 車椅子対応, オストメイト対応, おむつ交換台",#0066cc,139.73578,35.671762
外苑前駅 (3号線銀座線),東京都 港区北青山2丁目7番16号,B1F,バリアフリートイレ,"鉄道会社: 東京地下鉄 | 路線: 3号線銀座線 | 設備: 車椅子対応, オストメイト対応, おむつ交換台",#0066cc,139.718731,35.6708
外苑前駅 (3号線銀座線),東京都 港区北青山2丁目7番16号,B1F,バリアフリートイレ,"鉄道会社: 東京地下鉄 | 路線: 3号線銀座線 | 設備: 車椅子対応, オストメイト対応, おむつ交換台",#0066cc,139.717721,35.670299
六本木一丁目駅 (7号線南北線),東京都 港区六本木1丁目4番1号,B2F,バリアフリートイレ,"鉄道会社: 東京地下鉄 | 路線: 7号線南北線 | 設備: 車椅子対応, オストメイト対応, おむつ交換台",#0066cc,139.739,35.66518
麻布十番駅 (7号線南北線),東京都 港区麻布十番4丁目4番9号先,B1F,バリアフリートイレ,"鉄道会社: 東京地下鉄 | 路線: 7号線南北線 | 設備: 車椅子対応, オストメイト対応, おむつ交換台",#0066cc,139.7372,35.65504
乃木坂駅 (9号線千代田線),東京都 港区南青山1丁目25番8号,B1F,バリアフリートイレ,"鉄道会社: 東京地下鉄 | 路線: 9号線千代田線 | 設備: 車椅子対応, オストメイト対応, おむつ交換台",#0066cc,139.72687,35.667161
白金高輪駅 (7号線南北線),東京都 港区高輪1丁目3番20号先,B1F,多機能トイレ,"鉄道会社: 東京地下鉄 | 路線: 7号線南北線 | 設備: 車椅子対応, オストメイト対応, おむつ交換台",#0066cc,139.7344,35.64336
白金台駅 (7号線南北線),東京都 港区白金台4丁目5番10号,B2F,多機能トイレ,"鉄道会社: 東京地下鉄 | 路線: 7号線南北線 | 設備: 車椅子対応, オストメイト対応, おむつ交換台",#0066cc,139.7268,35.63838
広尾駅 (2号線日比谷線),東京都 港区南麻布5丁目1番25号,B1F,多機能トイレ,"鉄道会社: 東京地下鉄 | 路線: 2号線日比谷線 | 設備: 車椅子対応, オストメイト対応, おむつ交換台",#0066cc,139.722177,35.652612
虎ノ門ヒルズ駅駅 (2号線日比谷線),東京都 港区虎ノ門１丁目22番12号,B1F,多機能トイレ,"鉄道会社: 東京地下鉄 | 路線: 2号線日比谷線 | 設備: 車椅子対応, オストメイト対応, おむつ交換台",#0066cc,139.74792,35.667928
モノレール浜松町駅 (東京モノレール羽田空港線),東京都 港区浜松町2丁目4番12号,1F,だれでもトイレ,"鉄道会社: 東京モノレール | 路線: 東京モノレール羽田空港線 | 設備: 車椅子対応, オストメイト対応, 大型ベッド",#0066cc,139.756632,35.655204
新橋駅 (東海道線),東京都 港区新橋2丁目,1F,多機能化粧室,"鉄道会社: 東日本旅客鉄道 | 路線: 東海道線 | 設備: 車椅子対応, オストメイト対応, おむつ交換台",#0066cc,139.75832,35.666802
新橋駅 (東海道線),東京都 港区新橋2丁目,1F,だれでもトイレ,"鉄道会社: 東日本旅客鉄道 | 路線: 東海道線 | 設備: 車椅子対応, オストメイト対応, おむつ交換台",#0066cc,139.75812,35.66661
浜松町駅 (東海道線),東京都 港区海岸1丁目,3F,多機能化粧室,"鉄道会社: 東日本旅客鉄道 | 路線: 東海道線 | 設備: 車椅子対応, オストメイト対応, おむつ交換台",#0066cc,139.75703,35.655448
田町駅 (東海道線),東京都 港区芝5丁目,2F,だれでもトイレ,"鉄道会社: 東日本旅客鉄道 | 路線: 東海道線 | 設備: 車椅子対応, オストメイト対応, おむつ交換台",#0066cc,139.74779,35.645928
田町駅 (東海道線),東京都 港区芝5丁目,2F,多機能化粧室,"鉄道会社: 東日本旅客鉄道 | 路線: 東海道線 | 設備: 車椅子対応, オストメイト対応, おむつ交換台",#0066cc,139.74727,35.645646
品川駅 (東海道線/山手線),東京都 港区高輪3丁目,2F,多機能化粧室,"鉄道会社: 東日本旅客鉄道 | 路線: 東海道線/山手線 | 設備: 車椅子対応, オストメイト対応, おむつ交換台",#0066cc,139.73911,35.628092
品川駅 (東海道線/山手線),東京都 港区高輪3丁目,2F,多機能化粧室,"鉄道会社: 東日本旅客鉄道 | 路線: 東海道線/山手線 | 設備: 車椅子対応, オストメイト対応, おむつ交換台",#0066cc,139.73911,35.628092
高輪ゲートウェイ駅 (東海道線),東京都 港区港南2丁目,2F,多機能化粧室,"鉄道会社: 東日本旅客鉄道 | 路線: 東海道線 | 設備: 車椅子対応, オストメイト対応, おむつ交換台",#0066cc,139.740973,35.635929
高輪ゲートウェイ駅 (東海道線),東京都 港区港南2丁目,2F,多機能化粧室,"鉄道会社: 東日本旅客鉄道 | 路線: 東海道線 | 設備: 車椅子対応, オストメイト対応, おむつ交換台",#0066cc,139.740973,35.635929
新橋駅 (東京臨海新交通臨海線),東京都 港区東新橋1丁目1番11号先,2F,多機能トイレ（東口）,"ハンドドライヤー、ベビーチェア下フィッテイングボード、大型ベッド（折りたたみ式）設置 | 鉄道会社: ゆりかもめ | 路線: 東京臨海新交通臨海線 | 設備: 車椅子対応, オストメイト対応, 大型ベッド, おむつ交換台",#0066cc,139.759628,35.665403
新橋駅 (東京臨海新交通臨海線),東京都 港区東新橋1丁目1番11号先,2F,多機能トイレ（東口）,"個室前の男性トイレ内では回転可・乳幼児用おむつ交換台、オストメイトは男性トイレ個室内に設置 | 鉄道会社: ゆりかもめ | 路線: 東京臨海新交通臨海線 | 設備: 車椅子対応, オストメイト対応, おむつ交換台",#0066cc,139.759628,35.665403
新橋駅 (東京臨海新交通臨海線),東京都 港区東新橋1丁目1番11号先,2F,多機能トイレ（東口）,"個室前の女性トイレ内では回転可・乳幼児用おむつ交換台、オストメイトは女性トイレ個室内に設置 | 鉄道会社: ゆりかもめ | 路線: 東京臨海新交通臨海線 | 設備: 車椅子対応, オストメイト対応, おむつ交換台",#0066cc,139.759628,35.665403
汐留駅 (東京臨海新交通臨海線),東京都 港区東新橋1丁目9番52号先,2F,多機能トイレ,"鉄道会社: ゆりかもめ | 路線: 東京臨海新交通臨海線 | 設備: 車椅子対応, オストメイト対応, 大型ベッド, おむつ交換台",#0066cc,139.760016,35.66293
竹芝駅 (東京臨海新交通臨海線),東京都 港区海岸1丁目13番10号,2F,多機能トイレ,"鉄道会社: ゆりかもめ | 路線: 東京臨海新交通臨海線 | 設備: 車椅子対応, オストメイト対応",#0066cc,139.761969,35.653976
日の出駅 (東京臨海新交通臨海線),東京都 港区海岸2丁目7番68号,2F,多機能トイレ,"鉄道会社: ゆりかもめ | 路線: 東京臨海新交通臨海線 | 設備: 車椅子対応, オストメイト対応",#0066cc,139.75911,35.649202
芝浦ふ頭駅 (東京臨海新交通臨海線),東京都 港区海岸3丁目22番12号,2F,多機能トイレ,"鉄道会社: ゆりかもめ | 路線: 東京臨海新交通臨海線 | 設備: 車椅子対応, オストメイト対応",#0066cc,139.757742,35.641603
お台場海浜公園駅 (東京臨海新交通臨海線),東京都 港区台場2丁目3番地先,2F,多機能トイレ,"一般トイレにオストメイト有り | 鉄道会社: ゆりかもめ | 路線: 東京臨海新交通臨海線 | 設備: 車椅子対応, オストメイト対応, おむつ交換台",#0066cc,139.77877,35.629883
台場駅 (東京臨海新交通臨海線),東京都 港区台場2丁目6番地先,2F,多機能トイレ,"鉄道会社: ゆりかもめ | 路線: 東京臨海新交通臨海線 | 設備: 車椅子対応, オストメイト対応, おむつ交換台",#0066cc,139.771415,35.625944