name,address,floor,toilet_name,note,color,lng,lat
南新宿駅 (小田原線),東京都 渋谷区代々木2丁目29番16号,2F,多目的トイレ,"非常用呼び出しはインターホン | 鉄道会社: 小田急電鉄 | 路線: 小田原線 | 設備: 車椅子対応, オストメイト対応, 大型ベッド",#0066cc,139.698941,35.683703
参宮橋駅 (小田原線),東京都 渋谷区代々木4丁目6番7号,1F,多目的トイレ,"鉄道会社: 小田急電鉄 | 路線: 小田原線 | 設備: 車椅子対応, オストメイト対応, 大型ベッド",#0066cc,139.693507,35.678625
代々木八幡駅 (小田原線),東京都 渋谷区代々木5丁目6番1号,2F,多目的トイレ,"点字ブロックはトイレの手前まで／大型ベッドはおむつ交換台としても使える | 鉄道会社: 小田急電鉄 | 路線: 小田原線 | 設備: 車椅子対応, オストメイト対応",#0066cc,139.688794,35.669666
代々木八幡駅 (小田原線),東京都 渋谷区代々木5丁目6番1号,2F,多目的トイレ,"点字ブロックはトイレの手前まで／大型ベッドはおむつ交換台としても使える | 鉄道会社: 小田急電鉄 | 路線: 小田原線 | 設備: 車椅子対応, オストメイト対応",#0066cc,139.688824,35.669677
代々木上原駅 (小田原線),東京都 渋谷区西原3丁目8番5号,1F,多目的トイレ,"鉄道会社: 小田急電鉄 | 路線: 小田原線 | 設備: 車椅子対応, オストメイト対応, 大型ベッド, おむつ交換台",#0066cc,139.67994,35.6692
代々木上原駅 (小田原線),東京都 渋谷区西原3丁目8番6号,1F,多目的トイレ,"鉄道会社: 小田急電鉄 | 路線: 小田原線 | 設備: 車椅子対応, オストメイト対応, 大型ベッド, おむつ交換台",#0066cc,139.679978,35.669195
初台駅 (京王線),東京都 渋谷区初台1丁目53番7号,B1F,だれでもトイレ,"鉄道会社: 京王電鉄 | 路線: 京王線 | 設備: 車椅子対応, オストメイト対応, 大型ベッド",#0066cc,139.686178,35.681131
初台東口駅 (京王線),東京都 渋谷区初台1丁目53番7号,B2F,だれでもトイレ,"鉄道会社: 京王電鉄 | 路線: 京王線 | 設備: 車椅子対応, オストメイト対応, 大型ベッド",#0066cc,139.686911,35.681574
幡ヶ谷駅 (京王線),東京都 渋谷区幡ヶ谷1丁目2番1号,B2F,だれでもトイレ,"鉄道会社: 京王電鉄 | 路線: 京王線 | 設備: 車椅子対応, オストメイト対応, 大型ベッド",#0066cc,139.676948,35.677276
笹塚駅 (京王線),東京都 渋谷区笹塚1丁目56番7号,1F,多機能トイレ,"鉄道会社: 京王電鉄 | 路線: 京王線 | 設備: 車椅子対応, オストメイト対応, 大型ベッド",#0066cc,139.666869,35.67349
渋谷駅 (井の頭線),東京都 渋谷区道玄坂1丁目4番1号,2F,多機能トイレ,"鉄道会社: 京王電鉄 | 路線: 井の頭線 | 設備: 車椅子対応, オストメイト対応, 大型ベッド",#0066cc,139.699268,35.658438
渋谷駅 (井の頭線),東京都 渋谷区道玄坂1丁目4番1号,2F,多機能トイレ,"鉄道会社: 京王電鉄 | 路線: 井の頭線 | 設備: 車椅子対応, オストメイト対応, 大型ベッド",#0066cc,139.699348,35.658435
神泉駅 (井の頭線),東京都 渋谷区神泉町4番6号,2F,だれでもトイレ,"車椅子は入れれば、内部で回転可能　出入口：今後改修予定 | 鉄道会社: 京王電鉄 | 路線: 井の頭線 | 設備: 車椅子対応, オストメイト対応, 大型ベッド, おむつ交換台",#0066cc,139.693513,35.657234
渋谷駅 (東横線),東京都 渋谷区渋谷2丁目21番13号,B2F,多機能お手洗い（女性用）（宮益坂トイレ）,"鉄道会社: 東急電鉄 | 路線: 東横線 | 設備: 車椅子対応, オストメイト対応, おむつ交換台",#0066cc,139.702468,35.659617
渋谷駅 (東横線),東京都 渋谷区渋谷2丁目21番13号,B2F,多機能お手洗い（男性用）（宮益坂トイレ）,"鉄道会社: 東急電鉄 | 路線: 東横線 | 設備: 車椅子対応, オストメイト対応, おむつ交換台",#0066cc,139.702454,35.659661
渋谷駅 (東横線),東京都 渋谷区渋谷2丁目21番13号,B4F,多機能お手洗い（女性用）（ヒカリエトイレ）,"※別途、ひろびろブースに乳幼児用椅子有り（機能分散） | 鉄道会社: 東急電鉄 | 路線: 東横線 | 設備: 車椅子対応, オストメイト対応, おむつ交換台",#0066cc,139.702684,35.659269
渋谷駅 (東横線),東京都 渋谷区渋谷2丁目21番13号,B4F,多機能お手洗い（共用）（ヒカリエトイレ）,"※別途、ひろびろブースに乳幼児用椅子有り（機能分散） | 鉄道会社: 東急電鉄 | 路線: 東横線 | 設備: 車椅子対応, オストメイト対応, おむつ交換台",#0066cc,139.70263,35.659256
代官山駅 (東横線),東京都 渋谷区代官山町19番4,1F,多機能お手洗い,"入口前で車椅子回転可 | 鉄道会社: 東急電鉄 | 路線: 東横線 | 設備: 車椅子対応, オストメイト対応, おむつ交換台",#0066cc,139.703318,35.64818
渋谷駅 (東横線/田園都市線),東京都 渋谷区道玄坂2丁目1番1号,B1F,多目的トイレ（共用）（ラウンジトイレ）,"改札外に設置、トイレ利用時は押しボタンの代わりにあるインターホンを使って解錠してもらう。 | 鉄道会社: 東急電鉄 | 路線: 東横線/田園都市線 | 設備: 車椅子対応, オストメイト対応, おむつ交換台",#0066cc,139.699624,35.659547
渋谷駅 (東横線/田園都市線),東京都 渋谷区道玄坂2丁目1番1号,B2F,多機能お手洗い（共用）（道玄坂トイレ）,"鉄道会社: 東急電鉄 | 路線: 東横線/田園都市線 | 設備: 車椅子対応, オストメイト対応, おむつ交換台",#0066cc,139.699624,35.659547
恵比寿駅 (2号線日比谷線),東京都 渋谷区恵比寿南1丁目5番5号,B2F,バリアフリートイレ,"鉄道会社: 東京地下鉄 | 路線: 2号線日比谷線 | 設備: 車椅子対応, オストメイト対応, おむつ交換台",#0066cc,139.709,35.64725
明治神宮前＜原宿＞駅 (9号線千代田線/13号線副都心線),東京都 渋谷区神宮前1丁目18番22号,B1F,バリアフリートイレ,"鉄道会社: 東京地下鉄 | 路線: 9号線千代田線/13号線副都心線 | 設備: 車椅子対応, オストメイト対応, おむつ交換台",#0066cc,139.70481,35.66874
明治神宮前＜原宿＞駅 (9号線千代田線/13号線副都心線),東京都 渋谷区神宮前1丁目18番22号,B2F,バリアフリートイレ,"鉄道会社: 東京地下鉄 | 路線: 9号線千代田線/13号線副都心線 | 設備: 車椅子対応, オストメイト対応, おむつ交換台",#0066cc,139.70353,35.669344
明治神宮前＜原宿＞駅 (9号線千代田線/13号線副都心線),東京都 渋谷区神宮前1丁目18番22号,B4F,バリアフリートイレ,"鉄道会社: 東京地下鉄 | 路線: 9号線千代田線/13号線副都心線 | 設備: 車椅子対応, オストメイト対応, おむつ交換台",#0066cc,139.70502,35.668073
明治神宮前＜原宿＞駅 (9号線千代田線/13号線副都心線),東京都 渋谷区神宮前1丁目18番22号,B4F,バリアフリートイレ,"鉄道会社: 東京地下鉄 | 路線: 9号線千代田線/13号線副都心線 | 設備: 車椅子対応, オストメイト対応, おむつ交換台",#0066cc,139.70505,35.66811
代々木公園駅 (9号線千代田線),東京都 渋谷区富ケ谷1丁目3番9号,B1F,バリアフリートイレ,"鉄道会社: 東京地下鉄 | 路線: 9号線千代田線 | 設備: 車椅子対応, オストメイト対応, おむつ交換台",#0066cc,139.69108,35.668954
北参道駅 (13号線副都心線),東京都 渋谷区千駄ヶ谷4丁目7番11号,B1F,多機能トイレ,"2つの多機能トイレが並設 | 鉄道会社: 東京地下鉄 | 路線: 13号線副都心線 | 設備: 車椅子対応, オストメイト対応, おむつ交換台",#0066cc,139.7057,35.67817
北参道駅 (13号線副都心線),東京都 渋谷区千駄ヶ谷4丁目7番11号,B1F,多機能トイレ,"2つの多機能トイレが並設 | 鉄道会社: 東京地下鉄 | 路線: 13号線副都心線 | 設備: 車椅子対応, オストメイト対応, おむつ交換台",#0066cc,139.7058,35.67815
渋谷駅駅 (3号線銀座線),東京都 渋谷区渋谷２丁目21番1号,2F,多機能トイレ,"鉄道会社: 東京地下鉄 | 路線: 3号線銀座線 | 設備: 車椅子対応, オストメイト対応, おむつ交換台",#0066cc,139.703003,35.659183
千駄ヶ谷駅 (中央線),東京都 渋谷区千駄ヶ谷1丁目,1F,多機能化粧室,"鉄道会社: 東日本旅客鉄道 | 路線: 中央線 | 設備: 車椅子対応, オストメイト対応, おむつ交換台",#0066cc,139.71127,35.681038
千駄ヶ谷駅 (中央線),東京都 渋谷区千駄ヶ谷1丁目,1F,多機能化粧室,"鉄道会社: 東日本旅客鉄道 | 路線: 中央線 | 設備: 車椅子対応, オストメイト対応, おむつ交換台",#0066cc,139.71127,35.681038
代々木駅 (中央線),東京都 渋谷区代々木1丁目,1F,多機能トイレ,"鉄道会社: 東日本旅客鉄道 | 路線: 中央線 | 設備: 車椅子対応, オストメイト対応, おむつ交換台",#0066cc,139.70229,35.683131
原宿駅 (山手線),東京都 渋谷区神宮前1丁目,改札階,多機能化粧室,"鉄道会社: 東日本旅客鉄道 | 路線: 山手線 | 設備: 車椅子対応, オストメイト対応, おむつ交換台",#0066cc,139.702623,35.670298
原宿駅 (山手線),東京都 渋谷区神宮前1丁目,改札階,多機能化粧室,"鉄道会社: 東日本旅客鉄道 | 路線: 山手線 | 設備: 車椅子対応, オストメイト対応, おむつ交換台",#0066cc,139.702623,35.670298
渋谷駅 (山手線),東京都 渋谷区道玄坂1丁目,1F,多目的トイレ(南改札内）,"鉄道会社: 東日本旅客鉄道 | 路線: 山手線 | 設備: 車椅子対応, オストメイト対応, おむつ交換台",#0066cc,139.7015,35.6578
渋谷駅 (山手線),東京都 渋谷区道玄坂1丁目,2F,多機能トイレ(新南改札内）,"鉄道会社: 東日本旅客鉄道 | 路線: 山手線 | 設備: 車椅子対応, オストメイト対応, おむつ交換台",#0066cc,139.7037,35.65581
渋谷駅 (山手線),東京都 渋谷区道玄坂1丁目,1F,仮設多機能トイレ(ハチ公改札内）,"鉄道会社: 東日本旅客鉄道 | 路線: 山手線 | 設備: 車椅子対応, オストメイト対応, おむつ交換台",#0066cc,139.7015048,35.65887541
恵比寿駅 (山手線),東京都 渋谷区恵比寿南1丁目,1F,多機能トイレ,"鉄道会社: 東日本旅客鉄道 | 路線: 山手線 | 設備: 車椅子対応, オストメイト対応, おむつ交換台",#0066cc,139.7099,35.64684
恵比寿駅 (山手線),東京都 渋谷区恵比寿南1丁目,2F,多機能トイレ,"鉄道会社: 東日本旅客鉄道 | 路線: 山手線 | 設備: 車椅子対応, オストメイト対応, おむつ交換台",#0066cc,139.7104,35.64618