name,address,floor,toilet_name,note,color,lng,lat
新宿駅 (小田原線),東京都 新宿区西新宿1丁目1番3号,B1F,多目的トイレ,"鉄道会社: 小田急電鉄 | 路線: 小田原線 | 設備: 車椅子対応, オストメイト対応, 大型ベッド",#0066cc,139.699413,35.69078
新宿駅 (小田原線),東京都 新宿区西新宿1丁目1番3号,B1F,多目的トイレ,"鉄道会社: 小田急電鉄 | 路線: 小田原線 | 設備: 車椅子対応, オストメイト対応, 大型ベッド",#0066cc,139.699413,35.69078
新宿駅 (小田原線),東京都 新宿区西新宿1丁目1番3号,2F,多目的トイレ,"非常用呼び出しはインターホン | 鉄道会社: 小田急電鉄 | 路線: 小田原線 | 設備: 車椅子対応, オストメイト対応",#0066cc,139.699955,35.689631
新宿駅 (小田原線),東京都 新宿区西新宿1丁目1番3号,2F,多目的トイレ,"非常用呼び出しはインターホン | 鉄道会社: 小田急電鉄 | 路線: 小田原線 | 設備: 車椅子対応, オストメイト対応",#0066cc,139.699955,35.689631
新宿駅 (京王線),東京都 新宿区西新宿1丁目1番4号、18号,B2F,多機能トイレ,"鉄道会社: 京王電鉄 | 路線: 京王線 | 設備: 車椅子対応, オストメイト対応, 大型ベッド",#0066cc,139.699034,35.690711
新宿駅 (京王線),東京都 新宿区西新宿1丁目1番4号、18号,B1F,多機能トイレ,"鉄道会社: 京王電鉄 | 路線: 京王線 | 設備: 車椅子対応, オストメイト対応, 大型ベッド",#0066cc,139.699294,35.688654
西武新宿駅 (新宿線),東京都 新宿区歌舞伎町1丁目30番1号,2F,だれでもトイレ,"鉄道会社: 西武鉄道 | 路線: 新宿線 | 設備: 車椅子対応, オストメイト対応, おむつ交換台",#0066cc,139.7001,35.695149
高田馬場駅 (新宿線),東京都 新宿区高田馬場1丁目35番2号,3F,だれでもトイレ,"鉄道会社: 西武鉄道 | 路線: 新宿線 | 設備: 車椅子対応, オストメイト対応, おむつ交換台",#0066cc,139.70401,35.712652
下落合駅 (新宿線),東京都 新宿区下落合1丁目16番1号,1F,だれでもトイレ,"鉄道会社: 西武鉄道 | 路線: 新宿線 | 設備: 車椅子対応, オストメイト対応, おむつ交換台",#0066cc,139.69528,35.71572
中井駅 (新宿線),東京都 新宿区中落合1丁目19番1号,1F,だれでもトイレ,"鉄道会社: 西武鉄道 | 路線: 新宿線 | 設備: 車椅子対応, オストメイト対応, おむつ交換台",#0066cc,139.68668,35.715031
新宿駅 (4号線丸ノ内線),東京都 新宿区西新宿西口地下街1号,B1F,バリアフリートイレ,"鉄道会社: 東京地下鉄 | 路線: 4号線丸ノ内線 | 設備: 車椅子対応, オストメイト対応, おむつ交換台",#0066cc,139.7014,35.69223
高田馬場駅 (5号線東西線),東京都 新宿区高田馬場1丁目35番2号,B1F,バリアフリートイレ,"鉄道会社: 東京地下鉄 | 路線: 5号線東西線 | 設備: 車椅子対応, オストメイト対応, おむつ交換台",#0066cc,139.7047,35.71327
高田馬場駅 (5号線東西線),東京都 新宿区高田馬場1丁目35番2号,B1F,バリアフリートイレ,"鉄道会社: 東京地下鉄 | 路線: 5号線東西線 | 設備: 車椅子対応, オストメイト対応, おむつ交換台",#0066cc,139.7071,35.71227
飯田橋駅 (5号線東西線/７号線南北線/8号線有楽町線),東京都 新宿区神楽坂1丁目13番地,B1F,バリアフリートイレ,"鉄道会社: 東京地下鉄 | 路線: 5号線東西線/７号線南北線/8号線有楽町線 | 設備: 車椅子対応, オストメイト対応, おむつ交換台",#0066cc,139.74369,35.701544
飯田橋駅 (5号線東西線/７号線南北線/8号線有楽町線),東京都 新宿区神楽坂1丁目13番地,B1F,バリアフリートイレ,"鉄道会社: 東京地下鉄 | 路線: 5号線東西線/７号線南北線/8号線有楽町線 | 設備: 車椅子対応, オストメイト対応, おむつ交換台",#0066cc,139.74313,35.700931
飯田橋駅 (5号線東西線/７号線南北線/8号線有楽町線),東京都 新宿区神楽坂1丁目13番地,B1F,バリアフリートイレ,"鉄道会社: 東京地下鉄 | 路線: 5号線東西線/７号線南北線/8号線有楽町線 | 設備: 車椅子対応, オストメイト対応, おむつ交換台",#0066cc,139.7459,35.701871
飯田橋駅 (5号線東西線/７号線南北線/8号線有楽町線),東京都 新宿区神楽坂1丁目13番地,B2F,バリアフリートイレ,"鉄道会社: 東京地下鉄 | 路線: 5号線東西線/７号線南北線/8号線有楽町線 | 設備: 車椅子対応, オストメイト対応, おむつ交換台",#0066cc,139.74753,35.70087
新宿三丁目駅 (4号線丸ノ内線/13号線副都心線),東京都 新宿区新宿3丁目14番1号,B1F,バリアフリートイレ,"鉄道会社: 東京地下鉄 | 路線: 4号線丸ノ内線/13号線副都心線 | 設備: 車椅子対応, オストメイト対応, おむつ交換台",#0066cc,139.7049,35.69085
新宿三丁目駅 (4号線丸ノ内線/13号線副都心線),東京都 新宿区新宿3丁目14番1号,B2F,バリアフリートイレ,"鉄道会社: 東京地下鉄 | 路線: 4号線丸ノ内線/13号線副都心線 | 設備: 車椅子対応, オストメイト対応, おむつ交換台",#0066cc,139.7043,35.68991
新宿三丁目駅 (4号線丸ノ内線/13号線副都心線),東京都 新宿区新宿3丁目14番1号,B2F,バリアフリートイレ,"鉄道会社: 東京地下鉄 | 路線: 4号線丸ノ内線/13号線副都心線 | 設備: 車椅子対応, オストメイト対応, おむつ交換台",#0066cc,139.7043,35.68989
市ケ谷駅 (7号線南北線/8号線有楽町線),東京都 新宿区市谷田町1丁目先,B1F,バリアフリートイレ,"鉄道会社: 東京地下鉄 | 路線: 7号線南北線/8号線有楽町線 | 設備: 車椅子対応, オストメイト対応, おむつ交換台",#0066cc,139.73645,35.691578
市ケ谷駅 (7号線南北線/8号線有楽町線),東京都 新宿区市谷田町1丁目先,B3F,バリアフリートイレ,"鉄道会社: 東京地下鉄 | 路線: 7号線南北線/8号線有楽町線 | 設備: 車椅子対応, オストメイト対応, おむつ交換台",#0066cc,139.73649,35.69301
四ツ谷駅 (4号線丸ノ内線/7号線南北線),東京都 新宿区四谷1丁目3番地,B2F,バリアフリートイレ,"鉄道会社: 東京地下鉄 | 路線: 4号線丸ノ内線/7号線南北線 | 設備: 車椅子対応, オストメイト対応, おむつ交換台",#0066cc,139.7297,35.68608
四ツ谷駅 (4号線丸ノ内線/7号線南北線),東京都 新宿区四谷1丁目3番地,1F,バリアフリートイレ,"鉄道会社: 東京地下鉄 | 路線: 4号線丸ノ内線/7号線南北線 | 設備: 車椅子対応, オストメイト対応, おむつ交換台",#0066cc,139.72991,35.68498
西新宿駅 (4号線丸ノ内線),東京都 新宿区西新宿6丁目7番51号,B1F,バリアフリートイレ,"鉄道会社: 東京地下鉄 | 路線: 4号線丸ノ内線 | 設備: 車椅子対応, オストメイト対応, おむつ交換台",#0066cc,139.6925,35.69454
早稲田駅 (5号線東西線),東京都 新宿区早稲田南町12番地,B2F,バリアフリートイレ,"鉄道会社: 東京地下鉄 | 路線: 5号線東西線 | 設備: 車椅子対応, オストメイト対応, おむつ交換台",#0066cc,139.72,35.70616
早稲田駅 (5号線東西線),東京都 新宿区早稲田南町12番地,B2F,バリアフリートイレ,"鉄道会社: 東京地下鉄 | 路線: 5号線東西線 | 設備: 車椅子対応, オストメイト対応, おむつ交換台",#0066cc,139.721209,35.705751
新宿御苑前駅 (4号線丸ノ内線),東京都 新宿区新宿1丁目7番2号,B1F,バリアフリートイレ,"鉄道会社: 東京地下鉄 | 路線: 4号線丸ノ内線 | 設備: 車椅子対応, オストメイト対応, おむつ交換台",#0066cc,139.7104,35.68869
新宿御苑前駅 (4号線丸ノ内線),東京都 新宿区新宿1丁目7番2号,B1F,バリアフリートイレ,"鉄道会社: 東京地下鉄 | 路線: 4号線丸ノ内線 | 設備: 車椅子対応, オストメイト対応, おむつ交換台",#0066cc,139.710075,35.688697
四谷三丁目駅 (4号線丸ノ内線),東京都 新宿区四谷3丁目8番地,B1F,バリアフリートイレ,"鉄道会社: 東京地下鉄 | 路線: 4号線丸ノ内線 | 設備: 車椅子対応, オストメイト対応, おむつ交換台",#0066cc,139.7204,35.68824
四谷三丁目駅 (4号線丸ノ内線),東京都 新宿区四谷3丁目8番地,B1F,バリアフリートイレ,"鉄道会社: 東京地下鉄 | 路線: 4号線丸ノ内線 | 設備: 車椅子対応, オストメイト対応, おむつ交換台",#0066cc,139.7209,35.68797
神楽坂駅 (5号線東西線),東京都 新宿区矢来町112番地,B1F,バリアフリートイレ,"鉄道会社: 東京地下鉄 | 路線: 5号線東西線 | 設備: 車椅子対応, オストメイト対応, おむつ交換台",#0066cc,139.7357,35.70371
神楽坂駅 (5号線東西線),東京都 新宿区矢来町112番地,B2F,バリアフリートイレ,"鉄道会社: 東京地下鉄 | 路線: 5号線東西線 | 設備: 車椅子対応, オストメイト対応, おむつ交換台",#0066cc,139.7332,35.70417
東新宿駅 (13号線副都心線),東京都 新宿区新宿7丁目27番11号,B4F,バリアフリートイレ,"鉄道会社: 東京地下鉄 | 路線: 13号線副都心線 | 設備: 車椅子対応, オストメイト対応, おむつ交換台",#0066cc,139.7079,35.70005
東新宿駅 (13号線副都心線),東京都 新宿区新宿7丁目27番11号,B4F,バリアフリートイレ,"鉄道会社: 東京地下鉄 | 路線: 13号線副都心線 | 設備: 車椅子対応, オストメイト対応, おむつ交換台",#0066cc,139.7079,35.70004
西早稲田駅 (13号線副都心線),東京都 新宿区戸山3丁目18番2号,B1F,バリアフリートイレ,"鉄道会社: 東京地下鉄 | 路線: 13号線副都心線 | 設備: 車椅子対応, オストメイト対応, おむつ交換台",#0066cc,139.7089,35.70641
西早稲田駅 (13号線副都心線),東京都 新宿区戸山3丁目18番2号,B1F,バリアフリートイレ,"鉄道会社: 東京地下鉄 | 路線: 13号線副都心線 | 設備: 車椅子対応, オストメイト対応, おむつ交換台",#0066cc,139.7089,35.70643
西早稲田駅 (13号線副都心線),東京都 新宿区戸山3丁目18番2号,B1F,バリアフリートイレ,"鉄道会社: 東京地下鉄 | 路線: 13号線副都心線 | 設備: 車椅子対応, オストメイト対応, おむつ交換台",#0066cc,139.7093,35.70883
西早稲田駅 (13号線副都心線),東京都 新宿区戸山3丁目18番2号,B1F,バリアフリートイレ,"鉄道会社: 東京地下鉄 | 路線: 13号線副都心線 | 設備: 車椅子対応, オストメイト対応, おむつ交換台",#0066cc,139.7093,35.70878
落合駅 (5号線東西線),東京都 新宿区上落合2丁目13番7号,B1F,バリアフリートイレ,"鉄道会社: 東京地下鉄 | 路線: 5号線東西線 | 設備: 車椅子対応, オストメイト対応, おむつ交換台",#0066cc,139.6869,35.71088
落合駅 (5号線東西線),東京都 新宿区上落合2丁目13番7号,B1F,バリアフリートイレ,"鉄道会社: 東京地下鉄 | 路線: 5号線東西線 | 設備: 車椅子対応, オストメイト対応, おむつ交換台",#0066cc,139.6845,35.71029
四ツ谷駅 (中央線),東京都 新宿区四谷1丁目,1F,多機能トイレ,"鉄道会社: 東日本旅客鉄道 | 路線: 中央線 | 設備: 車椅子対応, オストメイト対応, おむつ交換台",#0066cc,139.73072,35.68595
信濃町駅 (中央線),東京都 新宿区信濃町,1F,多機能化粧室,"鉄道会社: 東日本旅客鉄道 | 路線: 中央線 | 設備: 車椅子対応, オストメイト対応, おむつ交換台",#0066cc,139.71994,35.680259
信濃町駅 (中央線),東京都 新宿区信濃町,1F,多機能化粧室,"鉄道会社: 東日本旅客鉄道 | 路線: 中央線 | 設備: 車椅子対応, オストメイト対応, おむつ交換台",#0066cc,139.71993,35.680241
大久保駅 (中央線),東京都 新宿区百人町1丁目,1F,多機能化粧室,"鉄道会社: 東日本旅客鉄道 | 路線: 中央線 | 設備: 車椅子対応, オストメイト対応, おむつ交換台",#0066cc,139.69691,35.701495
高田馬場駅 (山手線),東京都 新宿区高田馬場1丁目,1F,多機能化粧室,"鉄道会社: 東日本旅客鉄道 | 路線: 山手線 | 設備: 車椅子対応, オストメイト対応, おむつ交換台",#0066cc,139.7038,35.71346
新宿駅 (山手線/中央線),東京都 新宿区新宿3丁目,B1F,多目的トイレ,"鉄道会社: 東日本旅客鉄道 | 路線: 山手線/中央線 | 設備: 車椅子対応, オストメイト対応, おむつ交換台",#0066cc,139.7007,35.69099
新宿駅 (山手線/中央線),東京都 新宿区新宿3丁目,B1F,多目的トイレ,"鉄道会社: 東日本旅客鉄道 | 路線: 山手線/中央線 | 設備: 車椅子対応, オストメイト対応, おむつ交換台",#0066cc,139.7008,35.69031
新宿駅 (山手線/中央線),東京都 新宿区新宿3丁目,2F,多機能化粧室,"鉄道会社: 東日本旅客鉄道 | 路線: 山手線/中央線 | 設備: 車椅子対応, オストメイト対応, おむつ交換台",#0066cc,139.7005,35.68869
新宿駅 (山手線/中央線),東京都 新宿区新宿3丁目,2F,多機能化粧室,"鉄道会社: 東日本旅客鉄道 | 路線: 山手線/中央線 | 設備: 車椅子対応, オストメイト対応, おむつ交換台",#0066cc,139.7006,35.6887
新大久保駅駅 (山手線),東京都 新宿区百人町1丁目,1F,多機能化粧室,"鉄道会社: 東日本旅客鉄道 | 路線: 山手線 | 設備: 車椅子対応, オストメイト対応, おむつ交換台",#0066cc,139.700084,35.701236