name,address,floor,toilet_name,note,color,lng,lat
長沼駅 (京王線),東京都 八王子市長沼町700番地,1F,だれでもトイレ,"鉄道会社: 京王電鉄 | 路線: 京王線 | 設備: 車椅子対応, オストメイト対応, 大型ベッド",#0066cc,139.366398,35.642827
北野駅 (京王線/高尾線),東京都 八王子市打越町335番地1,2F,だれでもトイレ,"鉄道会社: 京王電鉄 | 路線: 京王線/高尾線 | 設備: 車椅子対応, オストメイト対応, 大型ベッド",#0066cc,139.35428,35.644408
京王八王子駅 (京王線),東京都 八王子市明神町3丁目27番1号,B1F,だれでもトイレ,"鉄道会社: 京王電鉄 | 路線: 京王線 | 設備: 車椅子対応, オストメイト対応, 大型ベッド",#0066cc,139.343394,35.657761
京王八王子西口駅 (京王線),東京都 八王子市明神町3丁目27番1号,B2F,だれでもトイレ,"改札外に設置 | 鉄道会社: 京王電鉄 | 路線: 京王線 | 設備: 車椅子対応, オストメイト対応, 大型ベッド",#0066cc,139.342927,35.657706
京王八王子西口駅 (京王線),東京都 八王子市明神町3丁目27番1号,B2F,だれでもトイレ,"改札外に設置 | 鉄道会社: 京王電鉄 | 路線: 京王線 | 設備: 車椅子対応, オストメイト対応, 大型ベッド",#0066cc,139.342927,35.657706
京王片倉駅 (高尾線),東京都 八王子市片倉町39番地4,B1F,だれでもトイレ,"鉄道会社: 京王電鉄 | 路線: 高尾線 | 設備: 車椅子対応, オストメイト対応, 大型ベッド",#0066cc,139.337307,35.644368
山田駅 (高尾線),東京都 八王子市緑町434番地,2F,だれでもトイレ,"鉄道会社: 京王電鉄 | 路線: 高尾線 | 設備: 車椅子対応, オストメイト対応, 大型ベッド",#0066cc,139.321168,35.644472
めじろ台駅 (高尾線),東京都 八王子市めじろ台1丁目100番1号,1F,だれでもトイレ,"鉄道会社: 京王電鉄 | 路線: 高尾線 | 設備: 車椅子対応, オストメイト対応, 大型ベッド",#0066cc,139.307837,35.64331
狭間駅 (高尾線),東京都 八王子市東浅川町773番地,1F,だれでもトイレ,"鉄道会社: 京王電鉄 | 路線: 高尾線 | 設備: 車椅子対応, オストメイト対応, 大型ベッド",#0066cc,139.293379,35.640581
高尾駅 (高尾線),東京都 八王子市初沢町1227番地,2F,多機能トイレ,"点字ブロックは音声案内板の前まで有り | 鉄道会社: 京王電鉄 | 路線: 高尾線 | 設備: 車椅子対応, オストメイト対応, 大型ベッド",#0066cc,139.281593,35.641642
高尾山口駅 (高尾線),東京都 八王子市高尾町2241番地,1F,だれでもトイレ,"鉄道会社: 京王電鉄 | 路線: 高尾線 | 設備: 車椅子対応, オストメイト対応, 大型ベッド",#0066cc,139.269873,35.632486
京王堀之内駅 (相模原線),東京都 八王子市堀之内3丁目24番4号,1F,多機能トイレ,"※点字ブロックは音声案内板の前まで有り | 鉄道会社: 京王電鉄 | 路線: 相模原線 | 設備: 車椅子対応, オストメイト対応, 大型ベッド",#0066cc,139.40021,35.624409
南大沢駅 (相模原線),東京都 八王子市南大沢2丁目1番6号,2F,だれでもトイレ,"鉄道会社: 京王電鉄 | 路線: 相模原線 | 設備: 車椅子対応, オストメイト対応, 大型ベッド, おむつ交換台",#0066cc,139.380045,35.614237
清滝駅 (高尾山鋼索線),東京都 八王子市高尾町2205番地,1F,だれでもトイレ,"改札外に設置、トイレ利用時間は季節により異なる。 | 鉄道会社: 高尾登山電鉄 | 路線: 高尾山鋼索線 | 設備: 車椅子対応, オストメイト対応, おむつ交換台",#0066cc,139.267026,35.63129
高尾山駅 (高尾山鋼索線),東京都 八王子市高尾町2181番地,1F,だれでもトイレ,"改札外に設置、トイレ利用時間は24時間可能。 | 鉄道会社: 高尾登山電鉄 | 路線: 高尾山鋼索線 | 設備: 車椅子対応, オストメイト対応, おむつ交換台",#0066cc,139.255709,35.630983
松が谷駅 (多摩都市モノレール線),東京都 八王子市松が谷40番地先,2F,車いす対応トイレ,"鉄道会社: 多摩都市モノレール | 路線: 多摩都市モノレール線 | 設備: 車椅子対応, オストメイト対応",#0066cc,139.421997,35.631885
大塚・帝京大学駅 (多摩都市モノレール線),東京都 八王子市大塚1473番地先,2F,車いす対応トイレ,"鉄道会社: 多摩都市モノレール | 路線: 多摩都市モノレール線 | 設備: 車椅子対応, オストメイト対応",#0066cc,139.41658,35.63681
中央大学・明星大学駅 (多摩都市モノレール線),東京都 八王子市東中野742番地先,2F,車いす対応トイレ,"鉄道会社: 多摩都市モノレール | 路線: 多摩都市モノレール線 | 設備: 車椅子対応, オストメイト対応",#0066cc,139.40841,35.642073
八王子みなみ野駅 (横浜線),東京都 八王子市みなみ野1丁目,2F,だれでもトイレ,"鉄道会社: 東日本旅客鉄道 | 路線: 横浜線 | 設備: 車椅子対応, オストメイト対応, おむつ交換台",#0066cc,139.331,35.63146
片倉駅 (横浜線),東京都 八王子市片倉町,1F,だれでもトイレ,"鉄道会社: 東日本旅客鉄道 | 路線: 横浜線 | 設備: 車椅子対応, オストメイト対応, おむつ交換台",#0066cc,139.3415,35.63989
八王子駅 (中央線/横浜線/八高線),東京都 八王子市旭町1丁目,2F,多機能化粧室,"鉄道会社: 東日本旅客鉄道 | 路線: 中央線/横浜線/八高線 | 設備: 車椅子対応, オストメイト対応, おむつ交換台",#0066cc,139.33915,35.655692
西八王子駅 (中央線),東京都 八王子市千人町2丁目,2F,多機能化粧室,"鉄道会社: 東日本旅客鉄道 | 路線: 中央線 | 設備: 車椅子対応, オストメイト対応, おむつ交換台",#0066cc,139.31232,35.65656
北八王子駅 (八高線),東京都 八王子市石川町,1F,だれでもトイレ,"鉄道会社: 東日本旅客鉄道 | 路線: 八高線 | 設備: 車椅子対応, オストメイト対応, おむつ交換台",#0066cc,139.3633,35.66941
小宮駅 (八高線),東京都 八王子市小宮町,2F,多目的トイレ,"鉄道会社: 東日本旅客鉄道 | 路線: 八高線 | 設備: 車椅子対応, オストメイト対応, おむつ交換台",#0066cc,139.3688,35.68547