name,address,floor,toilet_name,note,color,lng,lat
駒沢オリンピック公園総合運動場陸上競技場,東京都 世田谷区駒沢公園1番地1号,1F,車椅子使用者対応トイレ,こちらはトレーニングルームをご利用いただく方にお使いいただけます | 設備: 車椅子対応,#00cc00,139.66438,35.625688
駒沢オリンピック公園総合運動場陸上競技場,東京都 世田谷区駒沢公園1番地1号,1F,事務所前だれでもトイレ,"設備: 車椅子対応, オストメイト対応, おむつ交換台",#00cc00,139.663869,35.624802
公益財団法人東京都医学総合研究所,東京都 世田谷区上北沢二丁目1番6号,1F,1階エレベータホール車椅子便所,"設備: 車椅子対応, オストメイト対応",#00cc00,139.622374,35.663882
公益財団法人東京都医学総合研究所,東京都 世田谷区上北沢二丁目1番6号,2F,2階エレベータホール車椅子便所,設備: 車椅子対応,#00cc00,139.622374,35.663882
公益財団法人東京都医学総合研究所,東京都 世田谷区上北沢二丁目1番6号,3F,3階エレベータホール車椅子便所,設備: 車椅子対応,#00cc00,139.622374,35.663882
公益財団法人東京都医学総合研究所,東京都 世田谷区上北沢二丁目1番6号,4F,4階エレベータホール車椅子便所,設備: 車椅子対応,#00cc00,139.62239,35.663907
地方独立行政法人東京都立病院機構　東京都立松沢病院,東京都 世田谷区上北沢二丁目1番1号,1F,本館1階　精神外来横トイレ（だれでもトイレ）,"設備: 車椅子対応, オストメイト対応, おむつ交換台",#00cc00,139.619963,35.668525
地方独立行政法人東京都立病院機構　東京都立松沢病院,東京都 世田谷区上北沢二丁目1番1号,1F,本館１階精神外来横トイレ（だれでもトイレ）,"設備: 車椅子対応, オストメイト対応, おむつ交換台",#00cc00,139.619954,35.66857
駒沢オリンピック公園,東京都 世田谷区駒沢公園1番地1号,1F,1号多目的トイレ,"設備: 車椅子対応, おむつ交換台",#00cc00,139.658872,35.625221
駒沢オリンピック公園,東京都 世田谷区駒沢公園1番地1号,1F,2号多目的トイレ,設備: 車椅子対応,#00cc00,139.657965,35.627743
駒沢オリンピック公園,東京都 世田谷区駒沢公園1番地1号,1F,5号多目的トイレ,"設備: 車椅子対応, おむつ交換台",#00cc00,139.663621,35.62396
駒沢オリンピック公園,東京都 世田谷区駒沢公園1番地1号,1F,6号多目的トイレ,"設備: 車椅子対応, おむつ交換台",#00cc00,139.661016,35.626198
駒沢オリンピック公園,東京都 世田谷区駒沢公園1番地1号,1F,7号多目的トイレ,"設備: 車椅子対応, オストメイト対応, おむつ交換台",#00cc00,139.656623,35.625286
蘆花恒春園,東京都 世田谷区粕谷一丁目20番地,1F,さくらのトイレ多目的トイレ,"平成31年3月14日PMより開放 | 設備: 車椅子対応, おむつ交換台",#00cc00,139.613085,35.661144
蘆花恒春園,東京都 世田谷区粕谷一丁目20番,1F,環八側多目的トイレ,"設備: 車椅子対応, おむつ交換台",#00cc00,139.613291,35.662429
蘆花恒春園,東京都 世田谷区粕谷一丁目20番1号,1F,恒春園多目的トイレ,設備: 車椅子対応,#00cc00,139.611121,35.662514
祖師谷公園,東京都 世田谷区上祖師谷三丁目22番,1F,ゲートボール場横多目的トイレ,設備: 車椅子対応,#00cc00,139.599234,35.6548
祖師谷公園,東京都 世田谷区上祖師谷三丁目22番,1F,運動広場横多目的トイレ,設備: 車椅子対応,#00cc00,139.599839,35.656446
祖師谷公園,東京都 世田谷区上祖師谷四丁目1番,1F,入口広場横,"設備: 車椅子対応, オストメイト対応, おむつ交換台",#00cc00,139.598191,35.653681
砧公園,東京都 世田谷区砧公園1番地1号,1F,10号トイレ多目的トイレ,"設備: 車椅子対応, オストメイト対応, おむつ交換台",#00cc00,139.622967,35.63135
砧公園,東京都 世田谷区砧公園1番地1号,1F,1号多目的トイレ,設備: 車椅子対応,#00cc00,139.621808,35.628608
砧公園,東京都 世田谷区砧公園1番地1号,1F,4号トイレ多目的トイレ,"設備: 車椅子対応, おむつ交換台",#00cc00,139.619513,35.629907
砧公園,東京都 世田谷区砧公園1番地1号,1F,5号トイレ多目的トイレ,"設備: 車椅子対応, オストメイト対応, おむつ交換台",#00cc00,139.61714,35.632965
砧公園,東京都 世田谷区砧公園1番地1号,1F,えのきのトイレ多目的トイレ,"設備: 車椅子対応, おむつ交換台",#00cc00,139.618641,35.630964
砧公園,東京都 世田谷区砧公園1番地1号,1F,けやきのトイレ多目的トイレ,"設備: 車椅子対応, おむつ交換台",#00cc00,139.618353,35.629011
砧公園,東京都 世田谷区砧公園1番地1号,1F,さくらのトイレ多目的トイレ,"設備: 車椅子対応, おむつ交換台",#00cc00,139.617927,35.631468
砧公園,東京都 世田谷区砧公園1番地1号,1F,ねむのきトイレ多目的トイレ,"設備: 車椅子対応, オストメイト対応, 大型ベッド, おむつ交換台",#00cc00,139.624177,35.629152
砧公園,東京都 世田谷区砧公園1番地1号,1F,更衣棟内多目的トイレ,"運動施設利用者のみ利用可 | 設備: 車椅子対応, おむつ交換台",#00cc00,139.621683,35.628907
東京都水道局研修・開発センター,東京都 世田谷区玉川田園調布一丁目19番1号,B1F,B1階北側だれでもトイレ,設備: 車椅子対応,#00cc00,139.660501,35.60103
東京都水道局研修・開発センター,東京都 世田谷区玉川田園調布一丁目19番1号,1F,1階北側だれでもトイレ,設備: 車椅子対応,#00cc00,139.660501,35.60103
東京都水道局研修・開発センター,東京都 世田谷区玉川田園調布一丁目19番1号,2F,2階北側だれでもトイレ,設備: 車椅子対応,#00cc00,139.660501,35.60103
東京都水道局研修・開発センター,東京都 世田谷区玉川田園調布一丁目19番1号,3F,3階北側だれでもトイレ,設備: 車椅子対応,#00cc00,139.660501,35.60103
東京都水道局南部支所世田谷営業所（太子堂分室）,東京都 世田谷区太子堂一丁目13番13号,1F,１階西側だれでもトイレ,設備: 車椅子対応,#00cc00,139.673095,35.643162
東京都南部支所桜丘庁舎,東京都 世田谷区桜丘5-50-16,1F,多目的トイレ,"設備: 車椅子対応, オストメイト対応",#00cc00,139.618108,35.648038
世田谷消防署,東京都 世田谷区三軒茶屋二丁目３３番２１号,1F,誰でもトイレ,"設備: 車椅子対応, オストメイト対応, おむつ交換台",#00cc00,139.666325,35.640867
世田谷区役所_東棟 (東棟),東京都 世田谷区世田谷四丁目21番27号,B1F,バリアフリートイレ,"設備: 車椅子対応, オストメイト対応, おむつ交換台",#00cc00,139.6531252,35.64618937
世田谷区役所_東棟 (東棟),東京都 世田谷区世田谷四丁目21番27号,B1F,バリアフリートイレ,"設備: 車椅子対応, オストメイト対応",#00cc00,139.6532417,35.64581674
世田谷区役所_東棟 (東棟),東京都 世田谷区世田谷四丁目21番27号,1F,バリアフリートイレ,"区民会館ホール利用者（有料チケット購入者）専用 | 設備: 車椅子対応, オストメイト対応, おむつ交換台",#00cc00,139.652876,35.6459852
世田谷区役所_東棟 (東棟),東京都 世田谷区世田谷四丁目21番27号,2F,バリアフリートイレ,"設備: 車椅子対応, オストメイト対応, 大型ベッド, おむつ交換台",#00cc00,139.6530956,35.64582398
世田谷区役所_東棟 (東棟),東京都 世田谷区世田谷四丁目21番27号,3F,バリアフリートイレ,設備: 車椅子対応,#00cc00,139.6531015,35.64591843
世田谷区役所_東棟 (東棟),東京都 世田谷区世田谷四丁目21番27号,4F,バリアフリートイレ,設備: 車椅子対応,#00cc00,139.6531015,35.64591843
世田谷区役所_東棟 (東棟),東京都 世田谷区世田谷四丁目21番27号,5F,バリアフリートイレ,設備: 車椅子対応,#00cc00,139.6531015,35.64591843
世田谷区役所_東棟 (東棟),東京都 世田谷区世田谷四丁目21番27号,6F,バリアフリートイレ,設備: 車椅子対応,#00cc00,139.6531015,35.64591843
世田谷区役所_東棟 (東棟),東京都 世田谷区世田谷四丁目21番27号,7F,バリアフリートイレ,議会・議員用のため一般利用はできない | 設備: 車椅子対応,#00cc00,139.6531015,35.64591843
世田谷区役所_東棟 (東棟),東京都 世田谷区世田谷四丁目21番27号,8F,バリアフリートイレ,議会・議員用のため一般利用はできない | 設備: 車椅子対応,#00cc00,139.6531015,35.64591843
世田谷区役所_東棟 (東棟),東京都 世田谷区世田谷四丁目21番27号,9F,バリアフリートイレ,議会・議員用のため一般利用はできない | 設備: 車椅子対応,#00cc00,139.6531623,35.64596326
世田谷区役所_東棟 (東棟),東京都 世田谷区世田谷四丁目21番27号,10F,バリアフリートイレ,"設備: 車椅子対応, オストメイト対応, おむつ交換台",#00cc00,139.6530292,35.64592396
世田谷区役所第二庁舎,東京都 世田谷区世田谷四丁目22番35号,1F,１階だれでもトイレ（女性用）,"設備: 車椅子対応, オストメイト対応, おむつ交換台",#00cc00,139.651736,35.64616
世田谷区役所第二庁舎,東京都 世田谷区世田谷四丁目22番35号,1F,１階だれでもトイレ（男性用）,"設備: 車椅子対応, オストメイト対応",#00cc00,139.651817,35.646141
世田谷区役所第二庁舎,東京都 世田谷区世田谷四丁目22番35号,2F,２階だれでもトイレ（女性用）,"設備: オストメイト対応, おむつ交換台",#00cc00,139.651736,35.64616
世田谷区役所第二庁舎,東京都 世田谷区世田谷四丁目22番35号,2F,２階だれでもトイレ（男性用）,設備: 車椅子対応,#00cc00,139.651817,35.646141
世田谷区役所_西棟 (西棟),東京都 世田谷区世田谷四丁目22番33号,1F,バリアフリートイレ,"設備: 車椅子対応, オストメイト対応, 大型ベッド, おむつ交換台",#00cc00,139.6527557,35.64682497
世田谷区役所_西棟 (西棟),東京都 世田谷区世田谷四丁目22番33号,2F,バリアフリートイレ,"設備: 車椅子対応, オストメイト対応, おむつ交換台",#00cc00,139.6527557,35.64682497
世田谷区役所_西棟 (西棟),東京都 世田谷区世田谷四丁目22番33号,3F,バリアフリートイレ,"設備: 車椅子対応, おむつ交換台",#00cc00,139.6527557,35.64682497
世田谷区役所_西棟 (西棟),東京都 世田谷区世田谷四丁目22番33号,4F,バリアフリートイレ,設備: 車椅子対応,#00cc00,139.6527557,35.64682497
世田谷区役所_西棟 (西棟),東京都 世田谷区世田谷四丁目22番33号,5F,バリアフリートイレ,"5F立ち入り制限あるため一般利用はできない | 設備: 車椅子対応, オストメイト対応",#00cc00,139.6527557,35.64682497
世田谷区役所分庁舎（ノバビル）,東京都 世田谷区世田谷四丁目22番11号,1F,１階多目的トイレ,設備: 車椅子対応,#00cc00,139.652045,35.646777
世田谷区役所城山分庁舎,東京都 世田谷区世田谷四丁目24番1号,1F,１階多目的トイレ,"設備: 車椅子対応, おむつ交換台",#00cc00,139.65102,35.648032
世田谷区役所城山分庁舎,東京都 世田谷区世田谷四丁目24番1号,2F,２階多目的トイレ,"設備: 車椅子対応, おむつ交換台",#00cc00,139.65102,35.648032
世田谷区役所城山分庁舎,東京都 世田谷区世田谷四丁目24番1号,3F,３階多目的トイレ,"設備: 車椅子対応, おむつ交換台",#00cc00,139.65102,35.648032
世田谷区役所三軒茶屋分庁舎,東京都 世田谷区太子堂二丁目16番7号,1F,１階多目的トイレ,"設備: 車椅子対応, オストメイト対応, おむつ交換台",#00cc00,139.671385,35.644485
世田谷区役所三軒茶屋分庁舎,東京都 世田谷区太子堂二丁目16番7号,2F,２階多目的トイレ,"設備: 車椅子対応, おむつ交換台",#00cc00,139.671127,35.644473
世田谷区役所三軒茶屋分庁舎,東京都 世田谷区太子堂二丁目16番7号,3F,３階多目的トイレ,"設備: 車椅子対応, おむつ交換台",#00cc00,139.671127,35.644473
世田谷区役所三軒茶屋分庁舎,東京都 世田谷区太子堂二丁目16番7号,4F,４階多目的トイレ,"設備: 車椅子対応, おむつ交換台",#00cc00,139.671127,35.644473
世田谷区役所三軒茶屋分庁舎,東京都 世田谷区太子堂二丁目16番7号,5F,５階多目的トイレ,"設備: 車椅子対応, おむつ交換台",#00cc00,139.671127,35.644473
池尻まちづくりセンター (池尻まちづくりセンター),東京都 世田谷区池尻三丁目27番21号,1F,１階　だれでもトイレ,"設備: 車椅子対応, オストメイト対応, おむつ交換台",#00cc00,139.678708,35.649843
祖師谷まちづくりセンター (祖師谷まちづくりセンター),東京都 世田谷区祖師谷四丁目1番23号,1F,１階東側だれでもトイレ（男性用）,"複合施設：祖師谷まちづくりセンター・祖師谷区民集会所 | 設備: 車椅子対応, オストメイト対応",#00cc00,139.60835,35.64698
祖師谷まちづくりセンター (祖師谷まちづくりセンター),東京都 世田谷区祖師谷四丁目1番23号,1F,１階東側だれでもトイレ（女性用）,"複合施設：祖師谷まちづくりセンター・祖師谷区民集会所 | 設備: 車椅子対応, オストメイト対応, おむつ交換台",#00cc00,139.60835,35.64698
祖師谷まちづくりセンター (祖師谷まちづくりセンター),東京都 世田谷区祖師谷四丁目1番23号,2F,２階西側（女性）だれでもトイレ,"複合施設：祖師谷まちづくりセンター・祖師谷区民集会所 | 設備: 車椅子対応, おむつ交換台",#00cc00,139.608074,35.646963
祖師谷まちづくりセンター (祖師谷まちづくりセンター),東京都 世田谷区祖師谷四丁目1番23号,2F,２階西側（男性）だれでもトイレ,複合施設：祖師谷まちづくりセンター・祖師谷区民集会所 | 設備: 車椅子対応,#00cc00,139.608272,35.646968
祖師谷まちづくりセンター (祖師谷まちづくりセンター),東京都 世田谷区祖師谷四丁目1番23号,B1F,地下１階東側だれでもトイレ,複合施設：祖師谷まちづくりセンター・祖師谷区民集会所 | 設備: 車椅子対応,#00cc00,139.608272,35.646968
下馬まちづくりセンター (下馬複合施設),東京都 世田谷区下馬四丁目13番4号,1F,１階東側だれでもトイレ,"設備: 車椅子対応, オストメイト対応, おむつ交換台",#00cc00,139.679152,35.635897
上町まちづくりセンター (上町まちづくりセンター),東京都 世田谷区世田谷一丁目23番5号,2F,2階多機能トイレ,"設備: 車椅子対応, オストメイト対応",#00cc00,139.648152,35.641709
用賀まちづくりセンター,東京都 世田谷区用賀二丁目29番22号,1F,1階だれでもトイレ,"設備: 車椅子対応, オストメイト対応, おむつ交換台",#00cc00,139.636647,35.625681
用賀まちづくりセンター,東京都 世田谷区用賀二丁目29番22号,2F,2階だれでもトイレ,"設備: 車椅子対応, オストメイト対応, おむつ交換台",#00cc00,139.636647,35.625681
用賀まちづくりセンター,東京都 世田谷区用賀二丁目29番22号,3F,3階だれでもトイレ,"設備: 車椅子対応, オストメイト対応, おむつ交換台",#00cc00,139.636647,35.625681
経堂出張所,東京都 世田谷区宮坂一丁目44番29号,1F,プレハブ棟多機能トイレ,"設備: 車椅子対応, オストメイト対応, おむつ交換台",#00cc00,139.641537,35.650667
上馬まちづくりセンター (上馬複合施設),東京都 世田谷区上馬四丁目10番17号,1F,１階多機能トイレ,"設備: 車椅子対応, オストメイト対応, おむつ交換台",#00cc00,139.662558,35.635032
深沢まちづくりセンター,東京都 世田谷区駒沢四丁目33番12号,1F,1階だれでもトイレ,"設備: 車椅子対応, オストメイト対応",#00cc00,139.652567,35.627872
新代田まちづくりセンター (新代田まちづくりセンター),東京都 世田谷区羽根木一丁目6番14号,2F,だれでもトイレ,"年末年始（１２月２９日から１月３日）は利用不可。 | 設備: 車椅子対応, オストメイト対応, おむつ交換台",#00cc00,139.660417,35.664614
上北沢まちづくりセンター,東京都 世田谷区上北沢四丁目32番9号,1F,１階だれでもトイレ,"設備: 車椅子対応, オストメイト対応, おむつ交換台",#00cc00,139.617884,35.669941
喜多見まちづくりセンター (喜多見複合施設),東京都 世田谷区喜多見五丁目11番10号,1F,１階だれでもトイレ,"複合施設:喜多見まちづくりセンター、喜多見東地区会館、喜多見図書室 | 設備: 車椅子対応, オストメイト対応, おむつ交換台",#00cc00,139.601372,35.629
喜多見まちづくりセンター (喜多見複合施設),東京都 世田谷区喜多見五丁目11番10号,2F,２階だれでもトイレ,"複合施設:喜多見まちづくりセンター、喜多見東地区会館、喜多見図書室 | 設備: 車椅子対応, おむつ交換台",#00cc00,139.601372,35.629
喜多見まちづくりセンター (喜多見複合施設),東京都 世田谷区喜多見五丁目11番10号,3F,３階だれでもトイレ,"複合施設:喜多見まちづくりセンター、喜多見東地区会館、喜多見図書室 | 設備: 車椅子対応, おむつ交換台",#00cc00,139.601336,35.629055
砧まちづくりセンター,東京都 世田谷区砧五丁目8番18号,1F,活動フロアトイレ,"設備: 車椅子対応, オストメイト対応, おむつ交換台",#00cc00,139.609946,35.637815
砧まちづくりセンター,東京都 世田谷区砧五丁目8番18号,1F,事務所棟１階トイレ,設備: 車椅子対応,#00cc00,139.610036,35.637747
上祖師谷まちづくりセンター,東京都 世田谷区上祖師谷二丁目7番6号,1F,１階北側多目的トイレ,"設備: 車椅子対応, オストメイト対応, おむつ交換台",#00cc00,139.599723,35.657119
太子堂出張所 (太子堂複合施設),東京都 世田谷区太子堂二丁目17番1号,1F,１階だれでもトイレ,"設備: 車椅子対応, オストメイト対応, おむつ交換台",#00cc00,139.671035,35.644771
太子堂出張所 (太子堂複合施設),東京都 世田谷区太子堂二丁目17番1号,2F,２階だれでもトイレ,"設備: 車椅子対応, おむつ交換台",#00cc00,139.671035,35.644771
太子堂出張所 (太子堂複合施設),東京都 世田谷区太子堂二丁目17番1号,3F,３階だれでもトイレ,設備: 車椅子対応,#00cc00,139.671035,35.644771
船橋まちづくりセンター,東京都 世田谷区船橋四丁目3番2号,1F,１階多機能トイレ,"設備: 車椅子対応, オストメイト対応",#00cc00,139.622515,35.655359
上野毛まちづくりセンター,東京都 世田谷区中町二丁目33番11号,1F,1階ゆったりトイレ（女性用）,"設備: 車椅子対応, オストメイト対応, おむつ交換台",#00cc00,139.640883,35.611459
上野毛まちづくりセンター,東京都 世田谷区中町二丁目33番11号,1F,1階ゆったりトイレ（男性用）,"設備: 車椅子対応, オストメイト対応",#00cc00,139.640888,35.61147
上野毛まちづくりセンター,東京都 世田谷区中町二丁目33番11号,2F,2階ゆったりトイレ（男性用）,設備: 車椅子対応,#00cc00,139.640888,35.61147
上野毛まちづくりセンター,東京都 世田谷区中町二丁目33番11号,2F,2階ゆったりトイレ（女性用）,設備: 車椅子対応,#00cc00,139.640888,35.61147
上野毛まちづくりセンター,東京都 世田谷区中町二丁目33番11号,B1F,B1階ゆったりトイレ（女性用）,設備: 車椅子対応,#00cc00,139.640888,35.61147
上野毛まちづくりセンター,東京都 世田谷区中町二丁目33番11号,B1F,B1階ゆったりトイレ（男性用）,設備: 車椅子対応,#00cc00,139.640888,35.61147
上野毛まちづくりセンター,東京都 世田谷区中町二丁目33番11号,B1外,1階外ゆったりトイレ（男女共有）,設備: 車椅子対応,#00cc00,139.640888,35.61147
松沢まちづくりセンター,東京都 世田谷区赤堤五丁目31番5号,1F,1階多機能トイレ1,"設備: 車椅子対応, オストメイト対応, おむつ交換台",#00cc00,139.638294,35.66548
松沢まちづくりセンター,東京都 世田谷区赤堤五丁目31番5号,1F,1階多機能トイレ2,"設備: 車椅子対応, オストメイト対応",#00cc00,139.638294,35.66548
松沢まちづくりセンター,東京都 世田谷区赤堤五丁目31番5号,2F,2階多機能トイレ1,設備: 車椅子対応,#00cc00,139.638294,35.66548
松沢まちづくりセンター,東京都 世田谷区赤堤五丁目31番5号,2F,2階多機能トイレ2,設備: 車椅子対応,#00cc00,139.638294,35.66548
松沢まちづくりセンター,東京都 世田谷区赤堤五丁目31番5号,3F,3階多機能トイレ1,設備: 車椅子対応,#00cc00,139.638294,35.66548
松沢まちづくりセンター,東京都 世田谷区赤堤五丁目31番5号,3F,3階多機能トイレ2,設備: 車椅子対応,#00cc00,139.638294,35.66548
松沢まちづくりセンター,東京都 世田谷区赤堤五丁目31番5号,4F,4階多機能トイレ1,設備: 車椅子対応,#00cc00,139.638294,35.66548
松沢まちづくりセンター,東京都 世田谷区赤堤五丁目31番5号,4F,4階多機能トイレ2,設備: 車椅子対応,#00cc00,139.638294,35.66548
スカイキャロット展望ロビー,東京都 世田谷区太子堂四丁目1番1号,26F,スカイキャロット26階多機能トイレ1,設備: 車椅子対応,#00cc00,139.669508,35.643845
スカイキャロット展望ロビー,東京都 世田谷区太子堂四丁目1番1号,26F,スカイキャロット26階多機能トイレ2,設備: 車椅子対応,#00cc00,139.669508,35.643845
烏山総合支所,東京都 世田谷区南烏山六丁目22番14号,1F,１階だれでもトイレ,"設備: 車椅子対応, オストメイト対応, おむつ交換台",#00cc00,139.59809,35.66989
烏山総合支所,東京都 世田谷区南烏山六丁目22番14号,2F,２階だれでもトイレ,"設備: 車椅子対応, おむつ交換台",#00cc00,139.59809,35.66989
烏山総合支所,東京都 世田谷区南烏山六丁目22番14号,3F,３階だれでもトイレ,"設備: 車椅子対応, オストメイト対応",#00cc00,139.59809,35.66989
烏山総合支所,東京都 世田谷区南烏山六丁目22番14号,4F,４階だれでもトイレ,"設備: 車椅子対応, おむつ交換台",#00cc00,139.59809,35.66989
二子玉川出張所,東京都 世田谷区玉川四丁目4番5号,1F,多機能トイレ,"設備: 車椅子対応, オストメイト対応, おむつ交換台",#00cc00,139.626713,35.615463
奥沢まちづくりセンター,東京都 世田谷区奥沢三丁目15番7号,1F,多機能トイレ,"設備: 車椅子対応, オストメイト対応, おむつ交換台",#00cc00,139.672949,35.60077
九品仏まちづくりセンター,東京都 世田谷区奥沢七丁目35番4号,1F,多機能トイレ,"設備: 車椅子対応, オストメイト対応, おむつ交換台",#00cc00,139.661798,35.606898
成城まちづくりセンター (成城6丁目事務所棟),東京都 世田谷区成城六丁目3番10号,1F,１階多機能トイレ,"設備: 車椅子対応, オストメイト対応, おむつ交換台",#00cc00,139.600454,35.640837
若林まちづくりセンター (若林複合施設),東京都 世田谷区若林一丁目34番2号,1F,１階多機能トイレ,"設備: 車椅子対応, オストメイト対応, おむつ交換台",#00cc00,139.663627,35.646171
二子玉川分庁舎,東京都 世田谷区玉川１−２０−１,1F,バリアフリートイレ,"設備: 車椅子対応, オストメイト対応",#00cc00,139.633934,35.60935
代沢まちづくりセンター,東京都 世田谷区代沢５−１−１５,地下1階,多機能トイレ,"設備: 車椅子対応, おむつ交換台",#00cc00,139.66787,35.655053
北沢総合支所 (北沢タウンホール),東京都 世田谷区北沢２−８−１８,地下1階,多機能トイレ,"年末年始を除く | 設備: 車椅子対応, オストメイト対応",#00cc00,139.66975,35.66216
北沢総合支所 (北沢タウンホール),東京都 世田谷区北沢２−８−１８,地下1階,多機能トイレ,"年末年始を除く | 設備: 車椅子対応, オストメイト対応",#00cc00,139.66975,35.66216
北沢総合支所 (北沢タウンホール),東京都 世田谷区北沢２−８−１８,1階,多機能トイレ,年末年始を除く | 設備: 車椅子対応,#00cc00,139.66975,35.66216
北沢総合支所 (北沢タウンホール),東京都 世田谷区北沢２−８−１８,2階,多機能トイレ,"年末年始を除く | 設備: 車椅子対応, おむつ交換台",#00cc00,139.66975,35.66216
北沢総合支所 (北沢タウンホール),東京都 世田谷区北沢２−８−１８,5階,多機能トイレ,"年末年始を除く | 設備: 車椅子対応, おむつ交換台",#00cc00,139.66975,35.66216
北沢総合支所 (北沢タウンホール),東京都 世田谷区北沢２−８−１８,6階,多機能トイレ,"年末年始を除く | 設備: 車椅子対応, おむつ交換台",#00cc00,139.66975,35.66216
北沢総合支所 (北沢タウンホール),東京都 世田谷区北沢２−８−１８,7階,多機能トイレ,"年末年始を除く | 設備: 車椅子対応, おむつ交換台",#00cc00,139.66975,35.66216
北沢総合支所 (北沢タウンホール),東京都 世田谷区北沢２−８−１８,9階,多機能トイレ,"年末年始を除く | 設備: 車椅子対応, おむつ交換台",#00cc00,139.66975,35.66216
北沢総合支所 (北沢タウンホール),東京都 世田谷区北沢２−８−１８,10F,多機能トイレ,"年末年始を除く | 設備: 車椅子対応, オストメイト対応, おむつ交換台",#00cc00,139.66975,35.66216
玉川総合支所,東京都 世田谷区等々力3-4-1,1階,だれでもトイレ,"年末年始を除く | 設備: 車椅子対応, オストメイト対応, 大型ベッド",#00cc00,139.648472,35.608578
玉川総合支所,東京都 世田谷区等々力3-4-1,2階,だれでもトイレ,"年末年始を除く | 設備: 車椅子対応, オストメイト対応",#00cc00,139.64847,35.608578
梅丘分庁舎,東京都 世田谷区松原６−３−５,1F,多目的トイレ,設備: 車椅子対応,#00cc00,139.653729,35.657095
梅丘分庁舎,東京都 世田谷区松原６−３−５,2F,多目的トイレ,"設備: 車椅子対応, オストメイト対応",#00cc00,139.653898,35.657012
梅丘分庁舎,東京都 世田谷区松原６−３−５,3F,多目的トイレ,"設備: 車椅子対応, おむつ交換台",#00cc00,139.653891,35.657012
松原まちづくりセンター,東京都 世田谷区松原５−４３−２８,1F,誰でもトイレ,"設備: 車椅子対応, オストメイト対応, おむつ交換台",#00cc00,139.651223,35.664647
鎌田区民センター,東京都 世田谷区鎌田三丁目35番1号,1F,１階女子だれでもトイレ,"設備: 車椅子対応, オストメイト対応, おむつ交換台",#00cc00,139.613589,35.622432
鎌田区民センター,東京都 世田谷区鎌田三丁目35番1号,1F,１階男子だれでもトイレ,"設備: 車椅子対応, オストメイト対応, おむつ交換台",#00cc00,139.613679,35.622436
鎌田区民センター,東京都 世田谷区鎌田三丁目35番1号,2F,２階女子だれでもトイレ,"設備: 車椅子対応, オストメイト対応, おむつ交換台",#00cc00,139.613589,35.622432
鎌田区民センター,東京都 世田谷区鎌田三丁目35番1号,2F,２階男子だれでもトイレ,"設備: 車椅子対応, オストメイト対応, おむつ交換台",#00cc00,139.613679,35.622436
鎌田区民センター,東京都 世田谷区鎌田三丁目35番1号,3F,３階女子だれでもトイレ,"設備: 車椅子対応, オストメイト対応, おむつ交換台",#00cc00,139.613589,35.622432
鎌田区民センター,東京都 世田谷区鎌田三丁目35番1号,3F,３階男子だれでもトイレ,"設備: 車椅子対応, オストメイト対応, おむつ交換台",#00cc00,139.613679,35.622436
鎌田区民センター,東京都 世田谷区鎌田三丁目35番1号,B1F,地階女子だれでもトイレ,"設備: 車椅子対応, オストメイト対応, おむつ交換台",#00cc00,139.613679,35.622436
鎌田区民センター,東京都 世田谷区鎌田三丁目35番1号,B1F,地階男子だれでもトイレ,"設備: 車椅子対応, オストメイト対応, おむつ交換台",#00cc00,139.613714,35.622345
桜丘区民センター (桜丘区民センター本館),東京都 世田谷区桜丘五丁目14番1号,2F,2階誰でもトイレ,"設備: 車椅子対応, オストメイト対応, おむつ交換台",#00cc00,139.622099,35.644864
桜丘区民センター (別館),東京都 世田谷区桜丘2丁目22番1号,1F,多目的トイレ,"設備: 車椅子対応, オストメイト対応, おむつ交換台",#00cc00,139.623479,35.645903
粕谷区民センター,東京都 世田谷区粕谷四丁目13番6号,1F,1階女性側多機能トイレ,"設備: 車椅子対応, おむつ交換台",#00cc00,139.605172,35.663002
粕谷区民センター,東京都 世田谷区粕谷四丁目13番6号,1F,１階男性側多機能トイレ,"設備: 車椅子対応, おむつ交換台",#00cc00,139.605091,35.663012
粕谷区民センター,東京都 世田谷区粕谷四丁目13番6号,2F,2階女性側多機能トイレ,"設備: 車椅子対応, おむつ交換台",#00cc00,139.605255,35.663107
粕谷区民センター,東京都 世田谷区粕谷四丁目13番6号,2F,2階男性側多機能トイレ,"設備: 車椅子対応, おむつ交換台",#00cc00,139.605234,35.663078
弦巻区民センター,東京都 世田谷区弦巻一丁目26番11号,1F,1階誰でもトイレ,"設備: 車椅子対応, オストメイト対応, おむつ交換台",#00cc00,139.651822,35.636977
弦巻区民センター,東京都 世田谷区弦巻一丁目26番11号,2F,2階誰でもトイレ,"設備: 車椅子対応, オストメイト対応",#00cc00,139.651822,35.636977
弦巻区民センター,東京都 世田谷区弦巻一丁目26番11号,3F,3階誰でもトイレ,設備: 車椅子対応,#00cc00,139.651822,35.636977
弦巻区民センター,東京都 世田谷区弦巻一丁目26番11号,B1F,地下1階誰でもトイレ,設備: 車椅子対応,#00cc00,139.651822,35.636977
上北沢区民センター,東京都 世田谷区上北沢三丁目8番9号,1F,1階共用多機能トイレ,"設備: 車椅子対応, オストメイト対応, おむつ交換台",#00cc00,139.625583,35.667475
代田区民センター,東京都 世田谷区代田六丁目34番13号,1F,1階だれでもトイレ,"設備: 車椅子対応, オストメイト対応, 大型ベッド, おむつ交換台",#00cc00,139.660695,35.662749
代田区民センター,東京都 世田谷区代田六丁目34番13号,2F,2階だれでもトイレ,"設備: 車椅子対応, おむつ交換台",#00cc00,139.660687,35.662765
代田区民センター,東京都 世田谷区代田六丁目34番13号,3F,3階だれでもトイレ,"設備: 車椅子対応, オストメイト対応, 大型ベッド, おむつ交換台",#00cc00,139.660742,35.662783
代田区民センター,東京都 世田谷区代田六丁目34番13号,4F,4階だれでもトイレ,"設備: 車椅子対応, おむつ交換台",#00cc00,139.660742,35.662783
代田区民センター,東京都 世田谷区代田六丁目34番13号,B2F,地下2階だれでもトイレ,"設備: 車椅子対応, おむつ交換台",#00cc00,139.66062,35.6629
烏山区民センター,東京都 世田谷区南烏山六丁目2番19号,1F,1階女性トイレ側多機能トイレ,"設備: 車椅子対応, オストメイト対応, おむつ交換台",#00cc00,139.600571,35.668981
烏山区民センター,東京都 世田谷区南烏山六丁目2番19号,1F,1階男性トイレ側多機能トイレ,"設備: 車椅子対応, オストメイト対応, 大型ベッド",#00cc00,139.600585,35.668959
烏山区民センター,東京都 世田谷区南烏山六丁目2番19号,3F,3階多機能トイレ,設備: 車椅子対応,#00cc00,139.600672,35.668821
烏山区民センター,東京都 世田谷区南烏山六丁目2番19号,B1F,地下多機能トイレ,設備: 車椅子対応,#00cc00,139.600672,35.668821
宮坂区民センター,東京都 世田谷区宮坂一丁目24番6号,1F,１階多目的トイレ,"設備: 車椅子対応, おむつ交換台",#00cc00,139.644802,35.647845
宮坂区民センター,東京都 世田谷区宮坂一丁目24番6号,2F,２階多目的トイレ,"設備: 車椅子対応, おむつ交換台",#00cc00,139.644727,35.647829
宮坂区民センター,東京都 世田谷区宮坂一丁目24番6号,B1F,地下１階多目的トイレ,"設備: 車椅子対応, オストメイト対応",#00cc00,139.644776,35.647815
世田谷区太子堂区民センター,東京都 世田谷区太子堂一丁目14番20号,1F,１階多機能トイレ,"設備: 車椅子対応, オストメイト対応, おむつ交換台",#00cc00,139.673648,35.642893
玉川台区民センター (玉川台区民センター),東京都 世田谷区玉川台一丁目6番15号,1F,だれでもトイレ,"設備: 車椅子対応, オストメイト対応, おむつ交換台",#00cc00,139.633046,35.622935
みどり会館,東京都 世田谷区北烏山五丁目1番5号,1F,1階女性用多機能トイレ,"設備: 車椅子対応, オストメイト対応, おむつ交換台",#00cc00,139.596923,35.676397
みどり会館,東京都 世田谷区北烏山五丁目1番5号,1F,1階男性用多機能トイレ,"設備: 車椅子対応, オストメイト対応, おむつ交換台",#00cc00,139.596984,35.676392
みどり会館,東京都 世田谷区北烏山五丁目1番5号,2F,2階女性用多機能トイレ,"設備: 車椅子対応, おむつ交換台",#00cc00,139.597035,35.676379
みどり会館,東京都 世田谷区北烏山五丁目1番5号,2F,2階男性用多機能トイレ,"設備: 車椅子対応, おむつ交換台",#00cc00,139.596969,35.676371
寺町通り区民集会所,東京都 世田谷区北烏山五丁目1番4号,1F,ゆったりトイレ（女性用）,"設備: 車椅子対応, オストメイト対応, おむつ交換台",#00cc00,139.597429,35.676683
寺町通り区民集会所,東京都 世田谷区北烏山五丁目1番4号,1F,ゆったりトイレ（男性用）,"設備: 車椅子対応, オストメイト対応, おむつ交換台",#00cc00,139.597457,35.676693
砧総合支所,東京都 世田谷区成城六丁目2番1号,1F,１階西側だれでもトイレ,"複合施設：砧総合支所・砧区民会館（成城ホール）・砧総合支所区民集会所 | 設備: 車椅子対応, オストメイト対応, おむつ交換台",#00cc00,139.600547,35.641299
砧総合支所,東京都 世田谷区成城六丁目2番1号,1F,１階東側だれでもトイレ,"複合施設：砧総合支所・砧区民会館（成城ホール）・砧総合支所区民集会所 | 設備: 車椅子対応, オストメイト対応, おむつ交換台",#00cc00,139.60092,35.641331
砧総合支所,東京都 世田谷区成城六丁目2番1号,2F,２階東側だれでもトイレ,"複合施設：砧総合支所・砧区民会館（成城ホール）・砧総合支所区民集会所 | 設備: 車椅子対応, おむつ交換台",#00cc00,139.600922,35.641308
砧総合支所,東京都 世田谷区成城六丁目2番1号,3F,３階西側だれでもトイレ,"複合施設：砧総合支所・砧区民会館（成城ホール）・砧総合支所区民集会所 | 設備: 車椅子対応, おむつ交換台",#00cc00,139.600547,35.641299
砧総合支所,東京都 世田谷区成城六丁目2番1号,4F,４階西側だれでもトイレ,"複合施設：砧総合支所・砧区民会館（成城ホール）・砧総合支所区民集会所 | 設備: 車椅子対応, おむつ交換台",#00cc00,139.600547,35.641299
上祖師谷１丁目区民集会所 (区営上祖師谷一丁目第２アパート),東京都 世田谷区上祖師谷一丁目24番2号,1F,身障者便所,"設備: 車椅子対応, オストメイト対応",#00cc00,139.598979,35.663573
北沢南区民集会所,東京都 世田谷区北沢三丁目25番8号,1F,1階障害者用トイレ,"設備: 車椅子対応, オストメイト対応",#00cc00,139.669153,35.664298
八幡山区民集会所 (区営八幡山三丁目第２アパート),東京都 世田谷区八幡山三丁目32番26号,1F,身障者用便所,"設備: 車椅子対応, オストメイト対応, おむつ交換台",#00cc00,139.616843,35.668329
山野区民集会所 (都営砧一丁目アパート１階),東京都 世田谷区砧一丁目11番3号,1F,1階車椅子使用者対応トイレ,"設備: 車椅子対応, オストメイト対応",#00cc00,139.615412,35.637476
六所橋区民集会所,東京都 世田谷区赤堤二丁目10番13号,1F,１階　多機能トイレ,"設備: 車椅子対応, オストメイト対応, おむつ交換台",#00cc00,139.64331,35.657735
桜新町区民集会所 (桜新町区民集会所),東京都 世田谷区桜新町一丁目30番14号,1F,だれでもトイレ,"設備: 車椅子対応, オストメイト対応, おむつ交換台",#00cc00,139.644,35.628333
下馬区民集会所,東京都 世田谷区下馬三丁目14番9号,3F,だれでもトイレ,"設備: 車椅子対応, オストメイト対応, おむつ交換台",#00cc00,139.675389,35.635945
尾山台地区会館 (尾山台地区会館),東京都 世田谷区等々力二丁目17番14号,1F,だれでもトイレ,"設備: 車椅子対応, オストメイト対応, おむつ交換台",#00cc00,139.652372,35.60576
用賀地区会館 (用賀地区会館),東京都 世田谷区用賀四丁目38番16号,1F,だれでもトイレ,"設備: 車椅子対応, オストメイト対応",#00cc00,139.629645,35.629906
下馬南地区会館,東京都 世田谷区下馬六丁目41番6号,1F,多目的トイレ,"設備: 車椅子対応, オストメイト対応",#00cc00,139.67904,35.632275
野沢地区会館 (野沢地区会館),東京都 世田谷区野沢一丁目8番14号,1F,多目的トイレ,"設備: 車椅子対応, オストメイト対応",#00cc00,139.671077,35.634699
深沢地区会館 (深沢地区会館),東京都 世田谷区深沢一丁目14番22号,1F,だれでもトイレ,"設備: 車椅子対応, オストメイト対応, おむつ交換台",#00cc00,139.660965,35.617639
梅丘まちづくりセンター (梅丘複合施設),東京都 世田谷区梅丘一丁目61番16号,1F,１階　多機能トイレ,"設備: 車椅子対応, オストメイト対応, おむつ交換台",#00cc00,139.652285,35.653342
梅丘まちづくりセンター (梅丘複合施設),東京都 世田谷区梅丘一丁目61番16号,2F,２階　多機能トイレ,設備: 車椅子対応,#00cc00,139.652285,35.653342
松原地区会館,東京都 世田谷区松原五丁目17番6号,1F,１階　多機能トイレ,"設備: 車椅子対応, オストメイト対応, おむつ交換台",#00cc00,139.648095,35.661366
上北沢地区会館,東京都 世田谷区上北沢二丁目1番3号,1F,多目的便所,"設備: 車椅子対応, オストメイト対応, おむつ交換台",#00cc00,139.622439,35.663239
給田地区会館,東京都 世田谷区給田三丁目14番7号,1F,身障者用便所,"設備: 車椅子対応, オストメイト対応",#00cc00,139.590703,35.664917
船橋地区会館,東京都 世田谷区船橋三丁目11番8号,1F,１階車椅子使用者対応トイレ,"設備: 車椅子対応, オストメイト対応",#00cc00,139.623421,35.652471
代沢東地区会館,東京都 世田谷区代沢一丁目31番8号,1F,１階　多機能トイレ,"設備: 車椅子対応, オストメイト対応, おむつ交換台",#00cc00,139.675943,35.657926
岡本地区会館,東京都 世田谷区岡本一丁目25番4号,1F,１階女子車椅子使用者対応トイレ,"設備: 車椅子対応, オストメイト対応",#00cc00,139.619482,35.625102
岡本地区会館,東京都 世田谷区岡本一丁目25番4号,1F,１階男子車椅子使用者対応トイレ,"設備: 車椅子対応, オストメイト対応",#00cc00,139.619429,35.625103
北沢地区会館,東京都 世田谷区北沢三丁目3番10号,1F,1階だれでもトイレ,"設備: 車椅子対応, オストメイト対応",#00cc00,139.672548,35.666367
代田地区会館,東京都 世田谷区代田四丁目14番3号,1F,1階　多機能トイレ,"設備: 車椅子対応, オストメイト対応, おむつ交換台",#00cc00,139.657757,35.662459
大蔵地区会館,東京都 世田谷区砧三丁目5番6号,1F,１階車椅子使用者対応トイレ,"設備: 車椅子対応, オストメイト対応",#00cc00,139.610847,35.634931
祖師谷地区会館,東京都 世田谷区祖師谷三丁目30番30号,1F,１階男子車椅子使用者対応トイレ,"設備: 車椅子対応, オストメイト対応",#00cc00,139.60763,35.643517
代沢地区会館,東京都 世田谷区代沢五丁目8番19号,1F,１階　多機能トイレ,"設備: 車椅子対応, オストメイト対応, おむつ交換台",#00cc00,139.668074,35.657496
宇奈根地区会館,東京都 世田谷区宇奈根二丁目23番20号,1F,１階車椅子使用者対応トイレ,"設備: 車椅子対応, オストメイト対応",#00cc00,139.602655,35.623397
二子玉川地区会館別館 (二子玉川地区会館別館),東京都 世田谷区玉川三丁目27番1号,1F,多目的トイレ,"設備: 車椅子対応, オストメイト対応, おむつ交換台",#00cc00,139.624354,35.61435
砧地区会館,東京都 世田谷区砧八丁目2番21号,1F,１階車椅子使用者対応トイレ,"設備: 車椅子対応, オストメイト対応, おむつ交換台",#00cc00,139.607236,35.639047
玉堤地区会館 (玉堤地区会館),東京都 世田谷区玉堤一丁目12番18号,1F,だれでもトイレ,"設備: 車椅子対応, オストメイト対応, おむつ交換台",#00cc00,139.652443,35.595685
千歳台地区会館,東京都 世田谷区千歳台三丁目31番9号,1F,1階女子車椅子使用者対応トイレ,"設備: 車椅子対応, オストメイト対応, おむつ交換台",#00cc00,139.611738,35.653691
千歳台地区会館,東京都 世田谷区千歳台三丁目31番9号,1F,１階男子車椅子使用者対応トイレ,"設備: 車椅子対応, オストメイト対応, おむつ交換台",#00cc00,139.611717,35.653704
上祖師谷地区会館,東京都 世田谷区上祖師谷四丁目5番6号,1F,多機能トイレ,"令和７年５月末まで中長期工事中で使用不可。トイレ設備更新予定。 | 設備: 車椅子対応, オストメイト対応",#00cc00,139.596671,35.653599
深沢区民センター (深沢区民センター),東京都 世田谷区深沢4-33-11,1F,だれでもトイレ,"設備: 車椅子対応, おむつ交換台",#00cc00,139.653825,35.620165
深沢区民センター (深沢図書館),東京都 世田谷区深沢4-33-11,B1F,だれでもトイレ,"設備: 車椅子対応, おむつ交換台",#00cc00,139.653825,35.620165
東玉川地区会館,東京都 世田谷区東玉川1-19-14,1F,だれでもトイレ,設備: 車椅子対応,#00cc00,139.678794,35.597147
東玉川地区会館,東京都 世田谷区東玉川1-19-15,1F,だれでもトイレ,"設備: 車椅子対応, オストメイト対応",#00cc00,139.678794,35.597147
奥沢東地区会館,東京都 世田谷区奥沢2-9-28,1F,だれでもトイレ,"設備: 車椅子対応, オストメイト対応, おむつ交換台",#00cc00,139.672553,35.604506
九品仏地区会館,東京都 世田谷区奥沢7-34-3,1F,だれでもトイレ,"設備: 車椅子対応, オストメイト対応, おむつ交換台",#00cc00,139.661804,35.606217
瀬田地区会館,東京都 世田谷区瀬田4-18-11,1F,だれでもトイレ,個室外にベビーシートあり | 設備: オストメイト対応,#00cc00,139.627294,35.621424
瀬田地区会館,東京都 世田谷区瀬田4-18-11,1F,だれでもトイレ,設備: オストメイト対応,#00cc00,139.627304,35.621447
新町地区会館,東京都 世田谷区新町2-21-10,1F,だれでもトイレ,"設備: 車椅子対応, オストメイト対応, おむつ交換台",#00cc00,139.648195,35.629721
駒沢地区会館,東京都 世田谷区駒沢3-13-5,B1F,だれでもトイレ,設備: 車椅子対応,#00cc00,139.654236,35.631422
駒沢地区会館,東京都 世田谷区駒沢3-13-5,1F,だれでもトイレ,"設備: 車椅子対応, オストメイト対応",#00cc00,139.654236,35.631422
等々力地区会館,東京都 世田谷区等々力3-25-16,2F,だれでもトイレ,"設備: 車椅子対応, おむつ交換台",#00cc00,139.650018,35.611358
中町区民集会所,東京都 世田谷区中町4-15-6,1F,だれでもトイレ,"設備: 車椅子対応, オストメイト対応, おむつ交換台",#00cc00,139.644834,35.617975
中町区民集会所,東京都 世田谷区中町4-15-6,2F,だれでもトイレ,"設備: 車椅子対応, おむつ交換台",#00cc00,139.644834,35.617975
玉川区民会館 (玉川区民会館「玉川せせらぎホール」),東京都 世田谷区等々力3-4-1,1F,だれでもトイレ,"設備: 車椅子対応, オストメイト対応",#00cc00,139.648472,35.608578
玉川区民会館別館 (上用賀５丁目高齢者施設),東京都 世田谷区上用賀5-14-1-102,2F,だれでもトイレ,"設備: 車椅子対応, オストメイト対応, おむつ交換台",#00cc00,139.625876,35.630037
池尻地区会館,東京都 世田谷区池尻2-3-11,2階,多機能トイレ,"設備: 車椅子対応, オストメイト対応",#00cc00,139.682424,35.646814
経堂地区会館,東京都 世田谷区経堂3-37-13,1階,多機能トイレ,"設備: 車椅子対応, オストメイト対応",#00cc00,139.632162,35.651807
中里地区会館,東京都 世田谷区上馬2-24-17,1階,多機能トイレ,"設備: 車椅子対応, オストメイト対応, おむつ交換台",#00cc00,139.666791,35.638823
弦巻区民集会所,東京都 世田谷区弦巻5-1-18,1階,多機能トイレ,"設備: 車椅子対応, おむつ交換台",#00cc00,139.637717,35.635112
野沢区民集会所 (ヴィルヌーブタワー駒沢（2階野沢区民集会所）),東京都 世田谷区野沢4-24-1,2階,多機能トイレ,設備: 車椅子対応,#00cc00,139.664797,35.635022
桜上水南地区会館,東京都 世田谷区桜上水3-4-11,1F,多機能トイレ,"設備: 車椅子対応, オストメイト対応, おむつ交換台",#00cc00,139.633422,35.659537
花見堂地区会館 (花見堂地区会館),東京都 世田谷区代田1-13-14,1F,だれでもトイレ,"設備: 車椅子対応, オストメイト対応, 大型ベッド, おむつ交換台",#00cc00,139.662562,35.651834
花見堂地区会館 (花見堂地区会館),東京都 世田谷区代田1-13-14,2F,だれでもトイレ,"設備: 車椅子対応, オストメイト対応, 大型ベッド, おむつ交換台",#00cc00,139.6630747,35.65187745
世田谷地区会館,東京都 世田谷区世田谷二丁目25番10号,1F,バリアフリートイレ,"設備: 車椅子対応, オストメイト対応, おむつ交換台",#00cc00,139.640461,35.640752
北烏山東敬老会館,東京都 世田谷区北烏山二丁目2番6号,1F,北烏山東敬老会館バリアフリートイレ,"設備: 車椅子対応, オストメイト対応, おむつ交換台",#00cc00,139.602222,35.679744
鎌田区民集会所,東京都 世田谷区鎌田二丁目1番24号,1F,車椅子使用者対応トイレ,"設備: 車椅子対応, オストメイト対応, おむつ交換台",#00cc00,139.613373,35.617021
上馬高齢者集会所,東京都 世田谷区上馬四丁目36番9号,B1F,バリアフリートイレ,"設備: 車椅子対応, オストメイト対応, おむつ交換台",#00cc00,139.659925,35.638508
土と農の交流園,東京都 世田谷区桜上水二丁目11番1号,1F,バリアフリートイレ,設備: 車椅子対応,#00cc00,139.627964,35.659149
世田谷区立経堂図書館,東京都 世田谷区宮坂三丁目1番30号,1F,多目的トイレ,"設備: 車椅子対応, オストメイト対応, おむつ交換台",#00cc00,139.63762,35.651424
世田谷区立下馬図書館,東京都 世田谷区下馬二丁目32番1号,2F,2階多目的トイレ,設備: 車椅子対応,#00cc00,139.676259,35.641495
世田谷区立下馬図書館,東京都 世田谷区下馬二丁目32番1号,1F,1階多目的トイレ,"設備: 車椅子対応, オストメイト対応, おむつ交換台",#00cc00,139.676259,35.641495
世田谷区立砧図書館,東京都 世田谷区祖師谷三丁目10番4号,1F,１階　女子　バリアフリートイレ,"設備: 車椅子対応, オストメイト対応, おむつ交換台",#00cc00,139.604231,35.642389
世田谷区立砧図書館,東京都 世田谷区祖師谷三丁目10番4号,2F,２階　男子　バリアフリートイレ,"設備: 車椅子対応, オストメイト対応, おむつ交換台",#00cc00,139.604231,35.642389
世田谷区立砧図書館,東京都 世田谷区祖師谷三丁目10番4号,B1F,地下１階　車椅子用トイレ,"設備: 車椅子対応, おむつ交換台",#00cc00,139.603958,35.642285
希望丘図書室,東京都 世田谷区船橋７−８−４,1階,バリアフリートイレ,"設備: 車椅子対応, おむつ交換台",#00cc00,139.618595,35.659204
希望丘図書室,東京都 世田谷区船橋７−８−４,1階,バリアフリートイレ,"設備: 車椅子対応, おむつ交換台",#00cc00,139.618595,35.659204
世田谷区立野毛青少年交流センター (世田谷区立野毛青少年交流センター),東京都 世田谷区野毛二丁目15番19号,1F,別館1階トイレ,設備: 車椅子対応,#00cc00,139.641608,35.603468
世田谷区立野毛青少年交流センター (世田谷区立野毛青少年交流センター),東京都 世田谷区野毛二丁目15番19号,1F,本館1階トイレ,"設備: 車椅子対応, オストメイト対応, おむつ交換台",#00cc00,139.641698,35.603228
池之上青少年交流センター,東京都 世田谷区代沢二丁目37番18号,1F,１階だれでもトイレ,"設備: 車椅子対応, オストメイト対応",#00cc00,139.673353,35.659375
池之上青少年交流センター,東京都 世田谷区代沢二丁目37番18号,2F,２階だれでもトイレ,"設備: 車椅子対応, おむつ交換台",#00cc00,139.673353,35.659375
世田谷文化生活情報センター (キャロットタワー),東京都 世田谷区太子堂四丁目1番1号,3F,3階多機能トイレ,"設備: 車椅子対応, オストメイト対応, おむつ交換台",#00cc00,139.669299,35.643814
世田谷文化生活情報センター (キャロットタワー),東京都 世田谷区太子堂四丁目1番1号,4F,4階多機能トイレ1,"設備: 車椅子対応, おむつ交換台",#00cc00,139.669299,35.643814
世田谷文化生活情報センター (キャロットタワー),東京都 世田谷区太子堂四丁目1番1号,4F,4階多機能トイレ2,"設備: 車椅子対応, おむつ交換台",#00cc00,139.669299,35.643814
健康増進・交流施設（せたがや がやがや館） (健康増進・交流施設),東京都 世田谷区池尻二丁目3番11号,3F,3階多機能トイレ,"休館日：毎月第3日曜日、12/28〜1/4 | 設備: 車椅子対応, オストメイト対応, 大型ベッド, おむつ交換台",#00cc00,139.682562,35.64653
健康増進・交流施設（せたがや がやがや館） (健康増進・交流施設),東京都 世田谷区池尻二丁目3番11号,4F,4階多機能トイレ,"休館日：毎月第3日曜日、12/28〜1/4 | 設備: 車椅子対応, オストメイト対応, 大型ベッド",#00cc00,139.682476,35.646552
世田谷文学館,東京都 世田谷区南烏山一丁目10番10号,1F,1階バリアフリートイレ,"設備: 車椅子対応, オストメイト対応, おむつ交換台",#00cc00,139.608902,35.666919
世田谷美術館分館宮本三郎記念美術館 (宮本三郎記念美術館),東京都 世田谷区奥沢五丁目38番13号,1F,1階だれでもトイレ,"設備: 車椅子対応, オストメイト対応, おむつ交換台",#00cc00,139.666445,35.604629
世田谷区立平和資料館,東京都 世田谷区池尻一丁目5番27号,1F,平和資料館多機能トイレ,"設備: 車椅子対応, オストメイト対応, おむつ交換台",#00cc00,139.680904,35.644322
世田谷美術館 (世田谷美術館),東京都 世田谷区砧公園1番地2号,1F,1階ショップ横トイレ,"入り口横におむつ交換台あり | 設備: 車椅子対応, オストメイト対応",#00cc00,139.622177,35.631741
世田谷美術館 (世田谷美術館),東京都 世田谷区砧公園1番地2号,2F,2階ライブラリー前トイレ,設備: 車椅子対応,#00cc00,139.622376,35.631306
世田谷美術館 (世田谷美術館),東京都 世田谷区砧公園1番地2号,B1F,地下1階創作室前トイレ,設備: 車椅子対応,#00cc00,139.622354,35.631394
世田谷美術館分館清川泰次記念ギャラリー (清川泰次記念ギャラリー),東京都 世田谷区成城二丁目22番17号,1F,事務所内職員兼用トイレ,設備: オストメイト対応,#00cc00,139.600806,35.638613
世田谷区教育会館,東京都 世田谷区弦巻3丁目16番8号,1階,多目的トイレ,"設備: 車椅子対応, オストメイト対応, おむつ交換台",#00cc00,139.644312,35.637695
世田谷区教育会館,東京都 世田谷区弦巻3丁目１６番8号,3階,多目的トイレ,設備: 車椅子対応,#00cc00,139.644312,35.637695
世田谷区立教育総合センター,東京都 世田谷区若林五丁目38番1号,1F,多機能トイレ,"設備: 車椅子対応, オストメイト対応, 大型ベッド, おむつ交換台",#00cc00,139.659014,35.650645
世田谷区立教育総合センター,東京都 世田谷区若林五丁目38番1号,2F,多機能トイレ,"設備: 車椅子対応, オストメイト対応",#00cc00,139.659014,35.650645
世田谷区立郷土資料館 (世田谷区立郷土資料館),東京都 世田谷区世田谷1丁目29番18号,1F,多目的トイレ,"設備: 車椅子対応, オストメイト対応, おむつ交換台",#00cc00,139.6471835,35.64119505
北沢区民会館別館（梅丘パークホール）,東京都 世田谷区松原六丁目4番1号,2F,２階　障害者用トイレ,設備: 車椅子対応,#00cc00,139.652891,35.656939
三茶しゃれなあどホール,東京都 世田谷区三軒茶屋一丁目41番10号,5F,バリアフリートイレ,"設備: 車椅子対応, オストメイト対応, おむつ交換台",#00cc00,139.6725065,35.6437636
石仏公園,東京都 世田谷区経堂三丁目6番5号,1F,石仏公園バリアフリートイレ,設備: 車椅子対応,#00cc00,139.631437,35.649887
上馬四丁目公園,東京都 世田谷区上馬四丁目35番4号,1F,上馬四丁目公園バリアフリートイレ,"設備: 車椅子対応, オストメイト対応, おむつ交換台",#00cc00,139.661168,35.639004
経堂けやき公園,東京都 世田谷区経堂三丁目22番2号,1F,経堂けやき公園バリアフリートイレ,設備: 車椅子対応,#00cc00,139.628673,35.653013
こどものひろば公園,東京都 世田谷区下馬二丁目31番4号,1F,こどものひろば公園バリアフリートイレ（野球場）,"設備: 車椅子対応, オストメイト対応, おむつ交換台",#00cc00,139.677833,35.642025
こどものひろば公園,東京都 世田谷区下馬二丁目31番4号,1F,こどものひろば公園バリアフリートイレ（東側）,"設備: 車椅子対応, オストメイト対応, おむつ交換台",#00cc00,139.6783741,35.6423054
駒留公園,東京都 世田谷区上馬五丁目34番13号,1F,駒留公園バリアフリートイレ,"設備: 車椅子対応, オストメイト対応, おむつ交換台",#00cc00,139.660704,35.640106
桜みんなの公園,東京都 世田谷区桜二丁目3番4号,1F,桜みんなの公園バリアフリートイレ,"設備: 車椅子対応, おむつ交換台",#00cc00,139.636255,35.642575
三軒茶屋公園,東京都 世田谷区三軒茶屋二丁目27番6号,1F,三軒茶屋公園バリアフリートイレ,"設備: 車椅子対応, オストメイト対応",#00cc00,139.66396,35.642252
下馬中央公園,東京都 世田谷区下馬四丁目1番1号,1F,下馬中央公園バリアフリートイレ,"設備: 車椅子対応, おむつ交換台",#00cc00,139.677282,35.633106
世田谷公園 ((いちょう）),東京都 世田谷区池尻一丁目5番27号,1F,世田谷公園(いちょう）バリアフリートイレ,"設備: 車椅子対応, オストメイト対応, おむつ交換台",#00cc00,139.681466,35.644159
世田谷公園 (（さくら）),東京都 世田谷区池尻一丁目5番27号,1F,世田谷公園（さくら）バリアフリートイレ,"設備: 車椅子対応, オストメイト対応, おむつ交換台",#00cc00,139.681829,35.642805
世田谷公園 ((野球場B面横）),東京都 世田谷区池尻一丁目5番27号,1F,世田谷公園(野球場Ｂ面横）バリアフリートイレ,"設備: 車椅子対応, オストメイト対応, おむつ交換台",#00cc00,139.68134,35.645671
世田谷公園 (（どんぐり）),東京都 世田谷区池尻一丁目5番27号,1F,世田谷公園（どんぐり）バリアフリートイレ,"※通年365日、24時間利用可能 | 設備: 車椅子対応, おむつ交換台",#00cc00,139.682578,35.64206
太子堂円泉ヶ丘公園,東京都 世田谷区太子堂三丁目30番20号,1F,太子堂円泉ヶ丘公園バリアフリートイレ（女性用）,"設備: 車椅子対応, おむつ交換台",#00cc00,139.67031,35.65002
太子堂円泉ヶ丘公園,東京都 世田谷区太子堂三丁目30番20号,1F,太子堂円泉ヶ丘公園バリアフリートイレ（男性用）,"設備: 車椅子対応, おむつ交換台",#00cc00,139.67031,35.65002
鶴ヶ久保公園,東京都 世田谷区野沢二丁目4番6号,1F,鶴ヶ久保公園バリアフリートイレ,"設備: 車椅子対応, オストメイト対応, おむつ交換台",#00cc00,139.67125,35.633481
弦巻どんぐり山公園,東京都 世田谷区弦巻三丁目14番11号,1F,弦巻どんぐり山公園バリアフリートイレ,"設備: 車椅子対応, おむつ交換台",#00cc00,139.645406,35.637291
南原公園,東京都 世田谷区野沢三丁目2番12号,1F,南原公園バリアフリートイレ,"設備: 車椅子対応, オストメイト対応, おむつ交換台",#00cc00,139.67647,35.628158
西太子堂公園,東京都 世田谷区太子堂四丁目5番13号,1F,西太子堂公園バリアフリートイレ,"設備: 車椅子対応, おむつ交換台",#00cc00,139.666513,35.644335
若林公園,東京都 世田谷区若林四丁目34番2号,1F,若林公園バリアフリートイレ,"設備: 車椅子対応, おむつ交換台",#00cc00,139.654506,35.647016
桜丘宇山緑地,東京都 世田谷区桜丘三丁目28番10号,1F,桜丘宇山緑地バリアフリートイレ,"設備: 車椅子対応, おむつ交換台",#00cc00,139.624943,35.638886
桜木ふれあい緑地,東京都 世田谷区桜一丁目27番28号,1F,桜木ふれあい緑地バリアフリートイレ,"設備: 車椅子対応, オストメイト対応, おむつ交換台",#00cc00,139.642905,35.644673
次太夫堀公園（その２）,東京都 世田谷区喜多見五丁目27番14号,1F,次大夫堀公園民家園入口バリアフリートイレ,設備: 車椅子対応,#00cc00,139.599822,35.629718
次太夫堀公園（その２）,東京都 世田谷区喜多見五丁目27番14号,1F,次大夫堀公園管理棟横バリアフリートイレ,"設備: 車椅子対応, オストメイト対応, おむつ交換台",#00cc00,139.599543,35.630804
次太夫堀公園（その２）,東京都 世田谷区喜多見五丁目7番先,1F,次大夫堀公園えのき広場バリアフリートイレ,"設備: 車椅子対応, おむつ交換台",#00cc00,139.602665,35.629605
桜丘すみれば自然庭園,東京都 世田谷区桜丘四丁目23番12号,1F,桜丘すみれば自然庭園バリアフリートイレ,"設備: 車椅子対応, おむつ交換台",#00cc00,139.619477,35.642044
三宿の森緑地,東京都 世田谷区三宿二丁目27番27号,1F,三宿の森緑地バリアフリートイレ,"設備: 車椅子対応, おむつ交換台",#00cc00,139.673255,35.650879
烏山川緑道,東京都 世田谷区船橋七丁目9番地,1F,烏山川緑道バリアフリートイレ,設備: 車椅子対応,#00cc00,139.617492,35.659263
経堂四丁目児童遊園,東京都 世田谷区経堂四丁目33番9号,1F,経堂四丁目児童遊園バリアフリートイレ,"設備: 車椅子対応, オストメイト対応, おむつ交換台",#00cc00,139.627879,35.649834
赤松公園 (赤松公園),東京都 世田谷区赤堤四丁目9番17号,1F,赤松公園バリアフリートイレ,"設備: 車椅子対応, オストメイト対応, おむつ交換台",#00cc00,139.640923,35.661601
上北沢八幡公園 (上北沢八幡公園),東京都 世田谷区桜上水三丁目21番6号,1F,上北沢八幡公園バリアフリートイレ,設備: 車椅子対応,#00cc00,139.62994,35.662698
桜上水しいの木公園 (桜上水しいの木公園),東京都 世田谷区桜上水五丁目3番45号,1F,桜上水しいの木公園バリアフリートイレ,"設備: 車椅子対応, オストメイト対応, おむつ交換台",#00cc00,139.62982,35.664262
世田谷城阯公園,東京都 世田谷区豪徳寺二丁目14番1号,1F,世田谷城阯公園バリアフリートイレ,"設備: 車椅子対応, オストメイト対応, おむつ交換台",#00cc00,139.647054,35.646175
代沢せせらぎ公園 (代沢せせらぎ公園),東京都 世田谷区代沢四丁目36番1号,1F,代沢せせらぎ公園バリアフリートイレ,"設備: 車椅子対応, おむつ交換台",#00cc00,139.671529,35.653798
羽根木公園 (（事務所)),東京都 世田谷区代田四丁目38番52号,1F,羽根木公園（事務所）バリアフリートイレ,"設備: 車椅子対応, オストメイト対応, おむつ交換台",#00cc00,139.656099,35.658866
羽根木公園 (（茶室２)),東京都 世田谷区代田四丁目38番52号,1F,羽根木公園（茶室２）バリアフリートイレ,"設備: 車椅子対応, おむつ交換台",#00cc00,139.653316,35.658127
羽根木公園 (（南)),東京都 世田谷区代田四丁目38番52号,1F,羽根木公園（南）バリアフリートイレ,"設備: 車椅子対応, オストメイト対応, おむつ交換台",#00cc00,139.65482,35.658088
羽根木公園 (（北)),東京都 世田谷区代田四丁目38番52号,1F,羽根木公園（北）バリアフリートイレ,"設備: 車椅子対応, おむつ交換台",#00cc00,139.655032,35.659994
松原公園 (松原公園),東京都 世田谷区松原五丁目35番14号,1F,松原公園バリアフリートイレ,設備: 車椅子対応,#00cc00,139.648941,35.662996
赤松ぼっくり庭園緑地 (赤松ぼっくり庭園緑地),東京都 世田谷区松原六丁目21番4号,1F,赤松ぼっくり庭園緑地バリアフリートイレ,"設備: 車椅子対応, オストメイト対応, おむつ交換台",#00cc00,139.648558,35.659256
北沢八幡児童遊園,東京都 世田谷区代沢三丁目25番3号,1F,北沢八幡児童遊園バリアフリートイレ,"設備: 車椅子対応, オストメイト対応, おむつ交換台",#00cc00,139.669722,35.655772
下代田児童遊園 (下代田児童遊園),東京都 世田谷区代沢一丁目23番9号,1F,下代田児童遊園バリアフリートイレ,設備: 車椅子対応,#00cc00,139.677269,35.655863
代田南広場 (代田南広場),東京都 世田谷区代田一丁目23番1号,1F,代田南広場バリアフリートイレ,設備: 車椅子対応,#00cc00,139.660605,35.652528
上野毛自然公園,東京都 世田谷区上野毛二丁目17番19号,1F,上野毛自然公園バリアフリートイレ,"設備: 車椅子対応, オストメイト対応, おむつ交換台",#00cc00,139.636242,35.610347
上用賀公園,東京都 世田谷区上用賀四丁目32番32号,1F,上用賀公園バリアフリートイレ,"設備: 車椅子対応, オストメイト対応, おむつ交換台",#00cc00,139.628388,35.638304
駒沢緑泉公園,東京都 世田谷区駒沢三丁目19番8号,1F,駒沢緑泉公園バリアフリートイレ（北）,設備: 車椅子対応,#00cc00,139.652892,35.632941
駒沢緑泉公園,東京都 世田谷区駒沢三丁目19番8号,1F,駒沢緑泉公園バリアフリートイレ（南）,設備: 車椅子対応,#00cc00,139.65351,35.631553
瀬田農業公園,東京都 世田谷区瀬田五丁目30番1号,1F,瀬田農業公園バリアフリートイレ（本園）,設備: 車椅子対応,#00cc00,139.624669,35.625714
瀬田農業公園,東京都 世田谷区瀬田五丁目11番,1F,瀬田農業公園バリアフリートイレ（分園）,"設備: 車椅子対応, オストメイト対応, おむつ交換台",#00cc00,139.6246917,35.62412222
玉川野毛町公園（北西）,東京都 世田谷区野毛一丁目25番1号,1F,玉川野毛町公園（北西）バリアフリートイレ,設備: 車椅子対応,#00cc00,139.643152,35.605931
等々力渓谷公園（庭園）,東京都 世田谷区野毛一丁目15番地,1F,等々力渓谷公園（庭園）バリアフリートイレ,"設備: 車椅子対応, おむつ交換台",#00cc00,139.645388,35.603507
等々力八丁目公園,東京都 世田谷区等々力八丁目18番3号,1F,等々力八丁目公園バリアフリートイレ,設備: 車椅子対応,#00cc00,139.65149,35.615162
二子玉川公園,東京都 世田谷区玉川一丁目16番1号,1F,二子玉川公園ビジターセンター下バリアフリートイレ,"設備: 車椅子対応, オストメイト対応, おむつ交換台",#00cc00,139.632909,35.608917
二子玉川公園,東京都 世田谷区玉川一丁目16番1号,1F,二子玉川公園親子トイレ,"設備: 車椅子対応, おむつ交換台",#00cc00,139.632909,35.608917
二子玉川公園,東京都 世田谷区玉川一丁目16番1号,1F,二子玉川公園憩いの広場バリアフリートイレ,"設備: 車椅子対応, おむつ交換台",#00cc00,139.632692,35.607594
二子玉川公園,東京都 世田谷区玉川一丁目16番1号,1F,二子玉川公園健康広場バリアフリートイレ,"設備: 車椅子対応, 大型ベッド, おむつ交換台",#00cc00,139.634191,35.607209
二子玉川東公園,東京都 世田谷区玉川一丁目15番8号,1F,二子玉川東公園バリアフリートイレ,"設備: 車椅子対応, オストメイト対応, おむつ交換台",#00cc00,139.631249,35.610266
九品仏広場,東京都 世田谷区奥沢七丁目34番6号,1F,九品仏広場バリアフリートイレ,"設備: 車椅子対応, オストメイト対応",#00cc00,139.661765,35.606358
玉川台広場,東京都 世田谷区玉川台一丁目17番1号,1F,玉川台広場バリアフリートイレ,設備: 車椅子対応,#00cc00,139.637438,35.624249
瀬田四丁目旧小坂緑地,東京都 世田谷区瀬田四丁目41番21号,1F,瀬田四丁目旧小坂緑地バリアフリートイレ,"設備: 車椅子対応, オストメイト対応, おむつ交換台",#00cc00,139.623443,35.62165
宇奈根台口公園,東京都 世田谷区宇奈根二丁目9番31号,1F,宇奈根台口公園バリアフリートイレ,設備: 車椅子対応,#00cc00,139.602501,35.621037
宇奈根東部記念公園,東京都 世田谷区宇奈根一丁目42番8号,1F,宇奈根東部記念公園バリアフリートイレ,設備: 車椅子対応,#00cc00,139.6077,35.621959
宇奈根龍王公園,東京都 世田谷区宇奈根二丁目2番17号,1F,宇奈根龍王公園バリアフリートイレ,設備: 車椅子対応,#00cc00,139.600031,35.620568
大蔵運動公園,東京都 世田谷区大蔵四丁目6番1号,1F,大蔵運動公園西園バリアフリートイレ,"設備: 車椅子対応, オストメイト対応, おむつ交換台",#00cc00,139.610883,35.631039
大蔵運動公園,東京都 世田谷区大蔵四丁目6番1号,1F,大蔵運動公園駐車場横バリアフリートイレ,"設備: 車椅子対応, おむつ交換台",#00cc00,139.613843,35.629882
鎌田前耕地公園,東京都 世田谷区岡本二丁目10番10号,1F,鎌田前耕地公園バリアフリートイレ,設備: 車椅子対応,#00cc00,139.616579,35.621203
喜多見公園,東京都 世田谷区喜多見二丁目10番45号,1F,喜多見公園バリアフリートイレ,設備: 車椅子対応,#00cc00,139.595796,35.624747
喜多見農業公園,東京都 世田谷区喜多見四丁目16番25号,1F,喜多見農業公園バリアフリートイレ,"設備: 車椅子対応, オストメイト対応, おむつ交換台",#00cc00,139.595733,35.626915
喜多見東記念公園,東京都 世田谷区喜多見三丁目3番5号,1F,喜多見東記念公園バリアフリートイレ,"設備: 車椅子対応, オストメイト対応, おむつ交換台",#00cc00,139.603602,35.626876
砧大根公園,東京都 世田谷区砧五丁目15番14号,1F,砧大根公園バリアフリートイレ,設備: 車椅子対応,#00cc00,139.60883,35.637663
希望丘公園,東京都 世田谷区船橋七丁目9番2号,1F,希望丘公園バリアフリートイレ,"設備: 車椅子対応, オストメイト対応, おむつ交換台",#00cc00,139.61787,35.658276
希望丘北公園,東京都 世田谷区千歳台四丁目29番1号,1F,希望丘北公園バリアフリートイレ,設備: 車椅子対応,#00cc00,139.612571,35.658491
希望丘記念公園,東京都 世田谷区千歳台四丁目2番7号,1F,希望丘記念公園バリアフリートイレ,"設備: 車椅子対応, オストメイト対応, おむつ交換台",#00cc00,139.613833,35.654588
希望丘中公園,東京都 世田谷区千歳台四丁目11番29号,1F,希望丘中公園だれでもトイレ,設備: 車椅子対応,#00cc00,139.614392,35.656399
祖師谷三丁目公園,東京都 世田谷区祖師谷三丁目14番23号,1F,祖師谷三丁目公園バリアフリートイレ,設備: 車椅子対応,#00cc00,139.602548,35.642603
堂ケ谷戸公園,東京都 世田谷区鎌田三丁目32番14号,1F,堂ケ谷戸公園バリアフリートイレ,設備: 車椅子対応,#00cc00,139.614518,35.622482
山野公園,東京都 世田谷区砧六丁目10番3号,1F,山野公園バリアフリートイレ,"設備: 車椅子対応, オストメイト対応, おむつ交換台",#00cc00,139.613631,35.644245
三峰公園,東京都 世田谷区砧四丁目6番14号,1F,三峰公園バリアフリートイレ,"設備: 車椅子対応, オストメイト対応, おむつ交換台",#00cc00,139.613354,35.641033
明正公園,東京都 世田谷区成城一丁目20番6号,1F,明正公園バリアフリートイレ,"設備: 車椅子対応, オストメイト対応, おむつ交換台",#00cc00,139.599772,35.635497
廻沢南公園,東京都 世田谷区千歳台二丁目23番9号,1F,廻沢南公園バリアフリートイレ,"設備: 車椅子対応, おむつ交換台",#00cc00,139.613393,35.649747
葭根公園,東京都 世田谷区船橋六丁目21番1号,1F,葭根公園バリアフリートイレ,"設備: 車椅子対応, オストメイト対応, おむつ交換台",#00cc00,139.62244,35.657918
成城みつ池緑地,東京都 世田谷区成城四丁目20番8号,1F,成城みつ池緑地バリアフリートイレ,"設備: 車椅子対応, オストメイト対応, おむつ交換台",#00cc00,139.591965,35.640689
きたみふれあい広場,東京都 世田谷区喜多見九丁目25番5号,1F,きたみふれあい広場バリアフリートイレ,"設備: 車椅子対応, おむつ交換台",#00cc00,139.587709,35.64146
成城五丁目猪股庭園,東京都 世田谷区成城五丁目12番19号,1F,成城五丁目猪股庭園バリアフリートイレ,設備: 車椅子対応,#00cc00,139.594805,35.642221
西経堂児童遊園,東京都 世田谷区船橋三丁目25番13号,1F,西経堂児童遊園バリアフリートイレ,設備: 車椅子対応,#00cc00,139.625047,35.655064
上北沢公園,東京都 世田谷区上北沢二丁目1番5号,1F,上北沢公園バリアフリートイレ,"設備: 車椅子対応, オストメイト対応, おむつ交換台",#00cc00,139.621264,35.668624
上祖師谷パンダ公園,東京都 世田谷区上祖師谷三丁目4番7号,1F,上祖師谷パンダ公園バリアフリートイレ,"設備: 車椅子対応, オストメイト対応, おむつ交換台",#00cc00,139.601899,35.654252
上祖師谷五丁目公園 (上祖師谷五丁目公園),東京都 世田谷区上祖師谷五丁目9番4号,1F,上祖師谷五丁目公園バリアフリートイレ,"設備: 車椅子対応, おむつ交換台",#00cc00,139.59331,35.656999
北烏山もぐら公園,東京都 世田谷区北烏山八丁目5番18号,1F,北烏山もぐら公園バリアフリートイレ,"設備: 車椅子対応, おむつ交換台",#00cc00,139.59082,35.675317
大道北記念公園,東京都 世田谷区上祖師谷六丁目11番9号,1F,大道北記念公園バリアフリートイレ,設備: 車椅子対応,#00cc00,139.595505,35.658967
大道北三十三志公園,東京都 世田谷区上祖師谷六丁目16番33号,1F,大道北三十三志公園バリアフリートイレ,"設備: 車椅子対応, おむつ交換台",#00cc00,139.596636,35.659912
千歳烏山南公園,東京都 世田谷区南烏山五丁目21番1号,1F,千歳烏山南公園バリアフリートイレ,"設備: 車椅子対応, おむつ交換台",#00cc00,139.602436,35.665944
西之谷公園,東京都 世田谷区北烏山六丁目12番21号,1F,西之谷公園バリアフリートイレ,設備: 車椅子対応,#00cc00,139.597302,35.672582
給田四丁目緑地 (給田四丁目緑地),東京都 世田谷区給田四丁目25番18号,1F,給田四丁目緑地バリアフリートイレ,"設備: 車椅子対応, おむつ交換台",#00cc00,139.591,35.671668
八幡山かまのくち緑地,東京都 世田谷区八幡山二丁目13番1号,1F,八幡山かまのくち緑地バリアフリートイレ,"設備: 車椅子対応, オストメイト対応, おむつ交換台",#00cc00,139.618323,35.660469
上北沢きんもくせい広場,東京都 世田谷区上北沢五丁目48番10号,1F,上北沢きんもくせい広場バリアフリートイレ,"設備: 車椅子対応, おむつ交換台",#00cc00,139.612309,35.67507
将軍池広場,東京都 世田谷区上北沢二丁目1番11号,1F,将軍池広場バリアフリートイレ,"設備: 車椅子対応, おむつ交換台",#00cc00,139.622245,35.665233
八幡山はらっぱ広場,東京都 世田谷区八幡山三丁目40番21号,1F,八幡山はらっぱ広場バリアフリートイレ,設備: 車椅子対応,#00cc00,139.614534,35.669182
子の神公園,東京都 世田谷区下馬四丁目10番5号,1F,子の神公園バリアフリートイレ,"設備: 車椅子対応, オストメイト対応, おむつ交換台",#00cc00,139.677155,35.636626
馬事公苑前緑地,東京都 世田谷区上用賀2丁目3番4号,1F,馬事公苑前緑地バリアフリートイレ,"設備: 車椅子対応, オストメイト対応, おむつ交換台",#00cc00,139.632452,35.639178
山下こども公園,東京都 世田谷区八幡山一丁目11番5号,1F,山下こども公園バリアフリートイレ,"設備: 車椅子対応, オストメイト対応, おむつ交換台",#00cc00,139.620699,35.660532
給田松の香公園,東京都 世田谷区給田一丁目３番２０号,1階,給田松の香公園バリアフリートイレ,"設備: 車椅子対応, オストメイト対応, おむつ交換台",#00cc00,139.592082,35.662067
おっこし記念公園,東京都 世田谷区大蔵6-8-4,1階,おっこし記念公園バリアフリートイレ,"設備: 車椅子対応, オストメイト対応, おむつ交換台",#00cc00,139.611127,35.626585
希望丘南公園,東京都 世田谷区千歳台3-15-7,1階,希望丘南公園バリアフリートイレ,"設備: 車椅子対応, オストメイト対応, おむつ交換台",#00cc00,139.613787,35.652023
塚戸公園,東京都 世田谷区祖師谷6-20-1,1階,塚戸公園バリアフリートイレ,"設備: 車椅子対応, オストメイト対応, おむつ交換台",#00cc00,139.607608,35.655355
池田児童遊園,東京都 世田谷区船橋3-11-12,1階,池田児童遊園バリアフリートイレ,"設備: 車椅子対応, オストメイト対応, おむつ交換台",#00cc00,139.623664,35.65244
上馬北公園,東京都 世田谷区上馬2-30-9,1F,上馬北公園バリアフリートイレ,"設備: 車椅子対応, オストメイト対応, おむつ交換台",#00cc00,139.664822,35.639334
奥沢公園,東京都 世田谷区奥沢1-19-2,1F,奥沢公園バリアフリートイレ,"設備: 車椅子対応, オストメイト対応, おむつ交換台",#00cc00,139.679246,35.600665
桜上水公園,東京都 世田谷区桜上水５−５−１１,1F,バリアフリートイレ,"設備: 車椅子対応, オストメイト対応, おむつ交換台",#00cc00,139.627602,35.665052
南烏山二丁目みんなのにわ緑地,東京都 世田谷区南烏山２−１−６,1F,バリアフリートイレ,"設備: 車椅子対応, オストメイト対応, おむつ交換台",#00cc00,139.606933,35.665164
駒繋公園,東京都 世田谷区下馬四丁目28番3号,1F,駒繋公園バリアフリートイレ,"設備: 車椅子対応, オストメイト対応, おむつ交換台",#00cc00,139.681442,35.637697
北沢四丁目公園,東京都 世田谷区北沢四丁目12番17号,1F,北沢四丁目公園バリアフリートイレ,"設備: 車椅子対応, オストメイト対応, おむつ交換台",#00cc00,139.6347,35.66713
玉川中町公園,東京都 世田谷区中町5-19-3,1F,玉川中町公園バリアフリートイレ,"設備: 車椅子対応, オストメイト対応, おむつ交換台",#00cc00,139.641842,35.619893
ぽかぽか広場,東京都 世田谷区玉川田園調布一丁目19番11号,1F,バリアフリートイレ,設備: 車椅子対応,#00cc00,139.659501,35.601542
大蔵三丁目公園,東京都 世田谷区大蔵３丁目3,1F,大蔵三丁目公園バリアフリートイレ,"設備: 車椅子対応, オストメイト対応, おむつ交換台",#00cc00,139.608625,35.632435
富士見公園,東京都 世田谷区砧四丁目36番1号,1F,富士見公園バリアフリートイレ,"設備: 車椅子対応, オストメイト対応, おむつ交換台",#00cc00,139.61495,35.643779
廻沢公園 (廻沢公園),東京都 世田谷区千歳台４−１６−１４,1F,廻沢公園バリアフリートイレ,"設備: 車椅子対応, オストメイト対応, おむつ交換台",#00cc00,139.364639,35.392475
烏山公園,東京都 世田谷区北烏山１−２０−１,1F,烏山公園バリアフリートイレ,"設備: 車椅子対応, オストメイト対応, おむつ交換台",#00cc00,139.605863,35.674644
烏山公園,東京都 世田谷区北烏山１−２０−１,1F,烏山公園バリアフリートイレ,"設備: 車椅子対応, オストメイト対応, おむつ交換台",#00cc00,139.605863,35.674644
弦巻三丁目東公園 (弦巻三丁目東公園),東京都 世田谷区弦巻3-5-20,1F,弦巻三丁目東公園バリアフリートイレ,"設備: 車椅子対応, オストメイト対応, おむつ交換台",#00cc00,139.6474053,35.635782
玉川台公園 (玉川台公園),東京都 世田谷区玉川台二丁目18番20号,1F,玉川台公園バリアフリートイレ,"設備: 車椅子対応, オストメイト対応, おむつ交換台",#00cc00,139.6304558,35.62469481
岡本公園,東京都 世田谷区岡本二丁目20番1号,1F,岡本公園だれでもトイレ,"設備: 車椅子対応, オストメイト対応, おむつ交換台",#00cc00,139.618008,35.622085
世田谷公衆便所,東京都 世田谷区世田谷一丁目48番4号,1F,世田谷公衆便所（右）,設備: おむつ交換台,#00cc00,139.642585,35.640787
世田谷公衆便所,東京都 世田谷区世田谷一丁目48番4号,1F,世田谷公衆便所（左）,設備: 車椅子対応,#00cc00,139.642585,35.640776
三軒茶屋駅前公衆便所,東京都 世田谷区太子堂四丁目22番2号,B1F,三軒茶屋駅前公衆便所（女性用）,"設備: 車椅子対応, オストメイト対応, おむつ交換台",#00cc00,139.669997,35.643695
三軒茶屋駅前公衆便所,東京都 世田谷区太子堂四丁目22番2号,B1F,三軒茶屋駅前公衆便所（男性用）,"設備: 車椅子対応, オストメイト対応, おむつ交換台",#00cc00,139.669997,35.643695
下高井戸公衆便所,東京都 世田谷区松原三丁目29番17号,1F,下高井戸公衆便所だれでもトイレ,"設備: 車椅子対応, オストメイト対応, おむつ交換台",#00cc00,139.641701,35.666059
梅丘公衆便所,東京都 世田谷区梅丘一丁目43番11号,1F,梅丘公衆便所（右）,"設備: 車椅子対応, オストメイト対応, おむつ交換台",#00cc00,139.652236,35.655693
梅丘公衆便所,東京都 世田谷区梅丘一丁目43番11号,1F,梅丘公衆便所（左）,設備: 車椅子対応,#00cc00,139.652236,35.655693
用賀公衆便所 (用賀区民集会所),東京都 世田谷区用賀四丁目10番6号,1F,用賀公衆便所,"設備: 車椅子対応, オストメイト対応, おむつ交換台",#00cc00,139.631571,35.627226
下北沢駅南口公衆トイレ,東京都 世田谷区北沢二丁目20番,1F,下北沢駅南口公衆トイレ,"設備: 車椅子対応, オストメイト対応, おむつ交換台",#00cc00,139.667362,35.661342
世田谷区立男女共同参画センターらぷらす (グレート王寿ビル３〜５階),東京都 世田谷区太子堂一丁目12番40号,5F,多目的トイレ,"設備: 車椅子対応, オストメイト対応, おむつ交換台",#00cc00,139.674948,35.645244
希望丘複合施設,東京都 世田谷区船橋六丁目25-1,1F,複合施設棟1F多機能トイレ,"設備: 車椅子対応, おむつ交換台",#00cc00,139.620884,35.659039
希望丘複合施設,東京都 世田谷区船橋六丁目25-1,3F,複合施設棟3F多機能トイレ,"設備: 車椅子対応, おむつ交換台",#00cc00,139.620884,35.659039
希望丘複合施設,東京都 世田谷区船橋六丁目25-1,4F,複合施設棟4F多機能トイレ,"設備: 車椅子対応, オストメイト対応, おむつ交換台",#00cc00,139.620884,35.659039
希望丘複合施設,東京都 世田谷区船橋六丁目25-1,1F,スポーツ施設棟1F多機能トイレ,"設備: 車椅子対応, おむつ交換台",#00cc00,139.620868,35.659322
守山複合施設,東京都 世田谷区代田六丁目21番5号,1F,地区会館等1階　多機能トイレ,"設備: 車椅子対応, オストメイト対応",#00cc00,139.662127,35.66527
守山複合施設,東京都 世田谷区代田六丁目21番5号,2F,地区会館等２階　多機能トイレ,設備: 車椅子対応,#00cc00,139.662108,35.66533
守山複合施設,東京都 世田谷区代田六丁目21番5号,1F,保育園棟１階　多機能トイレ,"設備: 車椅子対応, オストメイト対応, おむつ交換台",#00cc00,139.662029,35.665495
烏山中央自転車等駐車場,東京都 世田谷区南烏山５−１７−２３,1F,だれでもトイレ,"点字ブロックはトイレ前にしかない。 | 設備: 車椅子対応, オストメイト対応, おむつ交換台",#00cc00,139.601535,35.667199
桜上水南自転車等駐車場,東京都 世田谷区桜上水４−１８−１３,1F,だれでもトイレ,設備: 車椅子対応,#00cc00,139.632191,35.666647
尾山台地域体育館,東京都 世田谷区尾山台3-19-3,1F,障害者用トイレ,,#00cc00,139.654166,35.605012
尾山台地域体育館,東京都 世田谷区尾山台3-19-3,1F,障害者用トイレ,設備: オストメイト対応,#00cc00,139.6542262,35.60501386
二子玉川緑地運動場,東京都 世田谷区鎌田1-3-5,1階,多機能トイレ,"設備: 車椅子対応, おむつ交換台",#00cc00,139.618873,35.616077
総合運動場体育館,東京都 世田谷区大蔵4-6-1,地下1階,多機能トイレ,"設備: 車椅子対応, おむつ交換台",#00cc00,139.612353,35.630388
総合運動場体育館,東京都 世田谷区大蔵4-6-1,B1F,障害者用トイレ,設備: 車椅子対応,#00cc00,139.612318,35.63039
総合運動場体育館,東京都 世田谷区大蔵4-6-1,B1F,障害者用トイレ,"設備: 車椅子対応, オストメイト対応",#00cc00,139.612318,35.63039
総合運動場温水プール,東京都 世田谷区大蔵4-6-1,1F,車椅子対応トイレ,設備: 車椅子対応,#00cc00,139.612187,35.631192
総合運動場温水プール,東京都 世田谷区大蔵4-6-1,1F,車椅子対応トイレ,設備: 車椅子対応,#00cc00,139.612187,35.631192
総合運動場温水プール,東京都 世田谷区大蔵4-6-1,2F,車椅子対応トイレ,"設備: 車椅子対応, おむつ交換台",#00cc00,139.612187,35.631192
総合運動場温水プール,東京都 世田谷区大蔵4-6-1,B2F,車椅子対応トイレ,設備: 車椅子対応,#00cc00,139.612187,35.631192
総合運動場温水プール,東京都 世田谷区大蔵4-6-1,B2F,多機能トイレ,設備: 車椅子対応,#00cc00,139.612187,35.631192
総合運動場温水プール,東京都 世田谷区大蔵4-6-1,B2F,多機能トイレ,"設備: 車椅子対応, オストメイト対応, おむつ交換台",#00cc00,139.612187,35.631192
総合運動場陸上競技場,東京都 世田谷区大蔵4-6-1,1F,多機能トイレ,"設備: 車椅子対応, オストメイト対応, おむつ交換台",#00cc00,139.611564,35.630111
総合運動場陸上競技場,東京都 世田谷区大蔵4-6-1,2F,車イストイレ,設備: 車椅子対応,#00cc00,139.611596,35.630133
総合運動場陸上競技場,東京都 世田谷区大蔵4-6-1,2F,車イストイレ,設備: 車椅子対応,#00cc00,139.611596,35.630133
大蔵第二運動場 (本館),東京都 世田谷区大蔵4-7-1,1F,多機能トイレ,"設備: 車椅子対応, おむつ交換台",#00cc00,139.614751,35.631553
大蔵第二運動場 (テニス休憩所),東京都 世田谷区大蔵4-7-1,1F,多機能トイレ,"設備: 車椅子対応, オストメイト対応, おむつ交換台",#00cc00,139.613991,35.631371
世田谷区千歳温水プール,東京都 世田谷区船橋七丁目9番1号,1F,多機能トイレ,設備: 車椅子対応,#00cc00,139.616833,35.659009
世田谷区千歳温水プール,東京都 世田谷区船橋七丁目9番1号,B1F,多機能トイレ,"設備: 車椅子対応, おむつ交換台",#00cc00,139.616833,35.659009
世田谷区千歳温水プール,東京都 世田谷区船橋七丁目9番1号,2F,多機能トイレ,設備: 車椅子対応,#00cc00,139.616833,35.659009
世田谷区千歳温水プール,東京都 世田谷区船橋七丁目9番1号,3F,多機能トイレ,"設備: 車椅子対応, おむつ交換台",#00cc00,139.616833,35.659009
世田谷区千歳温水プール,東京都 世田谷区船橋七丁目9番1号,4F,多機能トイレ,"設備: 車椅子対応, オストメイト対応, おむつ交換台",#00cc00,139.616833,35.659009
エコプラザ用賀,東京都 世田谷区用賀４−７−１,1F,多機能トイレ,"設備: 車椅子対応, オストメイト対応, おむつ交換台",#00cc00,139.63057,35.626878
リサイクル千歳台,東京都 世田谷区千歳台１−１−５,1F,多機能トイレ,"設備: 車椅子対応, オストメイト対応, おむつ交換台",#00cc00,139.617042,35.645658
資源循環センターリセタ,東京都 世田谷区大蔵１−１−１２,3F,多機能トイレ,"設備: 車椅子対応, オストメイト対応, おむつ交換台",#00cc00,139.622497,35.632437
子育てステーション烏山,東京都 世田谷区南烏山５−１７−５,1F,だれでもトイレ,"設備: 車椅子対応, オストメイト対応, おむつ交換台",#00cc00,139.6013,35.666917
子育てステーション烏山,東京都 世田谷区南烏山５−１７−５,4F,だれでもトイレ,"設備: 車椅子対応, オストメイト対応, おむつ交換台",#00cc00,139.6013,35.666917
保健医療福祉総合プラザ,東京都 世田谷区松原6-37-10,1F,多機能ＷＣ[1-1]（共用部）,"設備: 車椅子対応, オストメイト対応, 大型ベッド",#00cc00,139.649907,35.657522
保健医療福祉総合プラザ,東京都 世田谷区松原6-37-10,2F,多機能ＷＣ[2-1]（保健センター・共用部）,"設備: 車椅子対応, オストメイト対応, 大型ベッド",#00cc00,139.649907,35.657522
保健医療福祉総合プラザ,東京都 世田谷区松原6-37-10,3F,多機能ＷＣ[3-1]（保健センター・共用部）,"設備: 車椅子対応, オストメイト対応, 大型ベッド",#00cc00,139.649907,35.657522
ひだまり友遊会館,東京都 世田谷区若林四丁目37番7号,1F,ひだまり友遊会館バリアフリートイレ,"設備: 車椅子対応, オストメイト対応",#00cc00,139.656589,35.647777
渋谷区二子玉川区民運動施設,東京都 世田谷区玉川三丁目3番11号,1F,だれでもお手洗い,"年末年始(12/29〜1/3)休館 | 設備: 車椅子対応, オストメイト対応, 大型ベッド, おむつ交換台",#00cc00,139.62445,35.612784