name,address,floor,toilet_name,note,color,lng,lat
浜離宮恩賜庭園,東京都 中央区浜離宮庭園1番地1号,1F,サービスセンター裏多目的トイレ,"※休園日／年末年始（12/29〜1/1） | 設備: 車椅子対応, オストメイト対応, おむつ交換台",#00cc00,139.763075,35.662301
浜離宮恩賜庭園,東京都 中央区浜離宮庭園1番地1号,1F,水上バス発着場横多目的トイレ,"※休園日／年末年始（12/29〜1/1） | 設備: 車椅子対応, オストメイト対応, おむつ交換台",#00cc00,139.767002,35.660184
浜離宮恩賜庭園,東京都 中央区浜離宮庭園1番地1号,1F,鷹の御茶屋横多目的トイレ,"※休園日／年末年始（12/29〜1/1） | 設備: 車椅子対応, オストメイト対応, おむつ交換台",#00cc00,139.763412,35.659247
浜離宮恩賜庭園,東京都 中央区浜離宮庭園1番地1号,1F,野外卓広場横多目的トイレ,"※休園日／年末年始（12/29〜1/1） | 設備: 車椅子対応, オストメイト対応, おむつ交換台",#00cc00,139.76227,35.660405
東京都宝町駐車場,東京都 中央区京橋一丁目13番1号先,B1F,だれでもトイレ,"設備: 車椅子対応, おむつ交換台",#00cc00,139.772881,35.677093
東京都八重洲駐車場,東京都 中央区京橋一丁目10番1号先,B1F,車椅子使用者対応トイレ（E階段）,"E階段側 | 設備: 車椅子対応, オストメイト対応, おむつ交換台",#00cc00,139.77243,35.678722
東京都八重洲駐車場,東京都 中央区京橋一丁目10番1号先,B1F,車椅子使用者対応トイレ（F階段）,"F階段側 | 設備: 車椅子対応, オストメイト対応, おむつ交換台",#00cc00,139.77243,35.678722
東京都八重洲駐車場,東京都 中央区京橋一丁目10番1号先,B2,車椅子使用者対応トイレ,"E階段側 | 設備: 車椅子対応, オストメイト対応, おむつ交換台",#00cc00,139.772611,35.679061
晴海ふ頭公園,東京都 中央区晴海五丁目,1F,北側バリアフリートイレ,"設備: 車椅子対応, オストメイト対応, おむつ交換台",#00cc00,139.772422,35.647258
晴海ふ頭公園,東京都 中央区晴海五丁目,1F,南側バリアフリートイレ,"設備: 車椅子対応, オストメイト対応, おむつ交換台",#00cc00,139.770477,35.648511
都営浅草線東銀座駅,東京都 中央区銀座四丁目10番10号先,B1F,車椅子使用者対応トイレ（左）,"設備: 車椅子対応, オストメイト対応, 大型ベッド, おむつ交換台",#00cc00,139.76675,35.669978
都営浅草線東銀座駅,東京都 中央区銀座四丁目10番10号先,B1F,車椅子使用者対応トイレ（右）,"設備: 車椅子対応, オストメイト対応",#00cc00,139.7668669,35.6699248
都営浅草線宝町駅,東京都 中央区京橋二丁目13番11号先,B1F,だれでもトイレ,"設備: 車椅子対応, オストメイト対応, 大型ベッド",#00cc00,139.771715,35.674928
都営浅草線日本橋駅,東京都 中央区日本橋一丁目13番1号先,B2F,だれでもトイレ,"設備: 車椅子対応, オストメイト対応, おむつ交換台",#00cc00,139.775588,35.68166
都営浅草線人形町駅,東京都 中央区日本橋人形町三丁目7番13号,B1F,だれでもトイレ,"設備: 車椅子対応, オストメイト対応, おむつ交換台",#00cc00,139.781705,35.686088
都営浅草線東日本橋駅,東京都 中央区東日本橋三丁目11番8号先,B1F,だれでもトイレ,"設備: 車椅子対応, オストメイト対応, おむつ交換台",#00cc00,139.7848,35.692491
都営新宿線馬喰横山駅,東京都 中央区日本橋横山町4番地13号,B1F,だれでもトイレ,"設備: 車椅子対応, オストメイト対応, おむつ交換台",#00cc00,139.783446,35.691567
都営新宿線浜町駅,東京都 中央区日本橋浜町二丁目59番3号,B1F,だれでもトイレ,"設備: 車椅子対応, オストメイト対応, おむつ交換台",#00cc00,139.788266,35.688452
都営大江戸線月島駅,東京都 中央区月島一丁目5番4号先,B1F,だれでもトイレ,"設備: 車椅子対応, オストメイト対応, おむつ交換台",#00cc00,139.784082,35.663824
都営大江戸線勝どき駅,東京都 中央区勝どき二丁目10番15号先,B1F,女性用だれでもトイレＡ,"設備: 車椅子対応, オストメイト対応, おむつ交換台",#00cc00,139.777795,35.65948
都営大江戸線勝どき駅,東京都 中央区勝どき二丁目10番15号先,B1F,女性用だれでもトイレＢ,"設備: 車椅子対応, オストメイト対応, おむつ交換台",#00cc00,139.777214,35.658964
都営大江戸線勝どき駅,東京都 中央区勝どき二丁目10番15号先,B1F,男性用だれでもトイレＡ,"設備: 車椅子対応, オストメイト対応, おむつ交換台",#00cc00,139.777795,35.65948
都営大江戸線勝どき駅,東京都 中央区勝どき二丁目10番15号先,B1F,男性用だれでもトイレＢ,"設備: 車椅子対応, オストメイト対応, おむつ交換台",#00cc00,139.777214,35.658964
都営大江戸線築地市場駅,東京都 中央区築地五丁目1番2号,B1F,だれでもトイレ,"設備: 車椅子対応, オストメイト対応, おむつ交換台",#00cc00,139.766858,35.664875
日本橋消防署浜町出張所,東京都 中央区日本橋浜町三丁目45番12号,1F,だれでもトイレ,設備: 車椅子対応,#00cc00,139.791846,35.685306
臨港消防署,東京都 中央区晴海五丁目8番20号,1F,だれでもトイレ,"設備: 車椅子対応, オストメイト対応",#00cc00,139.770767,35.649473
臨港消防署月島出張所,東京都 中央区勝どき四丁目6番3号,1F,だれでもトイレ,"設備: 車椅子対応, オストメイト対応, おむつ交換台",#00cc00,139.776759,35.656943
中央区役所本庁舎,東京都 中央区築地一丁目1番1号,1F,１階車椅子使用者対応トイレ,"設備: 車椅子対応, オストメイト対応, おむつ交換台",#00cc00,139.772281,35.670677
中央区役所本庁舎,東京都 中央区築地一丁目1番1号,2F,別館２階車椅子使用者対応トイレ,"設備: 車椅子対応, 大型ベッド, おむつ交換台",#00cc00,139.772385,35.670713
中央区役所本庁舎,東京都 中央区築地一丁目1番1号,4F,４階車椅子使用者対応トイレ,"設備: 車椅子対応, オストメイト対応, 大型ベッド, おむつ交換台",#00cc00,139.772281,35.67066
中央区役所本庁舎,東京都 中央区築地一丁目1番1号,6F,６階車椅子使用者対応トイレ,"設備: 車椅子対応, オストメイト対応, おむつ交換台",#00cc00,139.772281,35.670668
中央区役所本庁舎,東京都 中央区築地一丁目1番1号,B1F,B1F車椅子使用者対応トイレ,"設備: 車椅子対応, オストメイト対応, 大型ベッド",#00cc00,139.7717765,35.67047648
日本橋特別出張所,東京都 中央区日本橋蛎殻町一丁目31番1号,1F,1階車椅子使用者対応トイレ,"設備: 車椅子対応, おむつ交換台",#00cc00,139.784288,35.682522
月島特別出張所 (月島保健センター),東京都 中央区月島四丁目1番1号,1F,車椅子使用者対応トイレ,"ﾋﾟｸﾄｸﾞﾗﾑを併記してある | 設備: 車椅子対応, オストメイト対応, おむつ交換台",#00cc00,139.782234,35.662096
晴海特別出張所,東京都 中央区晴海四丁目８番１号,1F,バリアフリートイレ,"設備: 車椅子対応, オストメイト対応",#00cc00,139.7800373,35.65213826
晴海特別出張所,東京都 中央区晴海四丁目８番１号,2F,バリアフリートイレ,"設備: 車椅子対応, オストメイト対応",#00cc00,139.7800374,35.6520249
中央区立男女平等センター「ブーケ２１」 (中央区立男女平等センター「ブーケ２１」),東京都 中央区湊一丁目1番1号,1F,車椅子使用者対応トイレ,"設備: 車椅子対応, おむつ交換台",#00cc00,139.778774,35.67351
中央区立京橋区民館,東京都 中央区京橋二丁目6番7号,1F,京橋区民館１階トイレ,"設備: 車椅子対応, おむつ交換台",#00cc00,139.771282,35.676591
中央区立京橋プラザ区民館,東京都 中央区銀座一丁目25番3号,2F,京橋プラザ区民館２階トイレ,"設備: 車椅子対応, おむつ交換台",#00cc00,139.771653,35.673246
中央区立銀座区民館,東京都 中央区銀座四丁目13番17号,3F,銀座区民館３階トイレ,"設備: 車椅子対応, おむつ交換台",#00cc00,139.768684,35.669492
中央区立新富区民館,東京都 中央区新富一丁目13番24号,1F,新富区民館１階トイレ,"設備: 車椅子対応, おむつ交換台",#00cc00,139.774748,35.673586
中央区立明石町区民館,東京都 中央区明石町14番地2号,1F,明石町区民館１階トイレ,"設備: 車椅子対応, おむつ交換台",#00cc00,139.778162,35.665827
中央区立新川区民館,東京都 中央区新川一丁目26番1号,1F,新川区民館１階トイレ,"設備: 車椅子対応, おむつ交換台",#00cc00,139.78358,35.676475
中央区立堀留町区民館 (日本橋保健センター等複合施設),東京都 中央区日本橋堀留町一丁目1番1号,3F,堀留町区民館３階トイレ,"設備: 車椅子対応, おむつ交換台",#00cc00,139.778887,35.687441
中央区立人形町区民館,東京都 中央区日本橋人形町二丁目14番5号,5F,人形町区民館５階トイレ,"設備: 車椅子対応, おむつ交換台",#00cc00,139.784823,35.684595
中央区立人形町区民館,東京都 中央区日本橋人形町二丁目14番5号,6F,人形町区民館６階トイレ,設備: 車椅子対応,#00cc00,139.784911,35.684528
中央区立久松町区民館,東京都 中央区日本橋久松町1番地2号,1F,久松町区民館１階トイレ,"設備: 車椅子対応, おむつ交換台",#00cc00,139.783952,35.688677
中央区立浜町区民館,東京都 中央区日本橋浜町三丁目37番1号,4F,中央区立浜町区民館,"設備: 車椅子対応, おむつ交換台",#00cc00,139.791511,35.685526
中央区立新場橋区民館,東京都 中央区日本橋兜町11番地9号,1F,新場橋区民館階トイレ,"設備: 車椅子対応, おむつ交換台",#00cc00,139.776322,35.679999
中央区立佃区民館,東京都 中央区佃二丁目17番8号,4F,佃区民館４階トイレ,"設備: 車椅子対応, おむつ交換台",#00cc00,139.784978,35.664886
中央区立月島区民館,東京都 中央区月島二丁目8番11号,1F,月島区民館１階トイレ,"設備: 車椅子対応, おむつ交換台",#00cc00,139.784671,35.663258
中央区立勝どき区民館,東京都 中央区勝どき一丁目5番1号,1F,勝どき区民館１階トイレ,"設備: 車椅子対応, おむつ交換台",#00cc00,139.777777,35.660716
中央区立豊海区民館,東京都 中央区豊海町2番6号,2F,豊海区民館２階トイレ,"設備: 車椅子対応, おむつ交換台",#00cc00,139.771932,35.654215
中央区立晴海区民館,東京都 中央区晴海一丁目8番6号,3F,晴海区民館３階トイレ,"設備: 車椅子対応, おむつ交換台",#00cc00,139.783252,35.657183
中央区立セレモニーホール,東京都 中央区勝どき一丁目13番19号,2F,セレモニーホール２階トイレ,"設備: 車椅子対応, おむつ交換台",#00cc00,139.774675,35.66042
中央区立浜町集会施設,東京都 中央区日本橋浜町二丁目59番48号,1F,公園ギャラリー１階トイレ,"設備: 車椅子対応, オストメイト対応, おむつ交換台",#00cc00,139.790345,35.687404
中央区立浜町集会施設,東京都 中央区日本橋浜町二丁目59番48号,2F,浜町集会施設２階トイレ,"設備: 車椅子対応, オストメイト対応, おむつ交換台",#00cc00,139.790354,35.687386
中央区立浜町集会施設,東京都 中央区日本橋浜町二丁目59番48号,3F,浜町集会施設３階トイレ,"設備: 車椅子対応, オストメイト対応, おむつ交換台",#00cc00,139.790324,35.68743
京華スクエア,東京都 中央区八丁堀三丁目17番9号,1F,1階車椅子使用者対応トイレ,"設備: 車椅子対応, おむつ交換台",#00cc00,139.775902,35.674975
京華スクエア,東京都 中央区八丁堀三丁目17番9号,2F,2階車椅子使用者対応トイレ,"設備: 車椅子対応, おむつ交換台",#00cc00,139.77582,35.674821
京華スクエア,東京都 中央区八丁堀三丁目17番9号,3F,3階車椅子使用者対応トイレ,設備: 車椅子対応,#00cc00,139.77582,35.674821
中央区立産業会館,東京都 中央区東日本橋二丁目22番4号,4F,４階車椅子使用者対応トイレ,"設備: 車椅子対応, おむつ交換台",#00cc00,139.787071,35.693993
中央区保健所等複合施設 (中央区保健所等複合施設),東京都 中央区明石町12番地1号,1F,保健所１階車椅子使用者対応トイレ,"設備: 車椅子対応, オストメイト対応, おむつ交換台",#00cc00,139.776279,35.666818
中央区立日本橋保健センター (日本橋保健センター等複合施設),東京都 中央区日本橋堀留町一丁目1番1号,4F,4階車椅子使用者対応トイレ,"設備: 車椅子対応, オストメイト対応, おむつ交換台",#00cc00,139.778987,35.687497
中央区立月島保健センター,東京都 中央区月島二丁目10番3号,3F,3階車椅子使用者対応トイレ,"設備: 車椅子対応, おむつ交換台",#00cc00,139.783954,35.663187
中央区立晴海保健センター,東京都 中央区晴海四丁目８番１号,5F,バリアフリートイレ,"設備: 車椅子対応, オストメイト対応",#00cc00,139.7800373,35.65213826
中央区立京橋図書館 (本の森ちゅうおう),東京都 中央区新富1丁目13番14号,1F,京橋図書館1F車椅子使用者対応トイレ,"設備: 車椅子対応, オストメイト対応, おむつ交換台",#00cc00,139.775553,35.673687
中央区立京橋図書館 (本の森ちゅうおう),東京都 中央区新富1丁目13番14号,2F,京橋図書館2F車椅子使用者対応トイレ,"設備: 車椅子対応, オストメイト対応, おむつ交換台",#00cc00,139.775553,35.673687
中央区立京橋図書館 (本の森ちゅうおう),東京都 中央区新富1丁目13番14号,3F,京橋図書館3F車椅子使用者対応トイレ,"設備: 車椅子対応, オストメイト対応, おむつ交換台",#00cc00,139.775553,35.673687
中央区立京橋図書館 (本の森ちゅうおう),東京都 中央区新富1丁目13番14号,4F,京橋図書館4F車椅子使用者対応トイレ,"設備: 車椅子対応, オストメイト対応, おむつ交換台",#00cc00,139.775553,35.673687
中央区立京橋図書館 (本の森ちゅうおう),東京都 中央区新富1丁目13番14号,5F,京橋図書館5F車椅子使用者対応トイレ,"設備: 車椅子対応, オストメイト対応, おむつ交換台",#00cc00,139.775553,35.673687
中央区立日本橋図書館 (日本橋小学校等複合施設6階),東京都 中央区日本橋人形町一丁目1番17号,6F,６階車椅子使用者対応トイレ,"設備: 車椅子対応, おむつ交換台",#00cc00,139.781491,35.684901
中央区立日本橋図書館 (日本橋小学校等複合施設7階),東京都 中央区日本橋人形町一丁目1番17号,7F,７階車椅子使用者対応トイレ,"設備: 車椅子対応, オストメイト対応",#00cc00,139.781491,35.684901
中央区立月島図書館 (中央区立月島区民センター),東京都 中央区月島四丁目1番1号,3F,車椅子使用者対応トイレ,"設備: 車椅子対応, おむつ交換台",#00cc00,139.782263,35.662138
中央区立晴海図書館,東京都 中央区晴海四丁目８番１号,3F,車椅子使用者対応トイレ,"設備: 車椅子対応, オストメイト対応",#00cc00,139.7800373,35.65213826
中央区立築地社会教育会館 (中央区立築地社会教育会館等複合施設),東京都 中央区築地四丁目15番1号,1F,1階車椅子使用者対応トイレ,"設備: 車椅子対応, オストメイト対応, おむつ交換台",#00cc00,139.768254,35.666363
中央区立築地社会教育会館 (中央区立築地社会教育会館等複合施設),東京都 中央区築地四丁目15番1号,2F,2階車椅子使用者対応トイレ,"設備: 車椅子対応, おむつ交換台",#00cc00,139.768311,35.666363
中央区立築地社会教育会館 (中央区立築地社会教育会館等複合施設),東京都 中央区築地四丁目15番1号,4F,4階車椅子使用者対応トイレ,"設備: 車椅子対応, おむつ交換台",#00cc00,139.768311,35.666363
中央区立日本橋社会教育会館 (中央区立日本橋小学校等複合施設),東京都 中央区日本橋人形町一丁目1番17号,8F,8階車椅子使用者対応トイレ,"設備: 車椅子対応, おむつ交換台",#00cc00,139.781553,35.684831
中央区立日本橋社会教育会館 (中央区立日本橋小学校等複合施設),東京都 中央区日本橋人形町一丁目1番17号,B2F,地下2階車椅子使用者対応トイレ,"設備: 車椅子対応, オストメイト対応, おむつ交換台",#00cc00,139.781576,35.684766
中央区立月島社会教育会館 (中央区月島特別出張所等複合施設),東京都 中央区月島四丁目1番1号,4F,4階車椅子使用者対応トイレ,"設備: 車椅子対応, おむつ交換台",#00cc00,139.782298,35.662143
中央区立月島社会教育会館晴海分館アートはるみ (中央区立月島第三小学校等複合施設),東京都 中央区晴海一丁目4番1号,B1F,地下1階車椅子使用者対応トイレ,"設備: 車椅子対応, オストメイト対応, おむつ交換台",#00cc00,139.786067,35.658858
中央区立中央会館,東京都 中央区銀座二丁目15番6号,1F,中央会館１階レストラン側トイレ,"設備: 車椅子対応, オストメイト対応",#00cc00,139.771336,35.67125
日本橋公会堂,東京都 中央区日本橋蛎殻町一丁目31番1号,2F,2階車椅子使用者対応トイレ,"設備: 車椅子対応, オストメイト対応, おむつ交換台",#00cc00,139.784132,35.682308
水谷橋公園内公衆便所,東京都 中央区銀座一丁目12番6号,1F,車椅子使用者対応トイレ,,#00cc00,139.769838,35.674325
数寄屋橋公園内公衆便所,東京都 中央区銀座五丁目1番1号,1F,車椅子使用者対応トイレ,"設備: 車椅子対応, おむつ交換台",#00cc00,139.762086,35.672389
桜川公園内公衆便所,東京都 中央区入船一丁目1番1号,1F,車椅子使用者対応トイレ,"設備: 車椅子対応, おむつ交換台",#00cc00,139.77699,35.673583
鉄砲洲児童公園内公衆便所,東京都 中央区湊一丁目5番1号,1F,車椅子使用者対応トイレ,"設備: 車椅子対応, おむつ交換台",#00cc00,139.77935,35.671839
元南明橋際公衆便所,東京都 中央区築地七丁目19番1号,1F,車椅子使用者対応トイレ,"設備: 車椅子対応, おむつ交換台",#00cc00,139.775916,35.66669
築地川公園内公衆便所,東京都 中央区明石町10番2号,1F,車椅子使用者対応トイレ,"設備: 車椅子対応, オストメイト対応, おむつ交換台",#00cc00,139.774547,35.667853
はとば公園内公衆便所,東京都 中央区築地六丁目19番24号,1F,車椅子使用者対応トイレ,"設備: 車椅子対応, おむつ交換台",#00cc00,139.774845,35.664137
越前堀児童公園内公衆便所,東京都 中央区新川一丁目12番1号,1F,車椅子使用者対応トイレ,"設備: 車椅子対応, オストメイト対応, おむつ交換台",#00cc00,139.782774,35.676428
新川公園内公衆便所,東京都 中央区新川一丁目31番1号,1F,車椅子使用者対応トイレ,"設備: 車椅子対応, おむつ交換台",#00cc00,139.786142,35.67555
高橋際公衆便所,東京都 中央区新川二丁目9番13号,1F,車椅子使用者対応トイレ,"設備: 車椅子対応, おむつ交換台",#00cc00,139.780336,35.674793
市場橋公園内公衆便所,東京都 中央区築地四丁目15番2号,1F,車椅子使用者対応トイレ,"設備: 車椅子対応, オストメイト対応, おむつ交換台",#00cc00,139.768735,35.665992
常盤公園内公衆便所,東京都 中央区日本橋本石町四丁目4番3号,1F,車椅子使用者対応トイレ,"設備: 車椅子対応, オストメイト対応, おむつ交換台",#00cc00,139.76988,35.687969
堀留児童公園内公衆便所,東京都 中央区日本橋堀留町一丁目1番16号,1F,車椅子使用者対応トイレ,"設備: 車椅子対応, オストメイト対応, おむつ交換台",#00cc00,139.779285,35.686436
十思公園内公衆便所,東京都 中央区日本橋小伝馬町5番2号,1F,車椅子使用者対応トイレ,"設備: 車椅子対応, おむつ交換台",#00cc00,139.77782,35.691114
小網町二丁目公衆便所,東京都 中央区日本橋小網町9番1号先,1F,車椅子使用者対応トイレ,"設備: 車椅子対応, おむつ交換台",#00cc00,139.78003,35.68373
蛎殻町公園内公衆便所,東京都 中央区日本橋蛎殻町二丁目10番6号,1F,車椅子使用者対応トイレ,"設備: 車椅子対応, オストメイト対応, おむつ交換台",#00cc00,139.78728,35.682835
箱崎川第二公園内公衆便所,東京都 中央区日本橋箱崎町3番1号,1F,車椅子使用者対応トイレ,"設備: 車椅子対応, オストメイト対応, おむつ交換台",#00cc00,139.785016,35.680925
箱崎公園内公衆便所,東京都 中央区日本橋箱崎町18番18号,1F,車椅子使用者対応トイレ,"設備: 車椅子対応, おむつ交換台",#00cc00,139.78622,35.679738
左衛門橋際公衆便所,東京都 中央区日本橋馬喰町二丁目7番17号,1F,車椅子使用者対応トイレ,"設備: 車椅子対応, オストメイト対応, おむつ交換台",#00cc00,139.782827,35.696421
千代田公園内公衆便所,東京都 中央区東日本橋一丁目10番2号,1F,車椅子使用者対応トイレ,"設備: 車椅子対応, オストメイト対応, おむつ交換台",#00cc00,139.787553,35.692511
久松児童公園内公衆便所,東京都 中央区日本橋久松町1番1号,1F,車椅子使用者対応トイレ,"設備: 車椅子対応, オストメイト対応, おむつ交換台",#00cc00,139.784554,35.688101
浜町公園内西側公衆便所,東京都 中央区日本橋浜町二丁目59番1号,1F,車椅子使用者対応トイレ,"設備: 車椅子対応, おむつ交換台",#00cc00,139.788468,35.688477
あやめ第一公園内公衆便所,東京都 中央区日本橋中洲14番1号,1F,車椅子使用者対応トイレ,設備: 車椅子対応,#00cc00,139.79084,35.684252
茅場橋際公衆便所,東京都 中央区日本橋茅場町一丁目14番15号,1F,車椅子使用者対応トイレ,"設備: 車椅子対応, おむつ交換台",#00cc00,139.780894,35.68068
新亀島橋際公衆便所,東京都 中央区日本橋茅場町二丁目17番1号,1F,車椅子使用者対応トイレ,"設備: 車椅子対応, おむつ交換台",#00cc00,139.779909,35.677863
佃公園内公衆便所,東京都 中央区佃一丁目11番4号,1F,車椅子使用者対応トイレ,"設備: 車椅子対応, オストメイト対応, おむつ交換台",#00cc00,139.78263,35.668827
月島第一児童公園内公衆便所,東京都 中央区月島四丁目2番1号,1F,車椅子使用者対応トイレ,"設備: 車椅子対応, おむつ交換台",#00cc00,139.783125,35.661723
月島第二児童公園内公衆便所,東京都 中央区勝どき一丁目9番8号,1F,車椅子使用者対応トイレ,"設備: 車椅子対応, オストメイト対応, おむつ交換台",#00cc00,139.776035,35.659574
豊海児童公園内公衆便所,東京都 中央区勝どき六丁目6番6号,1F,車椅子使用者対応トイレ,"設備: 車椅子対応, おむつ交換台",#00cc00,139.773403,35.654164
新月島公園内公衆便所,東京都 中央区晴海一丁目3番29号,1F,車椅子使用者対応トイレ,"設備: 車椅子対応, オストメイト対応, おむつ交換台",#00cc00,139.786349,35.659116
黎明橋公園内公衆便所,東京都 中央区晴海三丁目1番6号,1F,車椅子使用者対応トイレ,"設備: 車椅子対応, オストメイト対応, おむつ交換台",#00cc00,139.77987,35.656708
相生橋際公衆便所,東京都 中央区佃二丁目2番1号,1F,車椅子使用者対応トイレ,"設備: 車椅子対応, おむつ交換台",#00cc00,139.78724,35.666608
石川島公園内公衆便所,東京都 中央区佃二丁目1番5号,1F,車椅子使用者対応トイレ,"設備: 車椅子対応, おむつ交換台",#00cc00,139.78549,35.671078
晴海第一公園内公衆便所,東京都 中央区晴海一丁目7番3号,1F,車椅子使用者対応トイレ,"設備: 車椅子対応, おむつ交換台",#00cc00,139.785052,35.658579
晴海臨海公園内公衆便所,東京都 中央区晴海二丁目4番27号,1F,車椅子使用者対応トイレ,"設備: 車椅子対応, オストメイト対応, おむつ交換台",#00cc00,139.783377,35.654218
月島三丁目児童遊園内公衆便所,東京都 中央区月島三丁目1番1号先,1F,車椅子使用者対応トイレ,"設備: 車椅子対応, オストメイト対応, おむつ交換台",#00cc00,139.780427,35.664405
佃大橋東公衆便所,東京都 中央区佃一丁目8番10号先,1F,車椅子使用者対応トイレ,"設備: 車椅子対応, オストメイト対応, おむつ交換台",#00cc00,139.782926,35.66651
佃三丁目公園内公衆便所,東京都 中央区佃三丁目12番,1F,車椅子使用者対応トイレ,"設備: 車椅子対応, オストメイト対応, おむつ交換台",#00cc00,139.787134,35.663531
豊海運動公園内公衆便所,東京都 中央区豊海町3番19号,1F,車椅子使用者対応トイレ,"設備: 車椅子対応, オストメイト対応, おむつ交換台",#00cc00,139.772262,35.653335
坂本町公園内公衆便所,東京都 中央区日本橋兜町１５番２号,1F,車椅子使用者対応トイレ,"設備: 車椅子対応, オストメイト対応, おむつ交換台",#00cc00,139.777432,35.680017
新京橋際公衆便所,東京都 中央区京橋三丁目11番8号,1F,車椅子使用者対応トイレ,"設備: 車椅子対応, オストメイト対応, おむつ交換台",#00cc00,139.771577,35.674444
京橋際公衆便所,東京都 中央区銀座一丁目2番4号,1F,車椅子使用者対応トイレ,"設備: 車椅子対応, おむつ交換台",#00cc00,139.768659,35.674971
元木挽橋際公衆便所,東京都 中央区銀座六丁目13番2号,1F,車椅子使用者対応トイレ,"設備: 車椅子対応, おむつ交換台",#00cc00,139.765351,35.669262
出雲橋際公衆便所,東京都 中央区銀座七丁目12番9号,1F,車椅子使用者対応トイレ,"設備: 車椅子対応, オストメイト対応, おむつ交換台",#00cc00,139.763646,35.667909
元八通八橋際公衆便所,東京都 中央区銀座八丁目11番8号先,1F,車椅子使用者対応トイレ,"設備: 車椅子対応, オストメイト対応, おむつ交換台",#00cc00,139.762119,35.667226
佃大橋西詰公衆便所,東京都 中央区明石町6番9号先,1F,車椅子使用者対応トイレ,"設備: 車椅子対応, オストメイト対応, おむつ交換台",#00cc00,139.780131,35.668361
築地二丁目公衆便所,東京都 中央区築地二丁目13番7号,1F,車椅子使用者対応トイレ,"設備: 車椅子対応, おむつ交換台",#00cc00,139.771788,35.667714
中央市場脇公衆便所,東京都 中央区築地五丁目2番1号,1F,車椅子使用者対応トイレ,"設備: 車椅子対応, オストメイト対応, おむつ交換台",#00cc00,139.77063,35.660745
門跡橋東公衆便所,東京都 中央区築地六丁目1番11号,1F,車椅子使用者対応トイレ,"設備: 車椅子対応, オストメイト対応, おむつ交換台",#00cc00,139.772133,35.66535
霊岸橋際公衆便所,東京都 中央区新川一丁目3番1号,1F,車椅子使用者対応トイレ,"設備: 車椅子対応, オストメイト対応, おむつ交換台",#00cc00,139.781723,35.678888
東新川橋際公衆便所,東京都 中央区新川一丁目25番9号,1F,車椅子使用者対応トイレ,"設備: 車椅子対応, おむつ交換台",#00cc00,139.78471,35.676405
亀島橋際公衆便所,東京都 中央区新川二丁目9番1号,1F,車椅子使用者対応トイレ,"設備: 車椅子対応, おむつ交換台",#00cc00,139.779179,35.676187
江戸桜通り地下公衆便所,東京都 中央区日本橋室町一丁目5番7号,B1F,車椅子使用者対応トイレ,"設備: 車椅子対応, オストメイト対応, おむつ交換台",#00cc00,139.774365,35.686224
日本橋際公衆便所,東京都 中央区日本橋室町一丁目8番1号先,1F,車椅子使用者対応トイレ,"設備: 車椅子対応, オストメイト対応, おむつ交換台",#00cc00,139.774883,35.684413
江戸橋際公衆便所,東京都 中央区日本橋本町一丁目10番1号先,1F,車椅子使用者対応トイレ,"設備: 車椅子対応, おむつ交換台",#00cc00,139.777275,35.684719
隅田川大橋際公衆便所,東京都 中央区日本橋箱崎町19番35号先,1F,車椅子使用者対応トイレ,"設備: 車椅子対応, おむつ交換台",#00cc00,139.787828,35.679333
箱崎町公衆便所,東京都 中央区日本橋箱崎町22番7号,1F,車椅子使用者対応トイレ,"設備: 車椅子対応, おむつ交換台",#00cc00,139.78621,35.68098
菖蒲橋際公衆便所,東京都 中央区日本橋浜町三丁目17番9号,1F,車椅子使用者対応トイレ,"設備: 車椅子対応, おむつ交換台",#00cc00,139.789681,35.683646
西河岸橋際公衆便所,東京都 中央区八重洲一丁目1番1号先,1F,車椅子使用者対応トイレ,"設備: 車椅子対応, オストメイト対応, おむつ交換台",#00cc00,139.772871,35.684048
海運橋際公衆便所,東京都 中央区日本橋一丁目21番7号先,1F,車椅子使用者対応トイレ,"設備: 車椅子対応, おむつ交換台",#00cc00,139.777136,35.682224
浜町緑道内公衆便所,東京都 中央区日本橋人形町二丁目36番12号,1F,車椅子使用者対応トイレ,"設備: 車椅子対応, オストメイト対応, おむつ交換台",#00cc00,139.786088,35.686467
西仲橋際公衆便所,東京都 中央区月島三丁目31番1号,1F,車椅子使用者対応トイレ,"設備: 車椅子対応, オストメイト対応, おむつ交換台",#00cc00,139.77841,35.661286
勝どき見晴らし公園内公衆便所,東京都 中央区勝どき五丁目7番先,1F,車椅子使用者対応トイレ,"設備: 車椅子対応, オストメイト対応, おむつ交換台",#00cc00,139.77029,35.657534
久安橋際公衆便所,東京都 中央区八丁堀二丁目1番１号,1F,車椅子使用者対応トイレ,"設備: 車椅子対応, オストメイト対応, おむつ交換台",#00cc00,139.774953,35.677715
亀井橋際公衆便所,東京都 中央区銀座二丁目１６番８号先,1F,車椅子使用者対応トイレ,"設備: 車椅子対応, おむつ交換台",#00cc00,139.770775,35.670451
新場橋際公衆便所,東京都 中央区日本橋兜町１８番１号,1F,車椅子使用者対応トイレ,"設備: 車椅子対応, おむつ交換台",#00cc00,139.775928,35.679242
佃小橋際公衆便所,東京都 中央区佃一丁目１０番１１号,1F,車椅子使用者対応トイレ,"設備: 車椅子対応, おむつ交換台",#00cc00,139.783498,35.667347
元豊玉橋際公衆便所,東京都 中央区銀座二丁目9番10号,1F,車椅子使用者対応トイレ,"設備: 車椅子対応, オストメイト対応, おむつ交換台",#00cc00,139.767924,35.672344
豊海橋際公衆便所,東京都 中央区日本橋箱崎町19番1号,1F,車椅子使用者対応トイレ,"設備: 車椅子対応, オストメイト対応, おむつ交換台",#00cc00,139.786931,35.677701
元備前橋際公衆便所,東京都 中央区築地七丁目5番16号,1F,車椅子使用車対応トイレ,"設備: 車椅子対応, オストメイト対応, おむつ交換台",#00cc00,139.773442,35.666309
あかつき公園内西側公衆便所,東京都 中央区築地七丁目19番2号,1F,車椅子使用車対応トイレ,"設備: 車椅子対応, オストメイト対応, おむつ交換台",#00cc00,139.775479,35.66679
元新月橋際公衆便所,東京都 中央区月島一丁目２番９号,1F,元新月橋際公衆便所,"設備: 車椅子対応, オストメイト対応, おむつ交換台",#00cc00,139.783343,35.665218
湊橋際公衆便所,東京都 中央区新川一丁目１番１号,1F,車椅子使用者対応トイレ,"設備: 車椅子対応, オストメイト対応, おむつ交換台",#00cc00,139.7830206,35.67906643
勝どき四丁目公衆便所,東京都 中央区勝どき四丁目１３番９号,1F,車椅子使用者対応トイレ,"設備: 車椅子対応, オストメイト対応, おむつ交換台",#00cc00,139.7753586,35.65621302
晴海五丁目ターミナル内公衆便所,東京都 中央区晴海五丁目１番３０号,1F,車椅子使用者対応トイレ,"設備: 車椅子対応, オストメイト対応, おむつ交換台",#00cc00,139.772751,35.65180721
中央区立総合スポーツセンター (中央区立総合スポーツセンター),東京都 中央区日本橋浜町二丁目59番1号,1F,1階だれでもトイレ,利用時間について・トレーニング（1階）、プール（地下2階）、ゴルフ練習場（地下1階）は7時〜21時30分・その他施設は9時〜21時30分 | 設備: 車椅子対応,#00cc00,139.789295,35.687888
中央区立総合スポーツセンター (中央区立総合スポーツセンター),東京都 中央区日本橋浜町二丁目59番1号,2F,2階だれでもトイレ,"設備: 車椅子対応, オストメイト対応",#00cc00,139.789115,35.687838
中央区立総合スポーツセンター (中央区立総合スポーツセンター),東京都 中央区日本橋浜町二丁目59番1号,5F,5階だれでもトイレ,設備: 車椅子対応,#00cc00,139.789066,35.687886
中央区立総合スポーツセンター (中央区立総合スポーツセンター),東京都 中央区日本橋浜町二丁目59番1号,B1F,B1階だれでもトイレ,利用時間について・トレーニング（1階）、プール（地下2階）、ゴルフ練習場（地下1階）は7時〜21時30分・その他施設は9時〜21時30分 | 設備: 車椅子対応,#00cc00,139.789561,35.687795
中央区立総合スポーツセンター (中央区立総合スポーツセンター),東京都 中央区日本橋浜町二丁目59番1号,B2F,B2階プール内だれでもトイレ,利用時間について・トレーニング（1階）、プール（地下2階）、ゴルフ練習場（地下1階）は7時〜21時30分・その他施設は9時〜21時30分※本トイレは、プール更衣室内にあるトイレであり、プール利用者のみが利用可。 | 設備: 車椅子対応,#00cc00,139.789184,35.687714
中央区立総合スポーツセンター (中央区立総合スポーツセンター),東京都 中央区日本橋浜町二丁目59番1号,B2F,B2階第2競技場だれでもトイレ,"設備: 車椅子対応, おむつ交換台",#00cc00,139.789333,35.687776
中央区立月島スポーツプラザ,東京都 中央区月島一丁目9番2号,B1F,地下1階プールだれでもトイレ,プール（有料ゲート通過後）の更衣室内にあるトイレ　 | 設備: 車椅子対応,#00cc00,139.783039,35.665115
中央区立月島スポーツプラザ,東京都 中央区月島一丁目9番2号,1F,1階だれでもトイレ,"設備: 車椅子対応, オストメイト対応, おむつ交換台",#00cc00,139.783039,35.665115
子ども家庭支援センター「きらら中央」 (子ども家庭支援センター「きらら中央」勝どき分室),東京都 中央区勝どき一丁目4番1号,3F,車椅子使用者対応トイレ,"設備: 車椅子対応, おむつ交換台",#00cc00,139.777205,35.660344
築地児童館 (築地児童館),東京都 中央区築地七丁目9番17号,1F,１階車椅子使用者対応トイレ,"設備: 車椅子対応, おむつ交換台",#00cc00,139.775873,35.666213
新川児童館 (明正小学校等複合施設5・6階),東京都 中央区新川二丁目13番4号,5F,車椅子使用者対応トイレ,"設備: 車椅子対応, オストメイト対応, おむつ交換台",#00cc00,139.781689,35.676103
堀留町児童館 (日本橋保健センター等複合施設6・7階),東京都 中央区日本橋堀留町一丁目1番1号,6F,６階車椅子使用者対応トイレ,"設備: 車椅子対応, おむつ交換台",#00cc00,139.779001,35.687426
月島児童館 (月島区民センター２階),東京都 中央区月島四丁目1番1号,2F,車椅子使用者対応トイレ,"設備: 車椅子対応, おむつ交換台",#00cc00,139.782333,35.662124
勝どき児童館 (勝どきビュータワー4階),東京都 中央区勝どき一丁目8番1号,4F,車椅子使用者対応トイレ,"設備: 車椅子対応, オストメイト対応, おむつ交換台",#00cc00,139.776667,35.65953
晴海児童館 (晴海児童館),東京都 中央区晴海二丁目4番31号,1F,車椅子使用者対応トイレ,"設備: 車椅子対応, オストメイト対応, おむつ交換台",#00cc00,139.783879,35.655024
十思スクエア (十思スクエア本館),東京都 中央区日本橋小伝馬町5番地1号,1F,１階車椅子使用者対応トイレ,"設備: 車椅子対応, おむつ交換台",#00cc00,139.777312,35.690748
十思スクエア別館 (十思スクエア別館),東京都 中央区日本橋小伝馬町5番地19号,1F,１階車椅子使用者対応トイレ,"設備: 車椅子対応, オストメイト対応, おむつ交換台",#00cc00,139.777451,35.690827
十思スクエア別館 (十思スクエア別館),東京都 中央区日本橋小伝馬町5番地19号,2F,２階車椅子使用者対応トイレ,"設備: 車椅子対応, おむつ交換台",#00cc00,139.777451,35.690827
障害者就労促進施設「さわやかワーク中央」 (障害者就労促進施設「さわやかワーク中央」),東京都 中央区東日本橋二丁目27番12号,4F,４階車椅子使用者対応トイレ,"設備: 車椅子対応, おむつ交換台",#00cc00,139.785739,35.695438
中央区立シニアセンター (中央区立シニアセンター),東京都 中央区佃一丁目11番1号,1F,1階車椅子使用者対応トイレ,"設備: 車椅子対応, おむつ交換台",#00cc00,139.784789,35.66898
中央区立シニアセンター (中央区立シニアセンター),東京都 中央区佃一丁目11番1号,2F,2階車椅子使用者対応トイレ,"設備: 車椅子対応, おむつ交換台",#00cc00,139.784789,35.66898
人形町おとしより相談センター (日本橋医師会人形町ビル),東京都 中央区日本橋人形町二丁目32番4号,2F,人形町おとしより相談センター　2階車椅子使用者対応トイレ,設備: 車椅子対応,#00cc00,139.78556,35.68625
勝どきおとしより相談センター (勝どき　ザ・リバーフロント),東京都 中央区勝どき五丁目1番17号,1F,勝どきおとしより相談センター　１階車椅子使用者対応トイレ,"設備: 車椅子対応, オストメイト対応",#00cc00,139.772648,35.657878
中央区営銀座地下駐車場,東京都 中央区銀座七丁目17番12号先,B1F,車椅子使用者対応トイレ,設備: 車椅子対応,#00cc00,139.76512,35.66631
中央区営浜町公園地下駐車場,東京都 中央区日本橋浜町二丁目59番4号,B1F,車椅子使用者対応トイレ,設備: 車椅子対応,#00cc00,139.787466,35.688917
築地魚河岸 (築地魚河岸小田原橋棟),東京都 中央区築地六丁目26番1号,1F,バリアフリートイレ,"原則、中央卸売市場の開市日に合わせて営業しています。祝日等により、営業日が変動します。 | 設備: 車椅子対応, オストメイト対応, おむつ交換台",#00cc00,139.7715,35.665137
築地魚河岸 (築地魚河岸海幸橋棟),東京都 中央区築地六丁目27番1号,1F,バリアフリートイレ,"原則、中央卸売市場の開市日に合わせて営業しています。祝日等により、営業日が変動します。 | 設備: 車椅子対応, オストメイト対応, おむつ交換台",#00cc00,139.770274,35.664331
築地場外市場地区まちづくり支援施設（店舗施設） (築地場外市場地区まちづくり支援施設（店舗施設）),東京都 中央区築地四丁目16番1号,1F,バリアフリートイレ,"原則、中央卸売市場の開市日に合わせて営業しています。祝日等により、営業日が変動します。 | 設備: 車椅子対応, おむつ交換台",#00cc00,139.769574,35.665167
中央区立晴海地域交流センター,東京都 中央区晴海五丁目２番３号,1F,バリアフリートイレ,"設備: 車椅子対応, オストメイト対応, おむつ交換台",#00cc00,139.7750353,35.65176872
中央区立晴海地域交流センター,東京都 中央区晴海五丁目２番３号,2F,バリアフリートイレ,"設備: 車椅子対応, オストメイト対応",#00cc00,139.7748104,35.65202248
中央区立晴海地域交流センター,東京都 中央区晴海五丁目２番３号,3F,バリアフリートイレ,"設備: 車椅子対応, オストメイト対応",#00cc00,139.7748104,35.65202248
中央区立晴海地域交流センター,東京都 中央区晴海五丁目２番３号,3Fトレーニングスタジオ内,バリアフリートイレ,"設備: 車椅子対応, オストメイト対応",#00cc00,139.7750353,35.65176872