name,address,floor,toilet_name,note,color,lng,lat
水元公園,東京都 葛飾区水元公園4番地,1F,11号トイレ,"こちらのトイレはサブアリーナをご利用いただく方にお使いいただけます | 設備: 車椅子対応, おむつ交換台",#00cc00,139.868547,35.792797
水元公園,東京都 葛飾区東金町五丁目53番,1F,12号トイレ,"こちらのトイレはサブアリーナご利用の方にお使いいただけます | 設備: 車椅子対応, おむつ交換台",#00cc00,139.882708,35.779197
水元公園,東京都 葛飾区東金町八丁目7番,1F,13号トイレ,こちらのトイレはメインアリーナをご利用いただく方にお使いいただけます | 設備: 車椅子対応,#00cc00,139.88397,35.781537
水元公園,東京都 葛飾区東金町八丁目32番,1F,14号トイレ,"こちらのトイレはメインアリーナをご利用いただく方にお使いいただけます | 設備: 車椅子対応, おむつ交換台",#00cc00,139.885783,35.782326
水元公園,東京都 葛飾区水元公園1番地,1F,15号トイレ,"こちらのトイレはメインアリーナをご利用いただく方にお使いいただけます | 設備: 車椅子対応, おむつ交換台",#00cc00,139.877585,35.780656
水元公園,東京都 葛飾区東水元二丁目41番,1F,16号トイレ,"こちらのトイレはメインアリーナをご利用いただく方にお使いいただけます | 設備: 車椅子対応, おむつ交換台",#00cc00,139.869401,35.782677
水元公園,東京都 葛飾区東金町八丁目28番,1F,17号トイレ,"こちらのトイレはメインアリーナをご利用いただく方にお使いいただけます | 設備: 車椅子対応, オストメイト対応, おむつ交換台",#00cc00,139.887126,35.782268
水元公園,東京都 葛飾区東水元8番8号,1F,18号トイレ,"こちらのトイレはプールをご利用いただく方にお使いいただけます | 設備: 車椅子対応, オストメイト対応, おむつ交換台",#00cc00,139.859872,35.793839
水元公園,東京都 葛飾区水元公園2番地,1F,2号トイレ,"こちらはジム・プールをご利用いただく方にお使いいただけます | 設備: 車椅子対応, おむつ交換台",#00cc00,139.871706,35.782085
水元公園,東京都 葛飾区水元公園3番地,1F,4号トイレ,"こちらのトイレはジム・プールをご利用いただく方にお使いいただけます | 設備: 車椅子対応, おむつ交換台",#00cc00,139.869666,35.784984
水元公園,東京都 葛飾区水元公園4番地,1F,5号トイレ,"こちらのトイレはジム・プールをご利用いただく方にお使いいただけます | 設備: 車椅子対応, おむつ交換台",#00cc00,139.869486,35.788542
水元公園,東京都 葛飾区水元公園4番地9号,1F,6号トイレ（女性用）,こちらのトイレは施設をご利用いただく方にお使いいただけます。 | 設備: 車椅子対応,#00cc00,139.869622,35.79077
水元公園,東京都 葛飾区水元公園4番地9号,1F,6号トイレ（男性用）,こちらのトイレはメインアリーナをご利用いただく方にお使いいただけます | 設備: 車椅子対応,#00cc00,139.869668,35.790769
水元公園,東京都 葛飾区水元公園5番地9号,1F,7号トイレ,"こちらのトイレはメインアリーナをご利用いただく方にお使いいただけます | 設備: 車椅子対応, オストメイト対応, おむつ交換台",#00cc00,139.871356,35.791832
水元公園,東京都 葛飾区水元公園7番地9号,1F,8号トイレ,"こちらのトイレはメインアリーナをご利用いただく方にお使いいただけます | 設備: 車椅子対応, オストメイト対応, おむつ交換台",#00cc00,139.871564,35.795198
水元公園,東京都 葛飾区水元公園7番地,1F,9号トイレ,"こちらのトイレはメインアリーナをご利用いただく方にお使いいただけます | 設備: 車椅子対応, オストメイト対応, おむつ交換台",#00cc00,139.867452,35.79455
水元公園,東京都 葛飾区水元公園7番地2号,1F,グリーンプラザ内トイレ,"こちらのトイレは施設をご利用いただく方にお使いいただけます。 | 設備: 車椅子対応, おむつ交換台",#00cc00,139.871166,35.795779
水元公園,東京都 葛飾区水元公園1番地1号,1F,生き物館内トイレ,"設備: 車椅子対応, オストメイト対応",#00cc00,139.878289,35.780776
水元公園,東京都 葛飾区水元公園3番地,1F,涼亭,"設備: 車椅子対応, おむつ交換台",#00cc00,139.870299,35.785413
東京都水道局葛飾営業所,東京都 葛飾区立石八丁目17番4号,1F,車いす使用者対応トイレ,"設備: 車椅子対応, おむつ交換台",#00cc00,139.853302,35.741298
本田消防署奥戸出張所,東京都 葛飾区奥戸六丁目10番9号,1F,だれでもトイレ,"設備: 車椅子対応, オストメイト対応, おむつ交換台",#00cc00,139.86713,35.735902
金町消防署,東京都 葛飾区金町四丁目15番20号,1F,だれでもトイレ,"設備: 車椅子対応, オストメイト対応, おむつ交換台",#00cc00,139.865272,35.764106
金町消防署亀有出張所,東京都 葛飾区亀有一丁目26番5号,1F,多機能トイレ,設備: 車椅子対応,#00cc00,139.84627,35.76201
本田消防署青戸出張所,東京都 葛飾区青戸七丁目1番2号,2F,誰でもトイレ,"設備: 車椅子対応, オストメイト対応, おむつ交換台",#00cc00,139.8522343,35.75191398
葛飾区総合庁舎,東京都 葛飾区立石五丁目13番1号,2F,新館2階西側バリアフリートイレ,"設備: 車椅子対応, オストメイト対応, おむつ交換台",#00cc00,139.847013,35.743472
葛飾区総合庁舎,東京都 葛飾区立石五丁目13番1号,2F,第2厚生棟２階バリアフリートイレ,設備: 車椅子対応,#00cc00,139.846936,35.743114
葛飾区総合庁舎,東京都 葛飾区立石五丁目13番1号,2F,本館2階東側バリアフリートイレ,"設備: 車椅子対応, 大型ベッド, おむつ交換台",#00cc00,139.847679,35.743277
葛飾区総合庁舎,東京都 葛飾区立石五丁目13番1号,3F,新館3階西側バリアフリートイレ,"設備: 車椅子対応, オストメイト対応, おむつ交換台",#00cc00,139.847013,35.743472
葛飾区総合庁舎,東京都 葛飾区立石五丁目13番1号,4F,新館4階東側バリアフリートイレ,"設備: 車椅子対応, オストメイト対応, おむつ交換台",#00cc00,139.847013,35.743472
葛飾区保健所及び子ども総合センター（「健康プラザかつしか」）,東京都 葛飾区青戸4-15-14,1F,名称なし,"設備: 車椅子対応, 大型ベッド",#00cc00,139.850533,35.751482
葛飾区保健所及び子ども総合センター（「健康プラザかつしか」）,東京都 葛飾区青戸4-15-14,2F,名称なし,"設備: 車椅子対応, オストメイト対応, 大型ベッド",#00cc00,139.850533,35.751485
葛飾区保健所及び子ども総合センター（「健康プラザかつしか」）,東京都 葛飾区青戸4-15-14,3F,名称なし,"設備: 車椅子対応, 大型ベッド",#00cc00,139.850533,35.751487
金町保健センター,東京都 葛飾区金町4-18-19,1F,名称なし,"設備: 車椅子対応, オストメイト対応, 大型ベッド, おむつ交換台",#00cc00,139.865088,35.764674
水元図書館,東京都 葛飾区東水元1-7-3,1F,バリアフリートイレ,設備: 車椅子対応,#00cc00,139.867564,35.778913
鎌倉図書館,東京都 葛飾区鎌倉2-4-5,1F,バリアフリートイレ,"設備: 車椅子対応, おむつ交換台",#00cc00,139.875337,35.745244
亀有図書館 (（都営住宅５号棟１階）),東京都 葛飾区亀有1-17-5,1F,バリアフリートイレ,「ドアーが締まります」のアナウンスのみ | 設備: 車椅子対応,#00cc00,139.846027,35.759186
立石図書館,東京都 葛飾区立石1-9-1,1F,バリアフリートイレ,"表示はマークのみだが、ホームページ等では「だれでもトイレ」として紹介 | 設備: 車椅子対応, オストメイト対応, 大型ベッド",#00cc00,139.845692,35.737232
四つ木地区図書館 ((よつぎ小学校内)),東京都 葛飾区四つ木4-8-1,1F,バリアフリートイレ,"設備: 車椅子対応, おむつ交換台",#00cc00,139.834171,35.737055
中央図書館 (（ヴィナシス金町ブライトコート3階）),東京都 葛飾区金町6-2-1,3F,バリアフリートイレ,"携帯ラジオによる音声案内システム | 設備: 車椅子対応, オストメイト対応, 大型ベッド",#00cc00,139.871165,35.768102
中央図書館 (（ヴィナシス金町ブライトコート3階）),東京都 葛飾区金町6-2-1,3F,バリアフリートイレ,"携帯ラジオによる音声案内システム | 設備: 車椅子対応, オストメイト対応, 大型ベッド",#00cc00,139.87116,35.768106
お花茶屋図書館,東京都 葛飾区お花茶屋2-1-15,1F,バリアフリートイレ,設備: 車椅子対応,#00cc00,139.838698,35.751165
お花茶屋図書館,東京都 葛飾区お花茶屋2-1-15,3F,バリアフリートイレ,設備: 車椅子対応,#00cc00,139.838698,35.751164
にいじゅく地区図書館,東京都 葛飾区新宿3-7-1 東京かつしか赤十字母子医療センター内,1F,表示はマークのみ。,"図書館内 | 設備: 車椅子対応, オストメイト対応, おむつ交換台",#00cc00,139.862189,35.761455
こすげ地区図書館,東京都 葛飾区小菅3-8-22 こすげ小学校敷地内,1F,バリアフリートイレ,"Ｒ3.1に建物リース契約完了後、区に譲渡されたため | 設備: 車椅子対応, オストメイト対応, おむつ交換台",#00cc00,139.824976,35.753868
葛飾区科学教育センター,東京都 葛飾区新宿6-3-2,1F,バリアフリートイレ,"設備: 車椅子対応, オストメイト対応, おむつ交換台",#00cc00,139.862198,35.7722
かつしかｼﾝﾌｫﾆｰﾋﾙｽﾞ本館,東京都 葛飾区立石6-33-1,1F,バリアフリートイレ,"設備: 車椅子対応, オストメイト対応, 大型ベッド, おむつ交換台",#00cc00,139.8522684,35.74244832
かつしかｼﾝﾌｫﾆｰﾋﾙｽﾞ別館,東京都 葛飾区立石6-33-1,1F,バリアフリートイレ,設備: 車椅子対応,#00cc00,139.8529006,35.74245283
にこわ新小岩,東京都 葛飾区新小岩4-33-2,1F,-,"設備: 車椅子対応, オストメイト対応, 大型ベッド",#00cc00,139.85357,35.71888
にこわ新小岩,東京都 葛飾区新小岩4-33-2,2F,-,"設備: 車椅子対応, 大型ベッド",#00cc00,139.85357,35.71888
にこわ新小岩,東京都 葛飾区新小岩4-33-2,3F,-,"設備: 車椅子対応, オストメイト対応",#00cc00,139.85357,35.71888
奥戸総合スポーツセンター温水プール館　少年野球場,東京都 葛飾区高砂１−2−１,1F,名称なし（ピクトグラムのみ）,"設備: 車椅子対応, オストメイト対応, おむつ交換台",#00cc00,139.86391,35.74091
奥戸スポーツセンター公園（中央）,東京都 葛飾区奥戸7-17-1,1F,,設備: 車椅子対応,#00cc00,139.86043,35.735587
えきにこわ,東京都 葛飾区新小岩1-45-1 JR新小岩南口ビル6階,6F,バリアフリートイレ,"設備: 車椅子対応, オストメイト対応, 大型ベッド, おむつ交換台",#00cc00,139.858195,35.716489
葛飾区児童相談所,東京都 葛飾区立石2-30-1,1F,バリアフリートイレ,"設備: 車椅子対応, オストメイト対応, 大型ベッド, おむつ交換台",#00cc00,139.841603,35.740483
子ども未来プラザ鎌倉,東京都 葛飾区鎌倉1-7-3,1F,バリアフリートイレ,"設備: 車椅子対応, オストメイト対応, おむつ交換台",#00cc00,139.8771318,35.74377032
子ども未来プラザ東四つ木,東京都 葛飾区東四つ木2-15-11,1F,バリアフリートイレ,"設備: 車椅子対応, オストメイト対応, 大型ベッド, おむつ交換台",#00cc00,139.8436586,35.73091299
子ども未来プラザ東四つ木,東京都 葛飾区東四つ木2-15-11,3F,バリアフリートイレ,"設備: 車椅子対応, オストメイト対応, 大型ベッド, おむつ交換台",#00cc00,139.8437316,35.73092971