name,address,floor,toilet_name,note,color,lng,lat
新宿駅 (小田原線),東京都 新宿区西新宿1丁目1番3号,B1F,多目的トイレ,"鉄道会社: 小田急電鉄 | 路線: 小田原線 | 設備: 車椅子対応, オストメイト対応, 大型ベッド",#0066cc,139.699413,35.69078
新宿駅 (小田原線),東京都 新宿区西新宿1丁目1番3号,B1F,多目的トイレ,"鉄道会社: 小田急電鉄 | 路線: 小田原線 | 設備: 車椅子対応, オストメイト対応, 大型ベッド",#0066cc,139.699413,35.69078
新宿駅 (小田原線),東京都 新宿区西新宿1丁目1番3号,2F,多目的トイレ,"非常用呼び出しはインターホン | 鉄道会社: 小田急電鉄 | 路線: 小田原線 | 設備: 車椅子対応, オストメイト対応",#0066cc,139.699955,35.689631
新宿駅 (小田原線),東京都 新宿区西新宿1丁目1番3号,2F,多目的トイレ,"非常用呼び出しはインターホン | 鉄道会社: 小田急電鉄 | 路線: 小田原線 | 設備: 車椅子対応, オストメイト対応",#0066cc,139.699955,35.689631
南新宿駅 (小田原線),東京都 渋谷区代々木2丁目29番16号,2F,多目的トイレ,"非常用呼び出しはインターホン | 鉄道会社: 小田急電鉄 | 路線: 小田原線 | 設備: 車椅子対応, オストメイト対応, 大型ベッド",#0066cc,139.698941,35.683703
参宮橋駅 (小田原線),東京都 渋谷区代々木4丁目6番7号,1F,多目的トイレ,"鉄道会社: 小田急電鉄 | 路線: 小田原線 | 設備: 車椅子対応, オストメイト対応, 大型ベッド",#0066cc,139.693507,35.678625
代々木八幡駅 (小田原線),東京都 渋谷区代々木5丁目6番1号,2F,多目的トイレ,"点字ブロックはトイレの手前まで／大型ベッドはおむつ交換台としても使える | 鉄道会社: 小田急電鉄 | 路線: 小田原線 | 設備: 車椅子対応, オストメイト対応",#0066cc,139.688794,35.669666
代々木八幡駅 (小田原線),東京都 渋谷区代々木5丁目6番1号,2F,多目的トイレ,"点字ブロックはトイレの手前まで／大型ベッドはおむつ交換台としても使える | 鉄道会社: 小田急電鉄 | 路線: 小田原線 | 設備: 車椅子対応, オストメイト対応",#0066cc,139.688824,35.669677
代々木上原駅 (小田原線),東京都 渋谷区西原3丁目8番5号,1F,多目的トイレ,"鉄道会社: 小田急電鉄 | 路線: 小田原線 | 設備: 車椅子対応, オストメイト対応, 大型ベッド, おむつ交換台",#0066cc,139.67994,35.6692
代々木上原駅 (小田原線),東京都 渋谷区西原3丁目8番6号,1F,多目的トイレ,"鉄道会社: 小田急電鉄 | 路線: 小田原線 | 設備: 車椅子対応, オストメイト対応, 大型ベッド, おむつ交換台",#0066cc,139.679978,35.669195
東北沢駅 (小田原線),東京都 世田谷区北沢3丁目1番4号,1F,ファミリートイレ,"鉄道会社: 小田急電鉄 | 路線: 小田原線 | 設備: 車椅子対応, おむつ交換台",#0066cc,139.672875,35.665486
東北沢駅 (小田原線),東京都 世田谷区北沢3丁目1番4号,1F,多目的トイレ,"鉄道会社: 小田急電鉄 | 路線: 小田原線 | 設備: 車椅子対応, オストメイト対応, 大型ベッド",#0066cc,139.6729,35.665505
下北沢駅 (小田原線),東京都 世田谷区北沢2丁目24番2号,1F,多目的トイレ,"鉄道会社: 小田急電鉄 | 路線: 小田原線 | 設備: 車椅子対応, オストメイト対応, 大型ベッド",#0066cc,139.666613,35.661022
下北沢駅 (小田原線),東京都 世田谷区北沢2丁目24番2号,1F,多目的トイレ,"鉄道会社: 小田急電鉄 | 路線: 小田原線 | 設備: 車椅子対応, オストメイト対応, 大型ベッド",#0066cc,139.666613,35.661022
下北沢駅 (小田原線),東京都 世田谷区北沢2丁目24番2号,B2F,多目的トイレ,"鉄道会社: 小田急電鉄 | 路線: 小田原線 | 設備: 車椅子対応, オストメイト対応, 大型ベッド",#0066cc,139.665866,35.660495
世田谷代田駅 (小田原線),東京都 世田谷区代田2丁目31番12号,1F,多目的トイレ,"鉄道会社: 小田急電鉄 | 路線: 小田原線 | 設備: 車椅子対応, オストメイト対応, 大型ベッド",#0066cc,139.661273,35.658257
世田谷代田駅 (小田原線),東京都 世田谷区代田2丁目31番12号,1F,ファミリートイレ,"鉄道会社: 小田急電鉄 | 路線: 小田原線 | 設備: 車椅子対応, おむつ交換台",#0066cc,139.661266,35.658255
梅ヶ丘駅 (小田原線),東京都 世田谷区梅丘1丁目31番21号,1F,多目的トイレ,"鉄道会社: 小田急電鉄 | 路線: 小田原線 | 設備: 車椅子対応, オストメイト対応, 大型ベッド, おむつ交換台",#0066cc,139.653609,35.655937
豪徳寺駅 (小田原線),東京都 世田谷区豪徳寺1丁目43番4号,1F,多目的トイレ,"鉄道会社: 小田急電鉄 | 路線: 小田原線 | 設備: 車椅子対応, オストメイト対応, 大型ベッド, おむつ交換台",#0066cc,139.647552,35.653716
経堂駅 (小田原線),東京都 世田谷区経堂2丁目1番3号,1F,多目的トイレ,"鉄道会社: 小田急電鉄 | 路線: 小田原線 | 設備: 車椅子対応, オストメイト対応, 大型ベッド",#0066cc,139.636437,35.651324
千歳船橋駅 (小田原線),東京都 世田谷区船橋1丁目1番5号,1F,多目的トイレ,"鉄道会社: 小田急電鉄 | 路線: 小田原線 | 設備: 車椅子対応, オストメイト対応, 大型ベッド",#0066cc,139.624147,35.647479
祖師ヶ谷大蔵駅 (小田原線),東京都 世田谷区祖師谷1丁目7番1号,1F,多目的トイレ,"鉄道会社: 小田急電鉄 | 路線: 小田原線 | 設備: 車椅子対応, オストメイト対応, 大型ベッド",#0066cc,139.609625,35.643316
成城学園前駅 (小田原線),東京都 世田谷区成城6丁目5番34号,1F,多目的トイレ,"鉄道会社: 小田急電鉄 | 路線: 小田原線 | 設備: 車椅子対応, オストメイト対応, 大型ベッド",#0066cc,139.598556,35.639909
喜多見駅 (小田原線),東京都 世田谷区喜多見9丁目2番26号,1F,多目的トイレ,"鉄道会社: 小田急電鉄 | 路線: 小田原線 | 設備: 車椅子対応, オストメイト対応, おむつ交換台",#0066cc,139.587416,35.636795
狛江駅 (小田原線),東京都 狛江市東和泉1丁目17番1号,1F,多目的トイレ,"鉄道会社: 小田急電鉄 | 路線: 小田原線 | 設備: 車椅子対応, オストメイト対応, おむつ交換台",#0066cc,139.577395,35.632317
和泉多摩川駅 (小田原線),東京都 狛江市東和泉4丁目2番1号,1F,多目的トイレ,"鉄道会社: 小田急電鉄 | 路線: 小田原線 | 設備: 車椅子対応, オストメイト対応, おむつ交換台",#0066cc,139.57345,35.627078
鶴川駅 (小田原線),東京都 町田市能ヶ谷1丁目6番3号,1F,多目的トイレ,"鉄道会社: 小田急電鉄 | 路線: 小田原線 | 設備: 車椅子対応, オストメイト対応, おむつ交換台",#0066cc,139.48171,35.583182
鶴川駅 (小田原線),東京都 町田市能ヶ谷1丁目6番3号,1F,多目的トイレ,"鉄道会社: 小田急電鉄 | 路線: 小田原線 | 設備: 車椅子対応, オストメイト対応, おむつ交換台",#0066cc,139.48171,35.583182
玉川学園前駅 (小田原線),東京都 町田市玉川学園2丁目21番9号,2F,多目的トイレ,"鉄道会社: 小田急電鉄 | 路線: 小田原線 | 設備: 車椅子対応, オストメイト対応, 大型ベッド, おむつ交換台",#0066cc,139.463303,35.563266
玉川学園前駅 (小田原線),東京都 町田市玉川学園2丁目21番9号,2F,多目的トイレ,"鉄道会社: 小田急電鉄 | 路線: 小田原線 | 設備: 車椅子対応, オストメイト対応, 大型ベッド, おむつ交換台",#0066cc,139.463296,35.563269
町田駅 (小田原線),東京都 町田市原町田6丁目12番20号,1F,多目的トイレ,東口改札外 | 鉄道会社: 小田急電鉄 | 路線: 小田原線 | 設備: 車椅子対応,#0066cc,139.445244,35.544367
町田駅 (小田原線),東京都 町田市原町田6丁目12番20号,1F,多目的トイレ,"東口改札外 | 鉄道会社: 小田急電鉄 | 路線: 小田原線 | 設備: 車椅子対応, おむつ交換台",#0066cc,139.445253,35.544363
町田駅 (小田原線),東京都 町田市原町田6丁目12番20号,1F,多目的トイレ,"鉄道会社: 小田急電鉄 | 路線: 小田原線 | 設備: 車椅子対応, オストメイト対応, おむつ交換台",#0066cc,139.445236,35.544149
町田駅 (小田原線),東京都 町田市原町田6丁目12番20号,1F,多目的トイレ,"鉄道会社: 小田急電鉄 | 路線: 小田原線 | 設備: 車椅子対応, オストメイト対応, おむつ交換台",#0066cc,139.445161,35.544253
小田急永山駅 (多摩線),東京都 多摩市永山1丁目18番23号,1F,多目的トイレ,"鉄道会社: 小田急電鉄 | 路線: 多摩線 | 設備: 車椅子対応, オストメイト対応, 大型ベッド, おむつ交換台",#0066cc,139.448366,35.629884
小田急永山駅 (多摩線),東京都 多摩市永山1丁目18番23号,1F,多目的トイレ,"鉄道会社: 小田急電鉄 | 路線: 多摩線 | 設備: 車椅子対応, オストメイト対応, 大型ベッド, おむつ交換台",#0066cc,139.448394,35.629931
小田急多摩センター駅 (多摩線),東京都 多摩市落合1丁目11番2号,1F,多目的トイレ,"鉄道会社: 小田急電鉄 | 路線: 多摩線 | 設備: 車椅子対応, オストメイト対応, 大型ベッド, おむつ交換台",#0066cc,139.42463,35.625173
小田急多摩センター駅 (多摩線),東京都 多摩市落合1丁目11番2号,1F,多目的トイレ,"鉄道会社: 小田急電鉄 | 路線: 多摩線 | 設備: 車椅子対応, オストメイト対応, 大型ベッド, おむつ交換台",#0066cc,139.424604,35.625167
唐木田駅 (多摩線),東京都 多摩市唐木田1丁目2番1号,1F,多目的トイレ,"鉄道会社: 小田急電鉄 | 路線: 多摩線 | 設備: 車椅子対応, オストメイト対応",#0066cc,139.411285,35.615912
新宿駅 (京王線),東京都 新宿区西新宿1丁目1番4号、18号,B2F,多機能トイレ,"鉄道会社: 京王電鉄 | 路線: 京王線 | 設備: 車椅子対応, オストメイト対応, 大型ベッド",#0066cc,139.699034,35.690711
新宿駅 (京王線),東京都 新宿区西新宿1丁目1番4号、18号,B1F,多機能トイレ,"鉄道会社: 京王電鉄 | 路線: 京王線 | 設備: 車椅子対応, オストメイト対応, 大型ベッド",#0066cc,139.699294,35.688654
初台駅 (京王線),東京都 渋谷区初台1丁目53番7号,B1F,だれでもトイレ,"鉄道会社: 京王電鉄 | 路線: 京王線 | 設備: 車椅子対応, オストメイト対応, 大型ベッド",#0066cc,139.686178,35.681131
初台東口駅 (京王線),東京都 渋谷区初台1丁目53番7号,B2F,だれでもトイレ,"鉄道会社: 京王電鉄 | 路線: 京王線 | 設備: 車椅子対応, オストメイト対応, 大型ベッド",#0066cc,139.686911,35.681574
幡ヶ谷駅 (京王線),東京都 渋谷区幡ヶ谷1丁目2番1号,B2F,だれでもトイレ,"鉄道会社: 京王電鉄 | 路線: 京王線 | 設備: 車椅子対応, オストメイト対応, 大型ベッド",#0066cc,139.676948,35.677276
笹塚駅 (京王線),東京都 渋谷区笹塚1丁目56番7号,1F,多機能トイレ,"鉄道会社: 京王電鉄 | 路線: 京王線 | 設備: 車椅子対応, オストメイト対応, 大型ベッド",#0066cc,139.666869,35.67349
代田橋駅 (京王線),東京都 世田谷区大原2丁目18番9号,B1F,だれでもトイレ,"鉄道会社: 京王電鉄 | 路線: 京王線 | 設備: 車椅子対応, オストメイト対応, 大型ベッド",#0066cc,139.658803,35.671011
下高井戸駅 (京王線),東京都 世田谷区松原3丁目29番17号,1F,だれでもトイレ,"鉄道会社: 京王電鉄 | 路線: 京王線 | 設備: 車椅子対応, オストメイト対応, 大型ベッド",#0066cc,139.642467,35.666143
桜上水駅 (京王線),東京都 世田谷区桜上水5丁目29番52号,2F,だれでもトイレ,"鉄道会社: 京王電鉄 | 路線: 京王線 | 設備: 車椅子対応, オストメイト対応, 大型ベッド",#0066cc,139.631823,35.667691
上北沢駅 (京王線),東京都 世田谷区上北沢4丁目14番3号,B1F,だれでもトイレ,"鉄道会社: 京王電鉄 | 路線: 京王線 | 設備: 車椅子対応, オストメイト対応, 大型ベッド",#0066cc,139.623464,35.668849
八幡山駅 (京王線),東京都 杉並区上高井戸1丁目1番11号,1F,だれでもトイレ,"鉄道会社: 京王電鉄 | 路線: 京王線 | 設備: 車椅子対応, オストメイト対応, 大型ベッド",#0066cc,139.616071,35.669755
芦花公園駅 (京王線),東京都 世田谷区南烏山3丁目1番16号,2F,だれでもトイレ,"鉄道会社: 京王電鉄 | 路線: 京王線 | 設備: 車椅子対応, オストメイト対応, 大型ベッド",#0066cc,139.608695,35.670553
千歳烏山（上り）駅 (京王線),東京都 世田谷区南烏山6丁目1番1号,1F,多機能トイレ,"鉄道会社: 京王電鉄 | 路線: 京王線 | 設備: 車椅子対応, オストメイト対応, 大型ベッド",#0066cc,139.600069,35.667778
千歳烏山（下り）駅 (京王線),東京都 世田谷区南烏山6丁目1番1号,1F,多機能トイレ,"鉄道会社: 京王電鉄 | 路線: 京王線 | 設備: 車椅子対応, オストメイト対応, 大型ベッド",#0066cc,139.601075,35.668005
千歳烏山（下り）駅 (京王線),東京都 世田谷区南烏山6丁目1番1号,1F,多機能トイレ,"鉄道会社: 京王電鉄 | 路線: 京王線 | 設備: 車椅子対応, オストメイト対応, 大型ベッド",#0066cc,139.601081,35.668007
仙川駅 (京王線),東京都 調布市仙川町1丁目43番地,1F,多機能トレイ,"鉄道会社: 京王電鉄 | 路線: 京王線 | 設備: 車椅子対応, オストメイト対応, 大型ベッド",#0066cc,139.58494,35.662324
つつじヶ丘駅 (京王線),東京都 調布市西つつじヶ丘3丁目35番1号,2F,だれでもトイレ,"鉄道会社: 京王電鉄 | 路線: 京王線 | 設備: 車椅子対応, オストメイト対応, 大型ベッド",#0066cc,139.57516,35.657915
柴崎駅 (京王線),東京都 調布市菊野台2丁目67番11号,1F,だれでもトイレ,"鉄道会社: 京王電鉄 | 路線: 京王線 | 設備: 車椅子対応, オストメイト対応, おむつ交換台",#0066cc,139.566875,35.654249
国領駅 (京王線),東京都 調布市国領町3丁目18番1号,1F,だれでもトイレ,"鉄道会社: 京王電鉄 | 路線: 京王線 | 設備: 車椅子対応, オストメイト対応, 大型ベッド",#0066cc,139.55869,35.650215
布田駅 (京王線),東京都 調布市国領町5丁目67番1号,1F,だれでもトイレ,"鉄道会社: 京王電鉄 | 路線: 京王線 | 設備: 車椅子対応, オストメイト対応, 大型ベッド",#0066cc,139.551971,35.649887
調布駅 (京王線),東京都 調布市布田4丁目32番1号,B1F,多機能トイレ,"鉄道会社: 京王電鉄 | 路線: 京王線 | 設備: 車椅子対応, オストメイト対応, 大型ベッド",#0066cc,139.545335,35.651582
調布駅 (京王線),東京都 調布市布田4丁目32番1号,B1F,多機能トイレ,"鉄道会社: 京王電鉄 | 路線: 京王線 | 設備: 車椅子対応, オストメイト対応, 大型ベッド",#0066cc,139.545335,35.651582
西調布駅 (京王線),東京都 調布市上石原1丁目25番17号,2F,だれでもトイレ,"鉄道会社: 京王電鉄 | 路線: 京王線 | 設備: 車椅子対応, オストメイト対応, 大型ベッド",#0066cc,139.530213,35.657075
飛田給駅 (京王線),東京都 調布市飛田給1丁目42番11号,2F,多機能トイレ,"鉄道会社: 京王電鉄 | 路線: 京王線 | 設備: 車椅子対応, オストメイト対応, 大型ベッド",#0066cc,139.523261,35.660249
武蔵野台駅 (京王線),東京都 府中市白糸台4丁目18番4号,2F,だれでもトイレ,"鉄道会社: 京王電鉄 | 路線: 京王線 | 設備: 車椅子対応, オストメイト対応, 大型ベッド",#0066cc,139.510802,35.664269
多磨霊園駅 (京王線),東京都 府中市清水ヶ丘3丁目26番11号,2F,だれでもトイレ,"鉄道会社: 京王電鉄 | 路線: 京王線 | 設備: 車椅子対応, オストメイト対応, 大型ベッド",#0066cc,139.502978,35.666099
東府中駅 (京王線/競馬場線),東京都 府中市清水ヶ丘1丁目8番3号,2F,だれでもトイレ,"鉄道会社: 京王電鉄 | 路線: 京王線/競馬場線 | 設備: 車椅子対応, オストメイト対応, 大型ベッド",#0066cc,139.495124,35.668762
府中競馬正門前駅 (競馬場線),東京都 府中市八幡町1丁目18番地,1F,だれでもトイレ,"鉄道会社: 京王電鉄 | 路線: 競馬場線 | 設備: 車椅子対応, オストメイト対応, 大型ベッド, おむつ交換台",#0066cc,139.484985,35.668195
府中駅 (京王線),東京都 府中市宮町1丁目1番10号,2F,多機能トイレ,"鉄道会社: 京王電鉄 | 路線: 京王線 | 設備: 車椅子対応, オストメイト対応, 大型ベッド",#0066cc,139.480453,35.672166
分倍河原駅 (京王線),東京都 府中市片町2丁目21番18号,2F,多機能トイレ,"女性用トイレ入口の奥にあるが共用 | 鉄道会社: 京王電鉄 | 路線: 京王線 | 設備: 車椅子対応, オストメイト対応, おむつ交換台",#0066cc,139.468668,35.668646
中河原駅 (京王線),東京都 府中市住吉町2丁目1番16号,M2F,だれでもトイレ,"鉄道会社: 京王電鉄 | 路線: 京王線 | 設備: 車椅子対応, オストメイト対応, おむつ交換台",#0066cc,139.458133,35.659611
聖蹟桜ヶ丘駅 (京王線),東京都 多摩市関戸1丁目10番10号,1F,だれでもトイレ,"鉄道会社: 京王電鉄 | 路線: 京王線 | 設備: 車椅子対応, オストメイト対応, 大型ベッド",#0066cc,139.44698,35.650747
百草園駅 (京王線),東京都 日野市百草209番地,2F,だれでもトイレ,"鉄道会社: 京王電鉄 | 路線: 京王線 | 設備: 車椅子対応, オストメイト対応, 大型ベッド",#0066cc,139.43092,35.657505
高幡不動駅 (京王線/動物園線),東京都 日野市高幡139番地,3F,だれでもトイレ,"鉄道会社: 京王電鉄 | 路線: 京王線/動物園線 | 設備: 車椅子対応, オストメイト対応, 大型ベッド",#0066cc,139.412697,35.662331
多摩動物公園駅 (動物園線),東京都 日野市程久保3丁目36番39号,1F,多機能トイレ,"鉄道会社: 京王電鉄 | 路線: 動物園線 | 設備: 車椅子対応, オストメイト対応, 大型ベッド",#0066cc,139.404553,35.649189
南平駅 (京王線),東京都 日野市南平6丁目9番31号,1F,だれでもトイレ,"鉄道会社: 京王電鉄 | 路線: 京王線 | 設備: 車椅子対応, オストメイト対応, 大型ベッド",#0066cc,139.392159,35.654726
平山城址公園駅 (京王線),東京都 日野市平山5丁目18番10号,1F,多機能トイレ,"鉄道会社: 京王電鉄 | 路線: 京王線 | 設備: 車椅子対応, オストメイト対応, 大型ベッド, おむつ交換台",#0066cc,139.380168,35.647366
長沼駅 (京王線),東京都 八王子市長沼町700番地,1F,だれでもトイレ,"鉄道会社: 京王電鉄 | 路線: 京王線 | 設備: 車椅子対応, オストメイト対応, 大型ベッド",#0066cc,139.366398,35.642827
北野駅 (京王線/高尾線),東京都 八王子市打越町335番地1,2F,だれでもトイレ,"鉄道会社: 京王電鉄 | 路線: 京王線/高尾線 | 設備: 車椅子対応, オストメイト対応, 大型ベッド",#0066cc,139.35428,35.644408
京王八王子駅 (京王線),東京都 八王子市明神町3丁目27番1号,B1F,だれでもトイレ,"鉄道会社: 京王電鉄 | 路線: 京王線 | 設備: 車椅子対応, オストメイト対応, 大型ベッド",#0066cc,139.343394,35.657761
京王八王子西口駅 (京王線),東京都 八王子市明神町3丁目27番1号,B2F,だれでもトイレ,"改札外に設置 | 鉄道会社: 京王電鉄 | 路線: 京王線 | 設備: 車椅子対応, オストメイト対応, 大型ベッド",#0066cc,139.342927,35.657706
京王八王子西口駅 (京王線),東京都 八王子市明神町3丁目27番1号,B2F,だれでもトイレ,"改札外に設置 | 鉄道会社: 京王電鉄 | 路線: 京王線 | 設備: 車椅子対応, オストメイト対応, 大型ベッド",#0066cc,139.342927,35.657706
京王片倉駅 (高尾線),東京都 八王子市片倉町39番地4,B1F,だれでもトイレ,"鉄道会社: 京王電鉄 | 路線: 高尾線 | 設備: 車椅子対応, オストメイト対応, 大型ベッド",#0066cc,139.337307,35.644368
山田駅 (高尾線),東京都 八王子市緑町434番地,2F,だれでもトイレ,"鉄道会社: 京王電鉄 | 路線: 高尾線 | 設備: 車椅子対応, オストメイト対応, 大型ベッド",#0066cc,139.321168,35.644472
めじろ台駅 (高尾線),東京都 八王子市めじろ台1丁目100番1号,1F,だれでもトイレ,"鉄道会社: 京王電鉄 | 路線: 高尾線 | 設備: 車椅子対応, オストメイト対応, 大型ベッド",#0066cc,139.307837,35.64331
狭間駅 (高尾線),東京都 八王子市東浅川町773番地,1F,だれでもトイレ,"鉄道会社: 京王電鉄 | 路線: 高尾線 | 設備: 車椅子対応, オストメイト対応, 大型ベッド",#0066cc,139.293379,35.640581
高尾駅 (高尾線),東京都 八王子市初沢町1227番地,2F,多機能トイレ,"点字ブロックは音声案内板の前まで有り | 鉄道会社: 京王電鉄 | 路線: 高尾線 | 設備: 車椅子対応, オストメイト対応, 大型ベッド",#0066cc,139.281593,35.641642
高尾山口駅 (高尾線),東京都 八王子市高尾町2241番地,1F,だれでもトイレ,"鉄道会社: 京王電鉄 | 路線: 高尾線 | 設備: 車椅子対応, オストメイト対応, 大型ベッド",#0066cc,139.269873,35.632486
京王多摩川駅 (相模原線),東京都 調布市多摩川4丁目40番1号,1F,だれでもトイレ,"車いす内部転回：今後改修予定 | 鉄道会社: 京王電鉄 | 路線: 相模原線 | 設備: 車椅子対応, オストメイト対応, おむつ交換台",#0066cc,139.536891,35.644874
京王よみうりランド駅 (相模原線),東京都 稲城市矢野口2200番地1,1F,多機能トイレ,"鉄道会社: 京王電鉄 | 路線: 相模原線 | 設備: 車椅子対応, オストメイト対応, 大型ベッド",#0066cc,139.517207,35.632959
稲城駅 (相模原線),東京都 稲城市東長沼3108番地,2F,だれでもトイレ,"鉄道会社: 京王電鉄 | 路線: 相模原線 | 設備: 車椅子対応, オストメイト対応, 大型ベッド",#0066cc,139.500268,35.636293
京王永山駅 (相模原線),東京都 多摩市永山1丁目18番1号,2F,だれでもトイレ,"鉄道会社: 京王電鉄 | 路線: 相模原線 | 設備: 車椅子対応, オストメイト対応, 大型ベッド",#0066cc,139.448274,35.630263
京王多摩センター駅 (相模原線),東京都 多摩市落合1丁目10番2号,2F,だれでもトイレ,"鉄道会社: 京王電鉄 | 路線: 相模原線 | 設備: 車椅子対応, オストメイト対応, 大型ベッド",#0066cc,139.424613,35.625374
京王堀之内駅 (相模原線),東京都 八王子市堀之内3丁目24番4号,1F,多機能トイレ,"※点字ブロックは音声案内板の前まで有り | 鉄道会社: 京王電鉄 | 路線: 相模原線 | 設備: 車椅子対応, オストメイト対応, 大型ベッド",#0066cc,139.40021,35.624409
南大沢駅 (相模原線),東京都 八王子市南大沢2丁目1番6号,2F,だれでもトイレ,"鉄道会社: 京王電鉄 | 路線: 相模原線 | 設備: 車椅子対応, オストメイト対応, 大型ベッド, おむつ交換台",#0066cc,139.380045,35.614237
多摩境駅 (相模原線),東京都 町田市小山ヶ丘3丁目23番地,2F,だれでもトイレ,"鉄道会社: 京王電鉄 | 路線: 相模原線 | 設備: 車椅子対応, オストメイト対応, 大型ベッド, おむつ交換台",#0066cc,139.367001,35.601937
渋谷駅 (井の頭線),東京都 渋谷区道玄坂1丁目4番1号,2F,多機能トイレ,"鉄道会社: 京王電鉄 | 路線: 井の頭線 | 設備: 車椅子対応, オストメイト対応, 大型ベッド",#0066cc,139.699268,35.658438
渋谷駅 (井の頭線),東京都 渋谷区道玄坂1丁目4番1号,2F,多機能トイレ,"鉄道会社: 京王電鉄 | 路線: 井の頭線 | 設備: 車椅子対応, オストメイト対応, 大型ベッド",#0066cc,139.699348,35.658435
神泉駅 (井の頭線),東京都 渋谷区神泉町4番6号,2F,だれでもトイレ,"車椅子は入れれば、内部で回転可能　出入口：今後改修予定 | 鉄道会社: 京王電鉄 | 路線: 井の頭線 | 設備: 車椅子対応, オストメイト対応, 大型ベッド, おむつ交換台",#0066cc,139.693513,35.657234
池ノ上駅 (井の頭線),東京都 世田谷区代沢2丁目43番8号,2F,だれでもトイレ,"鉄道会社: 京王電鉄 | 路線: 井の頭線 | 設備: 車椅子対応, オストメイト対応, 大型ベッド",#0066cc,139.673118,35.66045
新代田駅 (井の頭線),東京都 世田谷区代田5丁目30番18号,1F,だれでもトイレ,"鉄道会社: 京王電鉄 | 路線: 井の頭線 | 設備: 車椅子対応, オストメイト対応, 大型ベッド",#0066cc,139.660598,35.662557
東松原駅 (井の頭線),東京都 世田谷区松原5丁目2番6号,2F,だれでもトイレ,"鉄道会社: 京王電鉄 | 路線: 井の頭線 | 設備: 車椅子対応, オストメイト対応, 大型ベッド",#0066cc,139.655301,35.662736
明大前駅 (京王線/井の頭線),東京都 世田谷区松原2丁目45番1号,1F,多機能トイレ,"鉄道会社: 京王電鉄 | 路線: 京王線/井の頭線 | 設備: 車椅子対応, オストメイト対応, 大型ベッド",#0066cc,139.650323,35.668595
永福町駅 (井の頭線),東京都 杉並区永福2丁目60番31号,2F,だれでもトイレ,"鉄道会社: 京王電鉄 | 路線: 井の頭線 | 設備: 車椅子対応, オストメイト対応, 大型ベッド",#0066cc,139.642596,35.676189
西永福駅 (井の頭線),東京都 杉並区永福3丁目36番1号,2F,だれでもトイレ,"鉄道会社: 京王電鉄 | 路線: 井の頭線 | 設備: 車椅子対応, オストメイト対応, 大型ベッド",#0066cc,139.635376,35.678792
浜田山駅 (井の頭線),東京都 杉並区浜田山3丁目31番2号,B1F,だれでもトイレ,"鉄道会社: 京王電鉄 | 路線: 井の頭線 | 設備: 車椅子対応, オストメイト対応, おむつ交換台",#0066cc,139.627509,35.681628
高井戸駅 (井の頭線),東京都 杉並区高井戸西2丁目1番26号,2F,だれでもトイレ,"鉄道会社: 京王電鉄 | 路線: 井の頭線 | 設備: 車椅子対応, オストメイト対応, 大型ベッド",#0066cc,139.615256,35.683223
富士見ヶ丘駅 (井の頭線),東京都 杉並区久我山5丁目1番25号,2F,だれでもトイレ,"鉄道会社: 京王電鉄 | 路線: 井の頭線 | 設備: 車椅子対応, オストメイト対応, 大型ベッド",#0066cc,139.60721,35.684708
久我山駅 (井の頭線),東京都 杉並区久我山4丁目1番11号,3F,だれでもトイレ,"鉄道会社: 京王電鉄 | 路線: 井の頭線 | 設備: 車椅子対応, オストメイト対応, 大型ベッド",#0066cc,139.599349,35.688073
三鷹台駅 (井の頭線),東京都 三鷹市井の頭1丁目32番1号,1F,多機能トイレ,"鉄道会社: 京王電鉄 | 路線: 井の頭線 | 設備: 車椅子対応, オストメイト対応, 大型ベッド",#0066cc,139.588942,35.692185
井の頭公園駅 (井の頭線),東京都 三鷹市井の頭3丁目35番12号,1F,だれでもトイレ,"鉄道会社: 京王電鉄 | 路線: 井の頭線 | 設備: 車椅子対応, オストメイト対応, 大型ベッド",#0066cc,139.582681,35.697617
吉祥寺駅 (井の頭線),東京都 武蔵野市吉祥寺南2丁目1番31号,3F,だれでもトイレ,"鉄道会社: 京王電鉄 | 路線: 井の頭線 | 設備: 車椅子対応, オストメイト対応, 大型ベッド",#0066cc,139.580219,35.702541
下北沢駅 (井の頭線),東京都 世田谷区北沢2丁目23番9号,1F,多機能トイレ,"鉄道会社: 京王電鉄 | 路線: 井の頭線 | 設備: 車椅子対応, オストメイト対応, 大型ベッド",#0066cc,139.666386,35.661688
京成上野駅 (本線),東京都 台東区上野公園1番60号,B1F,バリアフリートイレ,"鉄道会社: 京成電鉄 | 路線: 本線 | 設備: 車椅子対応, オストメイト対応, おむつ交換台",#0066cc,139.773501,35.711297
京成上野駅 (本線),東京都 台東区上野公園1番60号,B1F,バリアフリートイレ,"改札外コンコース | 鉄道会社: 京成電鉄 | 路線: 本線 | 設備: 車椅子対応, オストメイト対応, 大型ベッド",#0066cc,139.773464,35.711244
京成上野駅 (本線),東京都 台東区上野公園1番60号,B2F,バリアフリートイレ,"ホーム階 | 鉄道会社: 京成電鉄 | 路線: 本線 | 設備: 車椅子対応, オストメイト対応",#0066cc,139.773498,35.71112
日暮里駅 (本線),東京都 荒川区西日暮里2丁目19番1号,2F,バリアフリートイレ,"鉄道会社: 京成電鉄 | 路線: 本線 | 設備: 車椅子対応, オストメイト対応, 大型ベッド",#0066cc,139.771636,35.727822
新三河島駅 (本線),東京都 荒川区西日暮里6丁目2番1号,1F,バリアフリートイレ,"鉄道会社: 京成電鉄 | 路線: 本線 | 設備: 車椅子対応, オストメイト対応, おむつ交換台",#0066cc,139.774035,35.737243
町屋駅 (本線),東京都 荒川区荒川7丁目40番1号,1F,バリアフリートイレ,"鉄道会社: 京成電鉄 | 路線: 本線 | 設備: 車椅子対応, オストメイト対応, おむつ交換台",#0066cc,139.781367,35.74215
千住大橋駅 (本線),東京都 足立区千住橋戸町11番地1,1F,バリアフリートイレ,"鉄道会社: 京成電鉄 | 路線: 本線 | 設備: 車椅子対応, オストメイト対応, おむつ交換台",#0066cc,139.796477,35.742519
京成関屋駅 (本線),東京都 足立区千住曙町2番地2,1F,バリアフリートイレ,"鉄道会社: 京成電鉄 | 路線: 本線 | 設備: 車椅子対応, オストメイト対応, おむつ交換台",#0066cc,139.811564,35.743911
堀切菖蒲園駅 (本線),東京都 葛飾区堀切5丁目1番1号,1F,バリアフリートイレ,"鉄道会社: 京成電鉄 | 路線: 本線 | 設備: 車椅子対応, オストメイト対応, おむつ交換台",#0066cc,139.827511,35.747617
お花茶屋駅 (本線),東京都 葛飾区宝町2丁目37番1号,1F,バリアフリートイレ,"鉄道会社: 京成電鉄 | 路線: 本線 | 設備: 車椅子対応, オストメイト対応, おむつ交換台",#0066cc,139.839981,35.747694
青砥駅 (押上線),東京都 葛飾区青戸3丁目36番1号,M2F,バリアフリートイレ,"鉄道会社: 京成電鉄 | 路線: 押上線 | 設備: 車椅子対応, オストメイト対応, おむつ交換台",#0066cc,139.856017,35.745638
京成高砂駅 (金町線/成田空港線),東京都 葛飾区高砂5丁目28番1号,2F,バリアフリートイレ,"トイレ前で回転可能 | 鉄道会社: 京成電鉄 | 路線: 金町線/成田空港線 | 設備: 車椅子対応, オストメイト対応, おむつ交換台",#0066cc,139.867231,35.750994
京成小岩駅 (本線),東京都 江戸川区北小岩2丁目10番9号,2F,バリアフリートイレ,"鉄道会社: 京成電鉄 | 路線: 本線 | 設備: 車椅子対応, オストメイト対応, おむつ交換台",#0066cc,139.883771,35.742095
江戸川駅 (本線),東京都 江戸川区北小岩3丁目24番15号,1F,バリアフリートイレ,"鉄道会社: 京成電鉄 | 路線: 本線 | 設備: 車椅子対応, オストメイト対応, おむつ交換台",#0066cc,139.896225,35.737724
押上駅 (押上線),東京都 墨田区押上1丁目8番21号,B2F,バリアフリートイレ,"鉄道会社: 京成電鉄 | 路線: 押上線 | 設備: 車椅子対応, オストメイト対応, おむつ交換台",#0066cc,139.813374,35.71086
京成曳舟駅 (押上線),東京都 墨田区京島1丁目37番11号,2F,バリアフリートイレ,"鉄道会社: 京成電鉄 | 路線: 押上線 | 設備: 車椅子対応, オストメイト対応, おむつ交換台",#0066cc,139.819355,35.717945
八広駅 (押上線),東京都 墨田区八広6丁目25番20号,2F,バリアフリートイレ,"鉄道会社: 京成電鉄 | 路線: 押上線 | 設備: 車椅子対応, オストメイト対応, おむつ交換台",#0066cc,139.828215,35.726996
四ツ木駅 (押上線),東京都 葛飾区四ツ木1丁目1番1号,2F,バリアフリートイレ,"鉄道会社: 京成電鉄 | 路線: 押上線 | 設備: 車椅子対応, オストメイト対応, おむつ交換台",#0066cc,139.834701,35.731553
柴又駅 (金町線),東京都 葛飾区柴又4丁目8番14号,1F,バリアフリートイレ,"鉄道会社: 京成電鉄 | 路線: 金町線 | 設備: 車椅子対応, オストメイト対応, おむつ交換台",#0066cc,139.875404,35.756585
京成金町駅 (金町線),東京都 葛飾区金町5丁目37番9号,1F,バリアフリートイレ,"扉の外で回転可能 | 鉄道会社: 京成電鉄 | 路線: 金町線 | 設備: 車椅子対応, オストメイト対応, おむつ交換台",#0066cc,139.870285,35.768786
京成立石駅 (押上線),東京都 葛飾区立石4丁目24番1号,ホーム,バリアフリートイレ,"連続立体交差事業に伴う仮設トイレ | 鉄道会社: 京成電鉄 | 路線: 押上線 | 設備: 車椅子対応, オストメイト対応, おむつ交換台",#0066cc,139.848059,35.738266
品川駅 (本線),東京都 港区高輪3丁目26番26号,1F,多機能トイレ,"鉄道会社: 京浜急行電鉄 | 路線: 本線 | 設備: 車椅子対応, オストメイト対応, 大型ベッド",#0066cc,139.73814,35.628451
北品川駅 (本線),東京都 品川区北品川1丁目1番4号,1F,多機能トイレ,"鉄道会社: 京浜急行電鉄 | 路線: 本線 | 設備: 車椅子対応, オストメイト対応, 大型ベッド, おむつ交換台",#0066cc,139.739243,35.622086
新馬場駅 (本線),東京都 品川区北品川2丁目18番1号,2F,多機能トイレ,"鉄道会社: 京浜急行電鉄 | 路線: 本線 | 設備: 車椅子対応, オストメイト対応, 大型ベッド",#0066cc,139.741311,35.617274
青物横丁駅 (本線),東京都 品川区南品川3丁目1番20号,2F,多機能トイレ,"鉄道会社: 京浜急行電鉄 | 路線: 本線 | 設備: 車椅子対応, オストメイト対応, 大型ベッド",#0066cc,139.742966,35.609381
鮫洲駅 (本線),東京都 品川区東大井1丁目2番20号,2F,多機能トイレ,"鉄道会社: 京浜急行電鉄 | 路線: 本線 | 設備: 車椅子対応, オストメイト対応, 大型ベッド",#0066cc,139.74237,35.605049
立会川駅 (本線),東京都 品川区東大井2丁目23番1号,2F,多機能トイレ,"鉄道会社: 京浜急行電鉄 | 路線: 本線 | 設備: 車椅子対応, オストメイト対応, 大型ベッド",#0066cc,139.738923,35.598684
大森海岸駅 (本線),東京都 品川区南大井3丁目32番1号,1F,多機能トイレ,"鉄道会社: 京浜急行電鉄 | 路線: 本線 | 設備: 車椅子対応, オストメイト対応, 大型ベッド",#0066cc,139.735432,35.58747
平和島駅 (本線),東京都 大田区大森北6丁目13番11号,1F,多機能トイレ,"鉄道会社: 京浜急行電鉄 | 路線: 本線 | 設備: 車椅子対応, オストメイト対応, 大型ベッド",#0066cc,139.735008,35.579082
大森町駅 (本線),東京都 大田区大森西3丁目24番7号,1F,多機能トイレ,"鉄道会社: 京浜急行電鉄 | 路線: 本線 | 設備: 車椅子対応, オストメイト対応, 大型ベッド",#0066cc,139.731908,35.572191
梅屋敷駅 (本線),東京都 大田区蒲田2丁目28番1号,1F,多機能トイレ,"鉄道会社: 京浜急行電鉄 | 路線: 本線 | 設備: 車椅子対応, オストメイト対応, 大型ベッド",#0066cc,139.728344,35.566938
京急蒲田駅 (本線),東京都 大田区蒲田4丁目50番10号,1F,多機能トイレ,"鉄道会社: 京浜急行電鉄 | 路線: 本線 | 設備: 車椅子対応, オストメイト対応, 大型ベッド",#0066cc,139.723901,35.560988
雑色駅 (本線),東京都 大田区仲六郷2丁目42番1号,1F,多機能トイレ,"鉄道会社: 京浜急行電鉄 | 路線: 本線 | 設備: 車椅子対応, オストメイト対応, 大型ベッド",#0066cc,139.714975,35.549702
六郷土手駅 (本線),東京都 大田区仲六郷4丁目27番11号,1F,多機能トイレ,"鉄道会社: 京浜急行電鉄 | 路線: 本線 | 設備: 車椅子対応, オストメイト対応, 大型ベッド",#0066cc,139.707775,35.540687
糀谷駅 (空港線),東京都 大田区西糀谷4丁目13番19号,1F,多機能トイレ,"鉄道会社: 京浜急行電鉄 | 路線: 空港線 | 設備: 車椅子対応, オストメイト対応, 大型ベッド",#0066cc,139.729328,35.554756
大鳥居駅 (空港線),東京都 大田区西糀谷3丁目37番18号,1F,多機能トイレ,"鉄道会社: 京浜急行電鉄 | 路線: 空港線 | 設備: 車椅子対応, オストメイト対応, 大型ベッド",#0066cc,139.739112,35.552625
穴守稲荷駅 (空港線),東京都 大田区羽田4丁目6番11号,1F,多機能トイレ,"鉄道会社: 京浜急行電鉄 | 路線: 空港線 | 設備: 車椅子対応, オストメイト対応, 大型ベッド",#0066cc,139.746709,35.55043
天空橋駅 (空港線),東京都 大田区羽田空港1丁目1番2号,B1F,多機能トイレ,"鉄道会社: 京浜急行電鉄 | 路線: 空港線 | 設備: 車椅子対応, オストメイト対応, 大型ベッド",#0066cc,139.753932,35.54863
羽田空港第３ターミナル駅 (空港線),東京都 大田区羽田空港2丁目6番5号,B2F,多機能トイレ,"鉄道会社: 京浜急行電鉄 | 路線: 空港線 | 設備: 車椅子対応, オストメイト対応, 大型ベッド",#0066cc,139.767648,35.545099
羽田空港第３ターミナル駅 (空港線),東京都 大田区羽田空港2丁目6番5号,2F,多機能トイレ,"鉄道会社: 京浜急行電鉄 | 路線: 空港線 | 設備: 車椅子対応, オストメイト対応, 大型ベッド",#0066cc,139.7678,35.544866
羽田空港第３ターミナル駅 (空港線),東京都 大田区羽田空港2丁目6番5号,3F,多機能トイレ,"鉄道会社: 京浜急行電鉄 | 路線: 空港線 | 設備: 車椅子対応, オストメイト対応, 大型ベッド",#0066cc,139.767696,35.544953
羽田空港第１・第２ターミナル駅 (空港線),東京都 大田区羽田空港3丁目3番4号,B2F,多機能トイレ（第２側）,"鉄道会社: 京浜急行電鉄 | 路線: 空港線 | 設備: 車椅子対応, オストメイト対応, 大型ベッド",#0066cc,139.787086,35.550387
羽田空港第１・第２ターミナル駅 (空港線),東京都 大田区羽田空港3丁目3番4号,B2F,多機能トイレ（第１側）,"鉄道会社: 京浜急行電鉄 | 路線: 空港線 | 設備: 車椅子対応, オストメイト対応, 大型ベッド",#0066cc,139.787086,35.550387
秋葉原駅 (つくばエクスプレス),東京都 千代田区神田佐久間町1丁目6番10号,B1F,多機能トイレ,"終車前に利用終了。 | 鉄道会社: 首都圏新都市鉄道 | 路線: つくばエクスプレス | 設備: 車椅子対応, オストメイト対応, 大型ベッド",#0066cc,139.774017,35.698474
秋葉原駅 (つくばエクスプレス),東京都 千代田区神田佐久間町1丁目6番10号,B1F,多機能トイレ,"鉄道会社: 首都圏新都市鉄道 | 路線: つくばエクスプレス | 設備: 車椅子対応, オストメイト対応, 大型ベッド",#0066cc,139.774225,35.698242
新御徒町駅 (つくばエクスプレス),東京都 台東区小島2丁目21番18号,B1F,多機能トイレ,"鉄道会社: 首都圏新都市鉄道 | 路線: つくばエクスプレス | 設備: 車椅子対応, オストメイト対応, 大型ベッド",#0066cc,139.782706,35.70697
浅草駅 (つくばエクスプレス),東京都 台東区西浅草3丁目1番11号,B1F,多機能トイレ,"鉄道会社: 首都圏新都市鉄道 | 路線: つくばエクスプレス | 設備: 車椅子対応, オストメイト対応, 大型ベッド",#0066cc,139.792477,35.713671
浅草駅 (つくばエクスプレス),東京都 台東区西浅草3丁目1番11号,B1F,多機能トイレ,"鉄道会社: 首都圏新都市鉄道 | 路線: つくばエクスプレス | 設備: 車椅子対応, オストメイト対応, 大型ベッド",#0066cc,139.792476,35.71366
南千住駅 (つくばエクスプレス),東京都 荒川区南千住4丁目4番1号,1F,多機能トイレ,"鉄道会社: 首都圏新都市鉄道 | 路線: つくばエクスプレス | 設備: 車椅子対応, オストメイト対応, 大型ベッド",#0066cc,139.798646,35.732648
北千住駅 (つくばエクスプレス),東京都 足立区千住旭町42番3号,3F,多機能トイレ,"鉄道会社: 首都圏新都市鉄道 | 路線: つくばエクスプレス | 設備: 車椅子対応, オストメイト対応, 大型ベッド",#0066cc,139.805006,35.749319
青井駅 (つくばエクスプレス),東京都 足立区青井3丁目24番1号,B1F,多機能トイレ,"鉄道会社: 首都圏新都市鉄道 | 路線: つくばエクスプレス | 設備: 車椅子対応, オストメイト対応, 大型ベッド",#0066cc,139.82032,35.771769
六町駅 (つくばエクスプレス),東京都 足立区六町4丁目1番1号,B1F,多機能トイレ,"鉄道会社: 首都圏新都市鉄道 | 路線: つくばエクスプレス | 設備: 車椅子対応, オストメイト対応, 大型ベッド",#0066cc,139.821767,35.784845
池袋駅 (池袋線),東京都 豊島区南池袋1丁目28番1号,B1F,だれでもトイレ,"鉄道会社: 西武鉄道 | 路線: 池袋線 | 設備: 車椅子対応, オストメイト対応, 大型ベッド",#0066cc,139.71104,35.72842
椎名町駅 (池袋線),東京都 豊島区長崎1丁目1番22号,2F,だれでもトイレ,"鉄道会社: 西武鉄道 | 路線: 池袋線 | 設備: 車椅子対応, オストメイト対応, おむつ交換台",#0066cc,139.69489,35.726418
東長崎駅 (池袋線),東京都 豊島区長崎5丁目1番1号,2F,だれでもトイレ,"鉄道会社: 西武鉄道 | 路線: 池袋線 | 設備: 車椅子対応, オストメイト対応, おむつ交換台",#0066cc,139.68282,35.730287
江古田駅 (池袋線),東京都 練馬区旭丘1丁目78番7号,2F,だれでもトイレ,"鉄道会社: 西武鉄道 | 路線: 池袋線 | 設備: 車椅子対応, オストメイト対応, おむつ交換台",#0066cc,139.67296,35.737381
桜台駅 (池袋線),東京都 練馬区桜台1丁目5番1号,1F,だれでもトイレ,"鉄道会社: 西武鉄道 | 路線: 池袋線 | 設備: 車椅子対応, オストメイト対応, おむつ交換台",#0066cc,139.6624,35.738761
練馬駅駅 (池袋線),東京都 練馬区練馬1丁目3番5号,2F,バリアフリートイレ,"鉄道会社: 西武鉄道 | 路線: 池袋線 | 設備: 車椅子対応, オストメイト対応, おむつ交換台",#0066cc,139.654707,35.737294
中村橋駅 (池袋線),東京都 練馬区中村北4丁目2番1号,1F,だれでもトイレ,"鉄道会社: 西武鉄道 | 路線: 池袋線 | 設備: 車椅子対応, オストメイト対応, おむつ交換台",#0066cc,139.63746,35.736818
富士見台駅 (池袋線),東京都 練馬区貫井3丁目7番4号,1F,だれでもトイレ,"鉄道会社: 西武鉄道 | 路線: 池袋線 | 設備: 車椅子対応, オストメイト対応, おむつ交換台",#0066cc,139.62993,35.73596
練馬高野台駅 (池袋線),東京都 練馬区高野台1丁目7番27号,2F,だれでもトイレ,"鉄道会社: 西武鉄道 | 路線: 池袋線 | 設備: 車椅子対応, オストメイト対応, おむつ交換台",#0066cc,139.61672,35.740723
石神井公園駅 (池袋線),東京都 練馬区石神井町3丁目23番10号,1F,だれでもトイレ,"鉄道会社: 西武鉄道 | 路線: 池袋線 | 設備: 車椅子対応, オストメイト対応, 大型ベッド",#0066cc,139.60576,35.743818
大泉学園駅 (池袋線),東京都 練馬区東大泉1丁目29番7号,2F,だれでもトイレ,"鉄道会社: 西武鉄道 | 路線: 池袋線 | 設備: 車椅子対応, オストメイト対応, おむつ交換台",#0066cc,139.58689,35.749475
保谷駅 (池袋線),東京都 西東京市東町3丁目14番30号,2F,だれでもトイレ,"鉄道会社: 西武鉄道 | 路線: 池袋線 | 設備: 車椅子対応, オストメイト対応, おむつ交換台",#0066cc,139.56767,35.748364
ひばりヶ丘駅 (池袋線),東京都 西東京市住吉町3丁目9番19号,2F,だれでもトイレ,"鉄道会社: 西武鉄道 | 路線: 池袋線 | 設備: 車椅子対応, オストメイト対応, おむつ交換台",#0066cc,139.545739,35.751408
東久留米駅 (池袋線),東京都 東久留米市東本町1番地8号,2F,だれでもトイレ,"鉄道会社: 西武鉄道 | 路線: 池袋線 | 設備: 車椅子対応, オストメイト対応, おむつ交換台",#0066cc,139.53377,35.760431
清瀬駅 (池袋線),東京都 清瀬市元町1丁目2番4号,2F,だれでもトイレ,"鉄道会社: 西武鉄道 | 路線: 池袋線 | 設備: 車椅子対応, オストメイト対応",#0066cc,139.51977,35.772014
秋津駅 (池袋線),東京都 東村山市秋津町5丁目7番8号,1F,だれでもトイレ,"鉄道会社: 西武鉄道 | 路線: 池袋線 | 設備: 車椅子対応, オストメイト対応, おむつ交換台",#0066cc,139.49677,35.778352
新桜台駅 (西武有楽町線),東京都 練馬区桜台1丁目28番11号,B1F,だれでもトイレ,"鉄道会社: 西武鉄道 | 路線: 西武有楽町線 | 設備: 車椅子対応, オストメイト対応, おむつ交換台",#0066cc,139.66812,35.740704
豊島園駅 (豊島線),東京都 練馬区練馬4丁目16番5号,1F,だれでもトイレ,"鉄道会社: 西武鉄道 | 路線: 豊島線 | 設備: 車椅子対応, オストメイト対応, 大型ベッド, おむつ交換台",#0066cc,139.647781,35.742329
西武新宿駅 (新宿線),東京都 新宿区歌舞伎町1丁目30番1号,2F,だれでもトイレ,"鉄道会社: 西武鉄道 | 路線: 新宿線 | 設備: 車椅子対応, オストメイト対応, おむつ交換台",#0066cc,139.7001,35.695149
高田馬場駅 (新宿線),東京都 新宿区高田馬場1丁目35番2号,3F,だれでもトイレ,"鉄道会社: 西武鉄道 | 路線: 新宿線 | 設備: 車椅子対応, オストメイト対応, おむつ交換台",#0066cc,139.70401,35.712652
下落合駅 (新宿線),東京都 新宿区下落合1丁目16番1号,1F,だれでもトイレ,"鉄道会社: 西武鉄道 | 路線: 新宿線 | 設備: 車椅子対応, オストメイト対応, おむつ交換台",#0066cc,139.69528,35.71572
中井駅 (新宿線),東京都 新宿区中落合1丁目19番1号,1F,だれでもトイレ,"鉄道会社: 西武鉄道 | 路線: 新宿線 | 設備: 車椅子対応, オストメイト対応, おむつ交換台",#0066cc,139.68668,35.715031
沼袋駅 (新宿線),東京都 中野区沼袋1丁目35番1号,1F,だれでもトイレ,"鉄道会社: 西武鉄道 | 路線: 新宿線 | 設備: 車椅子対応, オストメイト対応, おむつ交換台",#0066cc,139.66421,35.719437
野方駅 (新宿線),東京都 中野区野方6丁目3番3号,2F,だれでもトイレ,"鉄道会社: 西武鉄道 | 路線: 新宿線 | 設備: 車椅子対応, オストメイト対応, おむつ交換台",#0066cc,139.65317,35.719707
都立家政駅 (新宿線),東京都 中野区鷺宮1丁目16番1号,B1F,だれでもトイレ,"鉄道会社: 西武鉄道 | 路線: 新宿線 | 設備: 車椅子対応, オストメイト対応, おむつ交換台",#0066cc,139.64464,35.7223
鷺ノ宮駅 (新宿線),東京都 中野区鷺宮3丁目15番1号,3F,だれでもトイレ,"鉄道会社: 西武鉄道 | 路線: 新宿線 | 設備: 車椅子対応, オストメイト対応, おむつ交換台",#0066cc,139.63908,35.722551
下井草駅 (新宿線),東京都 杉並区下井草2丁目44番10号,2F,だれでもトイレ,"鉄道会社: 西武鉄道 | 路線: 新宿線 | 設備: 車椅子対応, オストメイト対応, おむつ交換台",#0066cc,139.62449,35.723895
井荻駅 (新宿線),東京都 杉並区下井草5丁目23番15号,1F,だれでもトイレ,"トイレ内での車いす回転は不可能 | 鉄道会社: 西武鉄道 | 路線: 新宿線 | 設備: 車椅子対応, オストメイト対応, おむつ交換台",#0066cc,139.61487,35.724854
上井草駅 (新宿線),東京都 杉並区上井草3丁目32番1号,1F,だれでもトイレ,"鉄道会社: 西武鉄道 | 路線: 新宿線 | 設備: 車椅子対応, オストメイト対応, おむつ交換台",#0066cc,139.60363,35.725195
上石神井駅 (新宿線),東京都 練馬区上石神井1丁目2番45号,2F,だれでもトイレ,"鉄道会社: 西武鉄道 | 路線: 新宿線 | 設備: 車椅子対応, オストメイト対応, おむつ交換台",#0066cc,139.59224,35.726223
武蔵関駅 (新宿線),東京都 練馬区関町北2丁目29番1号,2F,だれでもトイレ,"鉄道会社: 西武鉄道 | 路線: 新宿線 | 設備: 車椅子対応, オストメイト対応, おむつ交換台",#0066cc,139.57663,35.727629
東伏見駅 (新宿線),東京都 西東京市東伏見2丁目5番1号,2F,だれでもトイレ,"鉄道会社: 西武鉄道 | 路線: 新宿線 | 設備: 車椅子対応, オストメイト対応, おむつ交換台",#0066cc,139.56413,35.728693
西武柳沢駅 (新宿線),東京都 西東京市保谷町3丁目11番24号,2F,だれでもトイレ,"鉄道会社: 西武鉄道 | 路線: 新宿線 | 設備: 車椅子対応, オストメイト対応, おむつ交換台",#0066cc,139.5525,35.728651
田無駅 (新宿線),東京都 西東京市田無町4丁目1番1号,2F,だれでもトイレ,"鉄道会社: 西武鉄道 | 路線: 新宿線 | 設備: 車椅子対応, オストメイト対応, おむつ交換台",#0066cc,139.539,35.727284
花小金井駅 (新宿線),東京都 小平市花小金井1丁目10番5号,2F,だれでもトイレ,"鉄道会社: 西武鉄道 | 路線: 新宿線 | 設備: 車椅子対応, オストメイト対応, おむつ交換台",#0066cc,139.51307,35.72618
小平駅 (新宿線/拝島線),東京都 小平市美園町1丁目34番1号,2F,だれでもトイレ,"男女共用だが、入口は男性用トイレの中にある | 鉄道会社: 西武鉄道 | 路線: 新宿線/拝島線 | 設備: 車椅子対応, オストメイト対応, おむつ交換台",#0066cc,139.48845,35.736907
久米川駅 (新宿線),東京都 東村山市栄町2丁目3番1号,1F,だれでもトイレ,"鉄道会社: 西武鉄道 | 路線: 新宿線 | 設備: 車椅子対応, オストメイト対応, おむつ交換台",#0066cc,139.47278,35.749655
東村山駅 (新宿線/国分寺線/西武園線),東京都 東村山市本町2丁目3番32号,1F,だれでもトイレ,"鉄道会社: 西武鉄道 | 路線: 新宿線/国分寺線/西武園線 | 設備: 車椅子対応, オストメイト対応, おむつ交換台",#0066cc,139.465627,35.760372
東大和市駅 (拝島線),東京都 東大和市桜が丘1丁目1415番1号,1F,だれでもトイレ,"鉄道会社: 西武鉄道 | 路線: 拝島線 | 設備: 車椅子対応, オストメイト対応, おむつ交換台",#0066cc,139.43445,35.732851
玉川上水駅 (拝島線),東京都 立川市幸町6丁目36番1号,2F,だれでもトイレ,"鉄道会社: 西武鉄道 | 路線: 拝島線 | 設備: 車椅子対応, オストメイト対応, おむつ交換台",#0066cc,139.41841,35.731849
武蔵砂川駅 (拝島線),東京都 立川市上砂町5丁目44番4号,1F,だれでもトイレ,"鉄道会社: 西武鉄道 | 路線: 拝島線 | 設備: 車椅子対応, オストメイト対応, 大型ベッド",#0066cc,139.39202,35.728945
西武立川駅 (拝島線),東京都 立川市西砂町1丁目21番2号,2F,だれでもトイレ,"鉄道会社: 西武鉄道 | 路線: 拝島線 | 設備: 車椅子対応, オストメイト対応, おむつ交換台",#0066cc,139.37044,35.726205
拝島駅 (拝島線),東京都 昭島市美堀町5丁目21番2号,2F,だれでもトイレ,"鉄道会社: 西武鉄道 | 路線: 拝島線 | 設備: 車椅子対応, オストメイト対応, おむつ交換台",#0066cc,139.34409,35.72143
西武園駅 (西武園線),東京都 東村山市多摩湖町4丁目29番1号,1F,多目的（だれでも）トイレ,"トイレは改札外 | 鉄道会社: 西武鉄道 | 路線: 西武園線 | 設備: 車椅子対応, オストメイト対応, おむつ交換台",#0066cc,139.44892,35.767975
国分寺駅 (国分寺線/多摩湖線),東京都 国分寺市本町2丁目1番23号,2F,だれでもトイレ,"鉄道会社: 西武鉄道 | 路線: 国分寺線/多摩湖線 | 設備: 車椅子対応, オストメイト対応, おむつ交換台",#0066cc,139.47974,35.700285
恋ヶ窪駅 (国分寺線),東京都 国分寺市戸倉1丁目1番4号,1F,だれでもトイレ,"鉄道会社: 西武鉄道 | 路線: 国分寺線 | 設備: 車椅子対応, オストメイト対応, おむつ交換台",#0066cc,139.46394,35.711249
鷹の台駅 (国分寺線),東京都 小平市たかの台45番地4号,1F,だれでもトイレ,"鉄道会社: 西武鉄道 | 路線: 国分寺線 | 設備: 車椅子対応, オストメイト対応, おむつ交換台",#0066cc,139.46112,35.723526
小川駅 (国分寺線/拝島線),東京都 小平市小川東町1丁目20番1号,1F,だれでもトイレ,"トイレは改札外 | 鉄道会社: 西武鉄道 | 路線: 国分寺線/拝島線 | 設備: 車椅子対応, オストメイト対応, おむつ交換台",#0066cc,139.46333,35.737602
萩山駅 (多摩湖線/拝島線),東京都 東村山市萩山町2丁目1番1号,2F,だれでもトイレ,"鉄道会社: 西武鉄道 | 路線: 多摩湖線/拝島線 | 設備: 車椅子対応, オストメイト対応, おむつ交換台",#0066cc,139.47744,35.740568
八坂駅 (多摩湖線),東京都 東村山市栄町3丁目18番1号,1F,だれでもトイレ,"鉄道会社: 西武鉄道 | 路線: 多摩湖線 | 設備: 車椅子対応, オストメイト対応, おむつ交換台",#0066cc,139.46769,35.745084
武蔵大和駅 (多摩湖線),東京都 東村山市廻田町3丁目9番19号,2F,だれでもトイレ,"鉄道会社: 西武鉄道 | 路線: 多摩湖線 | 設備: 車椅子対応, オストメイト対応, おむつ交換台",#0066cc,139.44412,35.756342
武蔵境駅 (多摩川線),東京都 武蔵野市境南町2丁目1番12号,1F,だれでもトイレ,"鉄道会社: 西武鉄道 | 路線: 多摩川線 | 設備: 車椅子対応, オストメイト対応, おむつ交換台",#0066cc,139.54383,35.701999
新小金井駅 (多摩川線),東京都 小金井市東町4丁目24番1号,1F,だれでもトイレ,"鉄道会社: 西武鉄道 | 路線: 多摩川線 | 設備: 車椅子対応, オストメイト対応, 大型ベッド",#0066cc,139.52627,35.695782
多磨駅 (多摩川線),東京都 府中市紅葉丘3丁目42番2号,1F,だれでもトイレ,"鉄道会社: 西武鉄道 | 路線: 多摩川線 | 設備: 車椅子対応, オストメイト対応, おむつ交換台",#0066cc,139.516986,35.676789
白糸台駅 (多摩川線),東京都 府中市白糸台2丁目71番6号,1F,だれでもトイレ,"鉄道会社: 西武鉄道 | 路線: 多摩川線 | 設備: 車椅子対応, オストメイト対応, 大型ベッド",#0066cc,139.50952,35.666425
競艇場前駅 (多摩川線),東京都 府中市小柳町4丁目10番11号,2F,だれでもトイレ,"鉄道会社: 西武鉄道 | 路線: 多摩川線 | 設備: 車椅子対応, オストメイト対応, おむつ交換台",#0066cc,139.49961,35.656281
是政駅 (多摩川線),東京都 府中市是政5丁目8番2号,1F,だれでもトイレ,"男女共用だが、入口は男性用トイレの中にある | 鉄道会社: 西武鉄道 | 路線: 多摩川線 | 設備: 車椅子対応, オストメイト対応, おむつ交換台",#0066cc,139.48884,35.656299
清滝駅 (高尾山鋼索線),東京都 八王子市高尾町2205番地,1F,だれでもトイレ,"改札外に設置、トイレ利用時間は季節により異なる。 | 鉄道会社: 高尾登山電鉄 | 路線: 高尾山鋼索線 | 設備: 車椅子対応, オストメイト対応, おむつ交換台",#0066cc,139.267026,35.63129
高尾山駅 (高尾山鋼索線),東京都 八王子市高尾町2181番地,1F,だれでもトイレ,"改札外に設置、トイレ利用時間は24時間可能。 | 鉄道会社: 高尾登山電鉄 | 路線: 高尾山鋼索線 | 設備: 車椅子対応, オストメイト対応, おむつ交換台",#0066cc,139.255709,35.630983
多摩センター駅 (多摩都市モノレール線),東京都 多摩市落合1丁目48番1,2F,車いす対応トイレ,"鉄道会社: 多摩都市モノレール | 路線: 多摩都市モノレール線 | 設備: 車椅子対応, オストメイト対応",#0066cc,139.42288,35.623923
松が谷駅 (多摩都市モノレール線),東京都 八王子市松が谷40番地先,2F,車いす対応トイレ,"鉄道会社: 多摩都市モノレール | 路線: 多摩都市モノレール線 | 設備: 車椅子対応, オストメイト対応",#0066cc,139.421997,35.631885
大塚・帝京大学駅 (多摩都市モノレール線),東京都 八王子市大塚1473番地先,2F,車いす対応トイレ,"鉄道会社: 多摩都市モノレール | 路線: 多摩都市モノレール線 | 設備: 車椅子対応, オストメイト対応",#0066cc,139.41658,35.63681
中央大学・明星大学駅 (多摩都市モノレール線),東京都 八王子市東中野742番地先,2F,車いす対応トイレ,"鉄道会社: 多摩都市モノレール | 路線: 多摩都市モノレール線 | 設備: 車椅子対応, オストメイト対応",#0066cc,139.40841,35.642073
多摩動物公園駅 (多摩都市モノレール線),東京都 日野市程久保7丁目1番地先,2F,車いす対応トイレ,"鉄道会社: 多摩都市モノレール | 路線: 多摩都市モノレール線 | 設備: 車椅子対応, オストメイト対応",#0066cc,139.40365,35.648348
程久保駅 (多摩都市モノレール線),東京都 日野市程久保8丁目1番地先,2F,車いす対応トイレ,"鉄道会社: 多摩都市モノレール | 路線: 多摩都市モノレール線 | 設備: 車椅子対応, オストメイト対応",#0066cc,139.41084,35.655297
高幡不動駅 (多摩都市モノレール線),東京都 日野市高幡1039番地1,2F,車いす対応トイレ,"トイレ内での車いす回転は不可能 | 鉄道会社: 多摩都市モノレール | 路線: 多摩都市モノレール線 | 設備: 車椅子対応, オストメイト対応",#0066cc,139.41523,35.661516
万願寺駅 (多摩都市モノレール線),東京都 日野市万願寺4丁目34番地,2F,車いす対応トイレ,"鉄道会社: 多摩都市モノレール | 路線: 多摩都市モノレール線 | 設備: 車椅子対応, オストメイト対応",#0066cc,139.41995,35.671371
甲州街道駅 (多摩都市モノレール線),東京都 日野市日野1030番地先,2F,車いす対応トイレ,"鉄道会社: 多摩都市モノレール | 路線: 多摩都市モノレール線 | 設備: 車椅子対応, オストメイト対応",#0066cc,139.40938,35.678157
柴崎体育館駅 (多摩都市モノレール線),東京都 立川市柴崎町6丁目107番地先,2F,車いす対応トイレ,"鉄道会社: 多摩都市モノレール | 路線: 多摩都市モノレール線 | 設備: 車椅子対応, オストメイト対応",#0066cc,139.40928,35.689712
立川南駅 (多摩都市モノレール線),東京都 立川市柴崎町3丁目7番地先,2F,車いす対応トイレ,"鉄道会社: 多摩都市モノレール | 路線: 多摩都市モノレール線 | 設備: 車椅子対応, オストメイト対応, おむつ交換台",#0066cc,139.41248,35.69592
立川北駅 (多摩都市モノレール線),東京都 立川市曙町2丁目4番地先,3F,車いす対応トイレ,"鉄道会社: 多摩都市モノレール | 路線: 多摩都市モノレール線 | 設備: 車椅子対応, オストメイト対応",#0066cc,139.41252,35.699739
高松駅 (多摩市モノレール戦),東京都 立川市高松町1丁目100番地先,2F,車いす対応トイレ,"鉄道会社: 多摩都市モノレール | 路線: 多摩市モノレール戦 | 設備: 車椅子対応, オストメイト対応, おむつ交換台",#0066cc,139.41337,35.710267
立飛駅 (多摩都市モノレール線),東京都 立川市泉町935番地,2F,車いす対応トイレ,"鉄道会社: 多摩都市モノレール | 路線: 多摩都市モノレール線 | 設備: 車椅子対応, オストメイト対応, おむつ交換台",#0066cc,139.41713,35.714361
泉体育館駅 (多摩都市モノレール線),東京都 立川市幸町841番地,2F,車いす対応トイレ,"鉄道会社: 多摩都市モノレール | 路線: 多摩都市モノレール線 | 設備: 車椅子対応, オストメイト対応, おむつ交換台",#0066cc,139.4195,35.718898
砂川七番駅 (多摩都市モノレール線),東京都 立川市柏町3丁目1番地先,2F,車いす対応トイレ,"鉄道会社: 多摩都市モノレール | 路線: 多摩都市モノレール線 | 設備: 車椅子対応, オストメイト対応, おむつ交換台",#0066cc,139.41813,35.723529
玉川上水駅 (多摩都市モノレール線),東京都 東大和市桜が丘4丁目19番地,2F,車いす対応トイレ,"鉄道会社: 多摩都市モノレール | 路線: 多摩都市モノレール線 | 設備: 車椅子対応, オストメイト対応",#0066cc,139.41786,35.732223
桜街道駅 (多摩都市モノレール線),東京都 東大和市上北台3丁目470番地,2F,車いす対応トイレ,"鉄道会社: 多摩都市モノレール | 路線: 多摩都市モノレール線 | 設備: 車椅子対応, オストメイト対応, おむつ交換台",#0066cc,139.41663,35.739169
上北台駅 (多摩都市モノレール線),東京都 東大和市上北台1丁目5番地,2F,車いす対応トイレ,"鉄道会社: 多摩都市モノレール | 路線: 多摩都市モノレール線 | 設備: 車椅子対応, オストメイト対応, おむつ交換台",#0066cc,139.41585,35.745675
渋谷駅 (東横線),東京都 渋谷区渋谷2丁目21番13号,B2F,多機能お手洗い（女性用）（宮益坂トイレ）,"鉄道会社: 東急電鉄 | 路線: 東横線 | 設備: 車椅子対応, オストメイト対応, おむつ交換台",#0066cc,139.702468,35.659617
渋谷駅 (東横線),東京都 渋谷区渋谷2丁目21番13号,B2F,多機能お手洗い（男性用）（宮益坂トイレ）,"鉄道会社: 東急電鉄 | 路線: 東横線 | 設備: 車椅子対応, オストメイト対応, おむつ交換台",#0066cc,139.702454,35.659661
渋谷駅 (東横線),東京都 渋谷区渋谷2丁目21番13号,B4F,多機能お手洗い（女性用）（ヒカリエトイレ）,"※別途、ひろびろブースに乳幼児用椅子有り（機能分散） | 鉄道会社: 東急電鉄 | 路線: 東横線 | 設備: 車椅子対応, オストメイト対応, おむつ交換台",#0066cc,139.702684,35.659269
渋谷駅 (東横線),東京都 渋谷区渋谷2丁目21番13号,B4F,多機能お手洗い（共用）（ヒカリエトイレ）,"※別途、ひろびろブースに乳幼児用椅子有り（機能分散） | 鉄道会社: 東急電鉄 | 路線: 東横線 | 設備: 車椅子対応, オストメイト対応, おむつ交換台",#0066cc,139.70263,35.659256
代官山駅 (東横線),東京都 渋谷区代官山町19番4,1F,多機能お手洗い,"入口前で車椅子回転可 | 鉄道会社: 東急電鉄 | 路線: 東横線 | 設備: 車椅子対応, オストメイト対応, おむつ交換台",#0066cc,139.703318,35.64818
中目黒駅 (東横線),東京都 目黒区上目黒3丁目4番1号,1F,多機能お手洗い,"鉄道会社: 東急電鉄 | 路線: 東横線 | 設備: 車椅子対応, オストメイト対応, おむつ交換台",#0066cc,139.69884,35.644025
中目黒駅 (東横線),東京都 目黒区上目黒3丁目4番1号,1F,多機能お手洗い,"鉄道会社: 東急電鉄 | 路線: 東横線 | 設備: 車椅子対応, オストメイト対応, おむつ交換台",#0066cc,139.698778,35.643966
祐天寺駅 (東横線),東京都 目黒区祐天寺2丁目13番3号,1F,多機能お手洗い,"鉄道会社: 東急電鉄 | 路線: 東横線 | 設備: 車椅子対応, オストメイト対応, おむつ交換台",#0066cc,139.691054,35.637466
学芸大学駅 (東横線),東京都 目黒区鷹番3丁目2番1号,1F,多機能お手洗い,"鉄道会社: 東急電鉄 | 路線: 東横線 | 設備: 車椅子対応, オストメイト対応, おむつ交換台",#0066cc,139.685443,35.62892
都立大学駅 (東横線),東京都 目黒区中根1丁目5番1号,1F,多機能お手洗い,"鉄道会社: 東急電鉄 | 路線: 東横線 | 設備: 車椅子対応, オストメイト対応, おむつ交換台",#0066cc,139.675948,35.617316
都立大学駅 (東横線),東京都 目黒区中根1丁目5番1号,1F,多機能お手洗い,"鉄道会社: 東急電鉄 | 路線: 東横線 | 設備: 車椅子対応, オストメイト対応, おむつ交換台",#0066cc,139.675977,35.617296
目黒駅 (目黒線),東京都 品川区上大崎4丁目2番1号,B3F,多機能お手洗い,"鉄道会社: 東急電鉄 | 路線: 目黒線 | 設備: 車椅子対応, オストメイト対応, おむつ交換台",#0066cc,139.715899,35.632368
目黒駅 (目黒線),東京都 品川区上大崎4丁目2番1号,B3F,多機能お手洗い,"鉄道会社: 東急電鉄 | 路線: 目黒線 | 設備: 車椅子対応, オストメイト対応, おむつ交換台",#0066cc,139.715895,35.632378
不動前駅 (目黒線),東京都 品川区西五反田5丁目12番1号,1F,多機能お手洗い,"鉄道会社: 東急電鉄 | 路線: 目黒線 | 設備: 車椅子対応, オストメイト対応, おむつ交換台",#0066cc,139.713348,35.625515
不動前駅 (目黒線),東京都 品川区西五反田5丁目12番1号,1F,多機能お手洗い,"鉄道会社: 東急電鉄 | 路線: 目黒線 | 設備: 車椅子対応, オストメイト対応, おむつ交換台",#0066cc,139.713404,35.62554
武蔵小山駅 (目黒線),東京都 品川区小山3丁目4番8号,B1F,多機能お手洗,"鉄道会社: 東急電鉄 | 路線: 目黒線 | 設備: 車椅子対応, オストメイト対応, おむつ交換台",#0066cc,139.704389,35.620614
武蔵小山駅 (目黒線),東京都 品川区小山3丁目4番8号,B1F,多機能お手洗,"鉄道会社: 東急電鉄 | 路線: 目黒線 | 設備: 車椅子対応, オストメイト対応, おむつ交換台",#0066cc,139.704389,35.620614
西小山駅 (目黒線),東京都 品川区小山6丁目3番10号,1F,多機能お手洗,"鉄道会社: 東急電鉄 | 路線: 目黒線 | 設備: 車椅子対応, オストメイト対応, おむつ交換台",#0066cc,139.698915,35.61569
西小山駅 (目黒線),東京都 品川区小山6丁目3番10号,1F,多機能お手洗,"鉄道会社: 東急電鉄 | 路線: 目黒線 | 設備: 車椅子対応, オストメイト対応, おむつ交換台",#0066cc,139.698928,35.615704
洗足駅 (目黒線),東京都 目黒区洗足2丁目21番1号,1F,多機能お手洗い,"鉄道会社: 東急電鉄 | 路線: 目黒線 | 設備: 車椅子対応, オストメイト対応, おむつ交換台",#0066cc,139.694361,35.610408
大岡山駅 (目黒線/大井町線),東京都 大田区北千束3丁目27番1号,1F,多機能お手洗い,"鉄道会社: 東急電鉄 | 路線: 目黒線/大井町線 | 設備: 車椅子対応, オストメイト対応, おむつ交換台",#0066cc,139.685796,35.607457
大岡山駅 (目黒線/大井町線),東京都 大田区北千束3丁目27番1号,1F,多機能お手洗い,"鉄道会社: 東急電鉄 | 路線: 目黒線/大井町線 | 設備: 車椅子対応, オストメイト対応, おむつ交換台",#0066cc,139.685773,35.607532
奥沢駅 (目黒線),東京都 世田谷区奥沢3丁目47番17号,1F,多機能お手洗い,"鉄道会社: 東急電鉄 | 路線: 目黒線 | 設備: 車椅子対応, オストメイト対応, おむつ交換台",#0066cc,139.67198,35.603925
田園調布駅 (東横線/目黒線),東京都 大田区田園調布3丁目25番18号,1F,多機能お手洗い,"鉄道会社: 東急電鉄 | 路線: 東横線/目黒線 | 設備: 車椅子対応, オストメイト対応, おむつ交換台",#0066cc,139.667202,35.596721
多摩川駅 (東横線/目黒線/東急多摩川線),東京都 大田区田園調布1丁目53番8号,1F,多機能お手洗い,"鉄道会社: 東急電鉄 | 路線: 東横線/目黒線/東急多摩川線 | 設備: 車椅子対応, オストメイト対応, おむつ交換台",#0066cc,139.668787,35.589053
渋谷駅 (東横線/田園都市線),東京都 渋谷区道玄坂2丁目1番1号,B1F,多目的トイレ（共用）（ラウンジトイレ）,"改札外に設置、トイレ利用時は押しボタンの代わりにあるインターホンを使って解錠してもらう。 | 鉄道会社: 東急電鉄 | 路線: 東横線/田園都市線 | 設備: 車椅子対応, オストメイト対応, おむつ交換台",#0066cc,139.699624,35.659547
渋谷駅 (東横線/田園都市線),東京都 渋谷区道玄坂2丁目1番1号,B2F,多機能お手洗い（共用）（道玄坂トイレ）,"鉄道会社: 東急電鉄 | 路線: 東横線/田園都市線 | 設備: 車椅子対応, オストメイト対応, おむつ交換台",#0066cc,139.699624,35.659547
池尻大橋駅 (田園都市線),東京都 世田谷区池尻3丁目2番地,B2F,多機能お手洗い,"鉄道会社: 東急電鉄 | 路線: 田園都市線 | 設備: 車椅子対応, オストメイト対応, おむつ交換台",#0066cc,139.684317,35.650613
三軒茶屋駅 (世田谷線/田園都市線),東京都 世田谷区太子堂2丁目15番地,B1F,多機能お手洗い,"鉄道会社: 東急電鉄 | 路線: 世田谷線/田園都市線 | 設備: 車椅子対応, オストメイト対応, おむつ交換台",#0066cc,139.671153,35.64352
駒沢大学駅 (田園都市線),東京都 世田谷区上馬4丁目3番地,B1F,多機能お手洗い,"鉄道会社: 東急電鉄 | 路線: 田園都市線 | 設備: 車椅子対応, オストメイト対応, おむつ交換台",#0066cc,139.661197,35.633214
桜新町駅 (田園都市線),東京都 世田谷区桜新町2丁目8番地,B1F,多機能お手洗い,"鉄道会社: 東急電鉄 | 路線: 田園都市線 | 設備: 車椅子対応, オストメイト対応, おむつ交換台",#0066cc,139.644514,35.631651
桜新町駅 (田園都市線),東京都 世田谷区桜新町2丁目8番地,B1F,多機能お手洗い,"改修工事完了（2021年2月16日供用開始済み） | 鉄道会社: 東急電鉄 | 路線: 田園都市線 | 設備: 車椅子対応, オストメイト対応, おむつ交換台",#0066cc,139.644545,35.631654
用賀駅 (田園都市線),東京都 世田谷区用賀2丁目39番地,B1F,多機能お手洗い,"鉄道会社: 東急電鉄 | 路線: 田園都市線 | 設備: 車椅子対応, オストメイト対応, おむつ交換台",#0066cc,139.633782,35.626515
用賀駅 (田園都市線),東京都 世田谷区用賀2丁目39番地,B1F,多機能お手洗い,"鉄道会社: 東急電鉄 | 路線: 田園都市線 | 設備: 車椅子対応, オストメイト対応, おむつ交換台",#0066cc,139.633812,35.626495
二子玉川駅 (田園都市線/大井町線),東京都 世田谷区玉川2丁目22番13号,1F,多機能お手洗,"鉄道会社: 東急電鉄 | 路線: 田園都市線/大井町線 | 設備: 車椅子対応, オストメイト対応, おむつ交換台",#0066cc,139.627161,35.612312
二子玉川駅 (田園都市線/大井町線),東京都 世田谷区玉川2丁目22番13号,1F,多機能お手洗,"鉄道会社: 東急電鉄 | 路線: 田園都市線/大井町線 | 設備: 車椅子対応, オストメイト対応, 大型ベッド",#0066cc,139.627172,35.61232
つくし野駅 (田園都市線),東京都 町田市つくし野4丁目1番地,1F,多機能お手洗い,"鉄道会社: 東急電鉄 | 路線: 田園都市線 | 設備: 車椅子対応, オストメイト対応, おむつ交換台",#0066cc,139.485224,35.527573
つくし野駅 (田園都市線),東京都 町田市つくし野4丁目1番地,1F,多機能お手洗い,"鉄道会社: 東急電鉄 | 路線: 田園都市線 | 設備: 車椅子対応, オストメイト対応, おむつ交換台",#0066cc,139.485231,35.527606
すずかけ台駅 (田園都市線),東京都 町田市南つくし野3丁目1番地,1F,多機能お手洗,"鉄道会社: 東急電鉄 | 路線: 田園都市線 | 設備: 車椅子対応, オストメイト対応, おむつ交換台",#0066cc,139.481561,35.517007
南町田グランベリーパーク駅 (田園都市線),東京都 町田市鶴間3丁目3番2号,1F,多機能お手洗い,"鉄道会社: 東急電鉄 | 路線: 田園都市線 | 設備: 車椅子対応, オストメイト対応, おむつ交換台",#0066cc,139.471039,35.511548
大井町駅 (大井町線),東京都 品川区大井1丁目1番1号,1F,多機能お手洗,"鉄道会社: 東急電鉄 | 路線: 大井町線 | 設備: 車椅子対応, オストメイト対応, おむつ交換台",#0066cc,139.73453,35.607764
大井町駅 (大井町線),東京都 品川区大井1丁目1番1号,1F,多機能お手洗,"鉄道会社: 東急電鉄 | 路線: 大井町線 | 設備: 車椅子対応, オストメイト対応, おむつ交換台",#0066cc,139.734481,35.607766
下神明駅 (大井町線),東京都 品川区西品川1丁目29番6号,1F,多機能お手洗,"鉄道会社: 東急電鉄 | 路線: 大井町線 | 設備: 車椅子対応, オストメイト対応, おむつ交換台",#0066cc,139.726133,35.608872
戸越公園駅 (大井町線),東京都 品川区戸越5丁目10番15号,1F,多機能お手洗,"鉄道会社: 東急電鉄 | 路線: 大井町線 | 設備: 車椅子対応, オストメイト対応, おむつ交換台",#0066cc,139.718239,35.608832
中延駅 (大井町線),東京都 品川区中延4丁目5番5号,1F,多機能お手洗,"鉄道会社: 東急電鉄 | 路線: 大井町線 | 設備: 車椅子対応, オストメイト対応, おむつ交換台",#0066cc,139.712664,35.605803
中延駅 (大井町線),東京都 品川区中延4丁目5番5号,1F,多機能お手洗,"鉄道会社: 東急電鉄 | 路線: 大井町線 | 設備: 車椅子対応, オストメイト対応, おむつ交換台",#0066cc,139.712697,35.605826
荏原町駅 (大井町線),東京都 品川区中延5丁目2番1号,1F,多機能お手洗,"鉄道会社: 東急電鉄 | 路線: 大井町線 | 設備: 車椅子対応, オストメイト対応, おむつ交換台",#0066cc,139.707573,35.603798
旗の台駅 (大井町線/池上線),東京都 品川区旗の台2丁目13番1号,1F,多機能お手洗,"鉄道会社: 東急電鉄 | 路線: 大井町線/池上線 | 設備: 車椅子対応, オストメイト対応, おむつ交換台",#0066cc,139.702342,35.604966
旗の台駅 (大井町線/池上線),東京都 品川区旗の台2丁目13番1号,1F,多機能お手洗,"鉄道会社: 東急電鉄 | 路線: 大井町線/池上線 | 設備: 車椅子対応, オストメイト対応, おむつ交換台",#0066cc,139.702373,35.604947
北千束駅 (大井町線),東京都 大田区北千束2丁目16番1号,1F,多機能お手洗,"鉄道会社: 東急電鉄 | 路線: 大井町線 | 設備: 車椅子対応, オストメイト対応, おむつ交換台",#0066cc,139.692886,35.606469
緑が丘駅 (大井町線),東京都 目黒区緑が丘3丁目1番12号,1F,多機能お手洗い,"鉄道会社: 東急電鉄 | 路線: 大井町線 | 設備: 車椅子対応, オストメイト対応, おむつ交換台",#0066cc,139.679294,35.606484
緑が丘駅 (大井町線),東京都 目黒区緑が丘3丁目1番12号,1F,多機能お手洗い,"鉄道会社: 東急電鉄 | 路線: 大井町線 | 設備: 車椅子対応, オストメイト対応, おむつ交換台",#0066cc,139.67923,35.606511
自由が丘駅 (東横線/大井町線),東京都 目黒区自由が丘1丁目9番8号,1F,多機能お手洗い,"鉄道会社: 東急電鉄 | 路線: 東横線/大井町線 | 設備: 車椅子対応, オストメイト対応, おむつ交換台",#0066cc,139.669333,35.607507
自由が丘駅 (東横線/大井町線),東京都 目黒区自由が丘1丁目9番8号,1F,多機能お手洗い,"鉄道会社: 東急電鉄 | 路線: 東横線/大井町線 | 設備: 車椅子対応, オストメイト対応, おむつ交換台",#0066cc,139.669204,35.607648
九品仏駅 (大井町線),東京都 世田谷区奥沢7丁目20番1号,1F,多機能お手洗い,"鉄道会社: 東急電鉄 | 路線: 大井町線 | 設備: 車椅子対応, オストメイト対応, おむつ交換台",#0066cc,139.66105,35.605439
九品仏駅 (大井町線),東京都 世田谷区奥沢7丁目20番1号,1F,多機能お手洗い,"鉄道会社: 東急電鉄 | 路線: 大井町線 | 設備: 車椅子対応, オストメイト対応, おむつ交換台",#0066cc,139.661016,35.605445
尾山台駅 (大井町線),東京都 世田谷区等々力5丁目5番7号,1F,多機能お手洗い,"鉄道会社: 東急電鉄 | 路線: 大井町線 | 設備: 車椅子対応, オストメイト対応, おむつ交換台",#0066cc,139.653456,35.607206
等々力駅 (大井町線),東京都 世田谷区等々力3丁目1番1号,1F,多機能お手洗,"鉄道会社: 東急電鉄 | 路線: 大井町線 | 設備: 車椅子対応, オストメイト対応, おむつ交換台",#0066cc,139.647334,35.608444
上野毛駅 (大井町線),東京都 世田谷区上野毛1丁目26番6号,1F,多機能お手洗い,"鉄道会社: 東急電鉄 | 路線: 大井町線 | 設備: 車椅子対応, オストメイト対応, おむつ交換台",#0066cc,139.639112,35.611894
上野毛駅 (大井町線),東京都 世田谷区上野毛1丁目26番6号,1F,多機能お手洗い,"鉄道会社: 東急電鉄 | 路線: 大井町線 | 設備: 車椅子対応, オストメイト対応, おむつ交換台",#0066cc,139.638976,35.611889
五反田駅 (池上線),東京都 品川区東五反田2丁目1番1号,4F,多機能お手洗,"鉄道会社: 東急電鉄 | 路線: 池上線 | 設備: 車椅子対応, オストメイト対応, おむつ交換台",#0066cc,139.724287,35.625309
大崎広小路駅 (池上線),東京都 品川区大崎4丁目1番1号,1F,多機能お手洗,"鉄道会社: 東急電鉄 | 路線: 池上線 | 設備: 車椅子対応, オストメイト対応, おむつ交換台",#0066cc,139.722721,35.622632
戸越銀座駅 (池上線),東京都 品川区平塚2丁目16番1号,1F,多機能お手洗,"鉄道会社: 東急電鉄 | 路線: 池上線 | 設備: 車椅子対応, オストメイト対応, おむつ交換台",#0066cc,139.715009,35.615855
旗の台駅 (大井町線/池上線),東京都 品川区旗の台2丁目13番1号,1F,多機能お手洗,"鉄道会社: 東急電鉄 | 路線: 大井町線/池上線 | 設備: 車椅子対応, オストメイト対応, おむつ交換台",#0066cc,139.702916,35.60484
長原駅 (池上線),東京都 大田区上池台1丁目10番10号,B1F,多機能お手洗,"鉄道会社: 東急電鉄 | 路線: 池上線 | 設備: 車椅子対応, オストメイト対応, おむつ交換台",#0066cc,139.697572,35.602148
洗足池駅 (池上線),東京都 大田区東雪谷1丁目1番6号,2F,多機能お手洗,"鉄道会社: 東急電鉄 | 路線: 池上線 | 設備: 車椅子対応, オストメイト対応, おむつ交換台",#0066cc,139.691342,35.599734
石川台駅 (池上線),東京都 大田区東雪谷2丁目23番1号,1F,多機能お手洗い,"鉄道会社: 東急電鉄 | 路線: 池上線 | 設備: 車椅子対応, オストメイト対応, おむつ交換台",#0066cc,139.685409,35.596975
雪が谷大塚駅 (池上線),東京都 大田区南雪谷2丁目2番16号,2F,多機能お手洗,"鉄道会社: 東急電鉄 | 路線: 池上線 | 設備: 車椅子対応, オストメイト対応, おむつ交換台",#0066cc,139.680967,35.592009
御嶽山駅 (池上線),東京都 大田区北嶺町32番17号,1F,多機能お手洗,"鉄道会社: 東急電鉄 | 路線: 池上線 | 設備: 車椅子対応, オストメイト対応, おむつ交換台",#0066cc,139.682319,35.585327
久が原駅 (池上線),東京都 大田区南久が原2丁目6番10号,1F,多機能お手洗,"鉄道会社: 東急電鉄 | 路線: 池上線 | 設備: 車椅子対応, オストメイト対応, おむつ交換台",#0066cc,139.685416,35.579739
千鳥町駅 (池上線),東京都 大田区千鳥1丁目20番1号,1F,多機能お手洗,"鉄道会社: 東急電鉄 | 路線: 池上線 | 設備: 車椅子対応, オストメイト対応, おむつ交換台",#0066cc,139.691438,35.572909
池上駅 (池上線),東京都 大田区池上6丁目3番10号,2F,多機能お手洗い,"鉄道会社: 東急電鉄 | 路線: 池上線 | 設備: 車椅子対応, オストメイト対応, おむつ交換台",#0066cc,139.702697,35.57207
蓮沼駅 (池上線),東京都 大田区西蒲田7丁目17番1号,1F,多機能お手洗い,"鉄道会社: 東急電鉄 | 路線: 池上線 | 設備: 車椅子対応, オストメイト対応, おむつ交換台",#0066cc,139.708508,35.564116
沼部駅 (東急多摩川線),東京都 大田区田園調布本町28番1号,1F,多機能お手洗い,"鉄道会社: 東急電鉄 | 路線: 東急多摩川線 | 設備: 車椅子対応, オストメイト対応, おむつ交換台",#0066cc,139.673188,35.582553
鵜の木駅 (東急多摩川線),東京都 大田区鵜の木2丁目4番1号,1F,多機能お手洗い,"鉄道会社: 東急電鉄 | 路線: 東急多摩川線 | 設備: 車椅子対応, オストメイト対応, おむつ交換台",#0066cc,139.680604,35.575539
下丸子駅 (東急多摩川線),東京都 大田区下丸子3丁目7番1号,1F,多機能お手洗い,"鉄道会社: 東急電鉄 | 路線: 東急多摩川線 | 設備: 車椅子対応, オストメイト対応, おむつ交換台",#0066cc,139.685574,35.571454
武蔵新田駅 (東急多摩川線),東京都 大田区矢口1丁目18番1号,1F,多機能お手洗い,"鉄道会社: 東急電鉄 | 路線: 東急多摩川線 | 設備: 車椅子対応, オストメイト対応, おむつ交換台",#0066cc,139.692301,35.567875
矢口渡駅 (東急多摩川線),東京都 大田区多摩川1丁目20番10号,1F,多機能お手洗い,"鉄道会社: 東急電鉄 | 路線: 東急多摩川線 | 設備: 車椅子対応, オストメイト対応, おむつ交換台",#0066cc,139.700277,35.562494
蒲田駅 (池上線/東急多摩川線),東京都 大田区西蒲田7丁目69番1号,2F,多機能お手洗,"鉄道会社: 東急電鉄 | 路線: 池上線/東急多摩川線 | 設備: 車椅子対応, オストメイト対応, おむつ交換台",#0066cc,139.715035,35.561563
上町駅 (世田谷線),東京都 世田谷区世田谷3丁目4番3号,1F,多機能お手洗い,"鉄道会社: 東急電鉄 | 路線: 世田谷線 | 設備: 車椅子対応, オストメイト対応, おむつ交換台",#0066cc,139.646524,35.643483
池袋駅 (4号線丸ノ内線/8号線有楽町線/13号線副都心線),東京都 豊島区西池袋3丁目28番14号,B1F,バリアフリートイレ,"鉄道会社: 東京地下鉄 | 路線: 4号線丸ノ内線/8号線有楽町線/13号線副都心線 | 設備: 車椅子対応, オストメイト対応, おむつ交換台",#0066cc,139.70978,35.72959
池袋駅 (4号線丸ノ内線/8号線有楽町線/13号線副都心線),東京都 豊島区西池袋3丁目28番14号,B2F,バリアフリートイレ,"鉄道会社: 東京地下鉄 | 路線: 4号線丸ノ内線/8号線有楽町線/13号線副都心線 | 設備: 車椅子対応, オストメイト対応, おむつ交換台",#0066cc,139.70901,35.73118
池袋駅 (4号線丸ノ内線/8号線有楽町線/13号線副都心線),東京都 豊島区西池袋3丁目28番14号,B1F,バリアフリートイレ,"鉄道会社: 東京地下鉄 | 路線: 4号線丸ノ内線/8号線有楽町線/13号線副都心線 | 設備: 車椅子対応, オストメイト対応, おむつ交換台",#0066cc,139.71244,35.729789
大手町駅 (4号線丸ノ内線/5号線東西線/9号線千代田線/11号線半蔵門線),東京都 千代田区大手町1丁目6番1号,B3F,バリアフリートイレ,"鉄道会社: 東京地下鉄 | 路線: 4号線丸ノ内線/5号線東西線/9号線千代田線/11号線半蔵門線 | 設備: 車椅子対応, オストメイト対応, おむつ交換台",#0066cc,139.76439,35.686764
大手町駅 (4号線丸ノ内線/5号線東西線/9号線千代田線/11号線半蔵門線),東京都 千代田区大手町1丁目6番1号,B1F,バリアフリートイレ,"鉄道会社: 東京地下鉄 | 路線: 4号線丸ノ内線/5号線東西線/9号線千代田線/11号線半蔵門線 | 設備: 車椅子対応, オストメイト対応, おむつ交換台",#0066cc,139.76356,35.686373
大手町駅 (4号線丸ノ内線/5号線東西線/9号線千代田線/11号線半蔵門線),東京都 千代田区大手町1丁目6番1号,B1F,バリアフリートイレ,"鉄道会社: 東京地下鉄 | 路線: 4号線丸ノ内線/5号線東西線/9号線千代田線/11号線半蔵門線 | 設備: 車椅子対応, オストメイト対応, おむつ交換台",#0066cc,139.76333,35.685458
大手町駅 (4号線丸ノ内線/5号線東西線/9号線千代田線/11号線半蔵門線),東京都 千代田区大手町1丁目6番1号,B2F,バリアフリートイレ,"鉄道会社: 東京地下鉄 | 路線: 4号線丸ノ内線/5号線東西線/9号線千代田線/11号線半蔵門線 | 設備: 車椅子対応, オストメイト対応, おむつ交換台",#0066cc,139.76518,35.684858
大手町駅 (4号線丸ノ内線/5号線東西線/9号線千代田線/11号線半蔵門線),東京都 千代田区大手町1丁目6番1号,B2F,バリアフリートイレ,"鉄道会社: 東京地下鉄 | 路線: 4号線丸ノ内線/5号線東西線/9号線千代田線/11号線半蔵門線 | 設備: 車椅子対応, オストメイト対応, おむつ交換台",#0066cc,139.7663,35.68462
大手町駅 (4号線丸ノ内線/5号線東西線/9号線千代田線/12号線半蔵門線),東京都 千代田区大手町1丁目6番1号,B2F,バリアフリートイレ,"2024調査 | 鉄道会社: 東京地下鉄 | 路線: 4号線丸ノ内線/5号線東西線/9号線千代田線/12号線半蔵門線 | 設備: 車椅子対応, オストメイト対応, おむつ交換台",#0066cc,139.765685,35.684708
大手町駅 (4号線丸ノ内線/5号線東西線/9号線千代田線/11号線半蔵門線),東京都 千代田区大手町1丁目6番1号,B1F,バリアフリートイレ,"鉄道会社: 東京地下鉄 | 路線: 4号線丸ノ内線/5号線東西線/9号線千代田線/11号線半蔵門線 | 設備: 車椅子対応, オストメイト対応, おむつ交換台",#0066cc,139.766281,35.686247
北千住駅 (2号線日比谷線/9号線千代田線),東京都 足立区千住2丁目63番地,B1F,バリアフリートイレ,"鉄道会社: 東京地下鉄 | 路線: 2号線日比谷線/9号線千代田線 | 設備: 車椅子対応, オストメイト対応, おむつ交換台",#0066cc,139.8044,35.74895
銀座駅 (2号線日比谷線/3号線銀座線/4号線丸ノ内線),東京都 中央区銀座4丁目1番2号,B2F,バリアフリートイレ,"鉄道会社: 東京地下鉄 | 路線: 2号線日比谷線/3号線銀座線/4号線丸ノ内線 | 設備: 車椅子対応, オストメイト対応, 大型ベッド, おむつ交換台",#0066cc,139.764814,35.671231
銀座駅 (2号線日比谷線/3号線銀座線/4号線丸ノ内線),東京都 中央区銀座4丁目1番2号,B1F,バリアフリートイレ,"鉄道会社: 東京地下鉄 | 路線: 2号線日比谷線/3号線銀座線/4号線丸ノ内線 | 設備: 車椅子対応, オストメイト対応, おむつ交換台",#0066cc,139.76426,35.673183
銀座（地下歩道）駅 (2号線日比谷線/3号線銀座線/4号線丸ノ内線),東京都 中央区銀座4丁目1番2号,B1F,バリアフリートイレ,"鉄道会社: 東京地下鉄 | 路線: 2号線日比谷線/3号線銀座線/4号線丸ノ内線 | 設備: 車椅子対応, オストメイト対応, おむつ交換台",#0066cc,139.765449,35.670801
新橋駅 (3号線銀座線),東京都 港区新橋2丁目17番5号,B1F,バリアフリートイレ,"鉄道会社: 東京地下鉄 | 路線: 3号線銀座線 | 設備: 車椅子対応, オストメイト対応, おむつ交換台",#0066cc,139.759275,35.667236
新宿駅 (4号線丸ノ内線),東京都 新宿区西新宿西口地下街1号,B1F,バリアフリートイレ,"鉄道会社: 東京地下鉄 | 路線: 4号線丸ノ内線 | 設備: 車椅子対応, オストメイト対応, おむつ交換台",#0066cc,139.7014,35.69223
上野駅 (3号線銀座線/2号線日比谷線),東京都 台東区東上野3丁目19番6号,B1F,バリアフリートイレ,"鉄道会社: 東京地下鉄 | 路線: 3号線銀座線/2号線日比谷線 | 設備: 車椅子対応, オストメイト対応, おむつ交換台",#0066cc,139.776305,35.711726
上野駅 (3号線銀座線/2号線日比谷線),東京都 台東区東上野3丁目19番6号,B1F,バリアフリートイレ,"鉄道会社: 東京地下鉄 | 路線: 3号線銀座線/2号線日比谷線 | 設備: 車椅子対応, オストメイト対応, おむつ交換台",#0066cc,139.777275,35.711555
豊洲駅 (8号線有楽町線),東京都 江東区豊洲4丁目1番1号,B1F,バリアフリートイレ,"鉄道会社: 東京地下鉄 | 路線: 8号線有楽町線 | 設備: 車椅子対応, オストメイト対応, おむつ交換台",#0066cc,139.79568,35.655273
豊洲駅 (8号線有楽町線),東京都 江東区豊洲4丁目1番1号,B1F,バリアフリートイレ,"鉄道会社: 東京地下鉄 | 路線: 8号線有楽町線 | 設備: 車椅子対応, オストメイト対応, おむつ交換台",#0066cc,139.79613,35.654903
東京駅 (4号線丸ノ内線),東京都 千代田区丸の内1丁目6番5号,B1F,バリアフリートイレ,"鉄道会社: 東京地下鉄 | 路線: 4号線丸ノ内線 | 設備: 車椅子対応, オストメイト対応, おむつ交換台",#0066cc,139.7651,35.68295
高田馬場駅 (5号線東西線),東京都 新宿区高田馬場1丁目35番2号,B1F,バリアフリートイレ,"鉄道会社: 東京地下鉄 | 路線: 5号線東西線 | 設備: 車椅子対応, オストメイト対応, おむつ交換台",#0066cc,139.7047,35.71327
高田馬場駅 (5号線東西線),東京都 新宿区高田馬場1丁目35番2号,B1F,バリアフリートイレ,"鉄道会社: 東京地下鉄 | 路線: 5号線東西線 | 設備: 車椅子対応, オストメイト対応, おむつ交換台",#0066cc,139.7071,35.71227
飯田橋駅 (5号線東西線/７号線南北線/8号線有楽町線),東京都 新宿区神楽坂1丁目13番地,B1F,バリアフリートイレ,"鉄道会社: 東京地下鉄 | 路線: 5号線東西線/７号線南北線/8号線有楽町線 | 設備: 車椅子対応, オストメイト対応, おむつ交換台",#0066cc,139.74369,35.701544
飯田橋駅 (5号線東西線/７号線南北線/8号線有楽町線),東京都 新宿区神楽坂1丁目13番地,B1F,バリアフリートイレ,"鉄道会社: 東京地下鉄 | 路線: 5号線東西線/７号線南北線/8号線有楽町線 | 設備: 車椅子対応, オストメイト対応, おむつ交換台",#0066cc,139.74313,35.700931
飯田橋駅 (5号線東西線/７号線南北線/8号線有楽町線),東京都 新宿区神楽坂1丁目13番地,B1F,バリアフリートイレ,"鉄道会社: 東京地下鉄 | 路線: 5号線東西線/７号線南北線/8号線有楽町線 | 設備: 車椅子対応, オストメイト対応, おむつ交換台",#0066cc,139.7459,35.701871
飯田橋駅 (5号線東西線/７号線南北線/8号線有楽町線),東京都 新宿区神楽坂1丁目13番地,B2F,バリアフリートイレ,"鉄道会社: 東京地下鉄 | 路線: 5号線東西線/７号線南北線/8号線有楽町線 | 設備: 車椅子対応, オストメイト対応, おむつ交換台",#0066cc,139.74753,35.70087
日本橋駅 (3号線銀座線/5号線東西線),東京都 中央区日本橋1丁目3番11号先,B2F,バリアフリートイレ,"鉄道会社: 東京地下鉄 | 路線: 3号線銀座線/5号線東西線 | 設備: 車椅子対応, オストメイト対応, おむつ交換台",#0066cc,139.774134,35.682302
日本橋駅 (3号線銀座線/5号線東西線),東京都 中央区日本橋1丁目3番11号先,B2F,バリアフリートイレ,"鉄道会社: 東京地下鉄 | 路線: 3号線銀座線/5号線東西線 | 設備: 車椅子対応, オストメイト対応, おむつ交換台",#0066cc,139.775017,35.681974
日本橋駅 (3号線銀座線/5号線東西線),東京都 中央区日本橋1丁目3番11号先,B1F,バリアフリートイレ,"鉄道会社: 東京地下鉄 | 路線: 3号線銀座線/5号線東西線 | 設備: 車椅子対応, オストメイト対応, おむつ交換台",#0066cc,139.772405,35.683027
日本橋駅 (3号線銀座線/5号線東西線),東京都 中央区日本橋1丁目3番11号先,B1F,バリアフリートイレ,"鉄道会社: 東京地下鉄 | 路線: 3号線銀座線/5号線東西線 | 設備: 車椅子対応, オストメイト対応, おむつ交換台",#0066cc,139.773091,35.681539
表参道駅 (3号線銀座線/9号線千代田線/11号線半蔵門線),東京都 港区北青山3丁目6番12号,B2F,バリアフリートイレ,"鉄道会社: 東京地下鉄 | 路線: 3号線銀座線/9号線千代田線/11号線半蔵門線 | 設備: 車椅子対応, オストメイト対応, おむつ交換台",#0066cc,139.712295,35.664748
表参道駅 (3号線銀座線/9号線千代田線/11号線半蔵門線),東京都 港区北青山3丁目6番12号,B1F,バリアフリートイレ,"鉄道会社: 東京地下鉄 | 路線: 3号線銀座線/9号線千代田線/11号線半蔵門線 | 設備: 車椅子対応, オストメイト対応, おむつ交換台",#0066cc,139.712069,35.665171
有楽町駅 (8号線有楽町線),東京都 千代田区有楽町1丁目11番1号,B1F,バリアフリートイレ,"鉄道会社: 東京地下鉄 | 路線: 8号線有楽町線 | 設備: 車椅子対応, オストメイト対応, おむつ交換台",#0066cc,139.76218,35.675907
九段下駅 (5号線東西線/11号線半蔵門線),東京都 千代田区九段南1丁目6番1号,B2F,バリアフリートイレ,"鉄道会社: 東京地下鉄 | 路線: 5号線東西線/11号線半蔵門線 | 設備: 車椅子対応, オストメイト対応, おむつ交換台",#0066cc,139.7507,35.695299
西日暮里駅 (9号線千代田線),東京都 荒川区西日暮里5丁目14番1号,B1F,バリアフリートイレ,"鉄道会社: 東京地下鉄 | 路線: 9号線千代田線 | 設備: 車椅子対応, オストメイト対応",#0066cc,139.7662,35.731973
新宿三丁目駅 (4号線丸ノ内線/13号線副都心線),東京都 新宿区新宿3丁目14番1号,B1F,バリアフリートイレ,"鉄道会社: 東京地下鉄 | 路線: 4号線丸ノ内線/13号線副都心線 | 設備: 車椅子対応, オストメイト対応, おむつ交換台",#0066cc,139.7049,35.69085
新宿三丁目駅 (4号線丸ノ内線/13号線副都心線),東京都 新宿区新宿3丁目14番1号,B2F,バリアフリートイレ,"鉄道会社: 東京地下鉄 | 路線: 4号線丸ノ内線/13号線副都心線 | 設備: 車椅子対応, オストメイト対応, おむつ交換台",#0066cc,139.7043,35.68991
新宿三丁目駅 (4号線丸ノ内線/13号線副都心線),東京都 新宿区新宿3丁目14番1号,B2F,バリアフリートイレ,"鉄道会社: 東京地下鉄 | 路線: 4号線丸ノ内線/13号線副都心線 | 設備: 車椅子対応, オストメイト対応, おむつ交換台",#0066cc,139.7043,35.68989
霞ヶ関駅 (2号線日比谷線/4号線丸ノ内線/9号線千代田線),東京都 千代田区霞が関2丁目1番2号,B1F,バリアフリートイレ,"鉄道会社: 東京地下鉄 | 路線: 2号線日比谷線/4号線丸ノ内線/9号線千代田線 | 設備: 車椅子対応, オストメイト対応, おむつ交換台",#0066cc,139.7517,35.6749
霞ヶ関駅 (2号線日比谷線/4号線丸ノ内線/9号線千代田線),東京都 千代田区霞が関2丁目1番2号,B1F,バリアフリートイレ,"鉄道会社: 東京地下鉄 | 路線: 2号線日比谷線/4号線丸ノ内線/9号線千代田線 | 設備: 車椅子対応, オストメイト対応, おむつ交換台",#0066cc,139.7537,35.67389
霞ヶ関駅 (2号線日比谷線/4号線丸ノ内線/9号線千代田線),東京都 千代田区霞が関2丁目1番2号,B2F,バリアフリートイレ,"鉄道会社: 東京地下鉄 | 路線: 2号線日比谷線/4号線丸ノ内線/9号線千代田線 | 設備: 車椅子対応, オストメイト対応, おむつ交換台",#0066cc,139.751,35.67281
国会議事堂前駅 (4号線丸ノ内線/9号線千代田線),東京都 千代田区永田町1丁目7番1号,B1F,バリアフリートイレ,"鉄道会社: 東京地下鉄 | 路線: 4号線丸ノ内線/9号線千代田線 | 設備: 車椅子対応, オストメイト対応, おむつ交換台",#0066cc,139.7451,35.67388
国会議事堂前駅 (4号線丸ノ内線/9号線千代田線),東京都 千代田区永田町1丁目7番1号,B1F,バリアフリートイレ,"鉄道会社: 東京地下鉄 | 路線: 4号線丸ノ内線/9号線千代田線 | 設備: 車椅子対応, オストメイト対応, おむつ交換台",#0066cc,139.7453,35.67428
国会議事堂前駅 (4号線丸ノ内線/9号線千代田線),東京都 千代田区永田町1丁目7番1号,B2F,バリアフリートイレ,"鉄道会社: 東京地下鉄 | 路線: 4号線丸ノ内線/9号線千代田線 | 設備: 車椅子対応, オストメイト対応, おむつ交換台",#0066cc,139.7422,35.67374
溜池山王駅 (3号線銀座線/7号線南北線),東京都 千代田区永田町2丁目11番1号,B3F,バリアフリートイレ,"鉄道会社: 東京地下鉄 | 路線: 3号線銀座線/7号線南北線 | 設備: 車椅子対応, オストメイト対応, おむつ交換台",#0066cc,139.742044,35.671409
溜池山王駅 (3号線銀座線/7号線南北線),東京都 千代田区永田町2丁目11番1号,B2F,バリアフリートイレ,"鉄道会社: 東京地下鉄 | 路線: 3号線銀座線/7号線南北線 | 設備: 車椅子対応, オストメイト対応, おむつ交換台",#0066cc,139.741481,35.673403
市ケ谷駅 (7号線南北線/8号線有楽町線),東京都 新宿区市谷田町1丁目先,B1F,バリアフリートイレ,"鉄道会社: 東京地下鉄 | 路線: 7号線南北線/8号線有楽町線 | 設備: 車椅子対応, オストメイト対応, おむつ交換台",#0066cc,139.73645,35.691578
市ケ谷駅 (7号線南北線/8号線有楽町線),東京都 新宿区市谷田町1丁目先,B3F,バリアフリートイレ,"鉄道会社: 東京地下鉄 | 路線: 7号線南北線/8号線有楽町線 | 設備: 車椅子対応, オストメイト対応, おむつ交換台",#0066cc,139.73649,35.69301
六本木駅 (2号線日比谷線),東京都 港区六本木6丁目1番25号,B2F,バリアフリートイレ,"鉄道会社: 東京地下鉄 | 路線: 2号線日比谷線 | 設備: 車椅子対応, オストメイト対応, おむつ交換台",#0066cc,139.7314,35.66276
六本木駅 (2号線日比谷線),東京都 港区六本木6丁目1番25号,B2F,バリアフリートイレ,"鉄道会社: 東京地下鉄 | 路線: 2号線日比谷線 | 設備: 車椅子対応, オストメイト対応, おむつ交換台",#0066cc,139.7305,35.66235
茅場町駅 (2号線日比谷線/5号線東西線),東京都 中央区日本橋茅場町1丁目4番6号先,B1F,バリアフリートイレ,"鉄道会社: 東京地下鉄 | 路線: 2号線日比谷線/5号線東西線 | 設備: 車椅子対応, オストメイト対応, おむつ交換台",#0066cc,139.7783,35.68075
三越前駅 (3号線銀座線/11号線半蔵門線),東京都 中央区日本橋室町1丁目8番1号,B1F,バリアフリートイレ,"鉄道会社: 東京地下鉄 | 路線: 3号線銀座線/11号線半蔵門線 | 設備: 車椅子対応, オストメイト対応, おむつ交換台",#0066cc,139.773573,35.687193
三越前駅 (3号線銀座線/11号線半蔵門線),東京都 中央区日本橋室町1丁目8番1号,B1F,バリアフリートイレ,"鉄道会社: 東京地下鉄 | 路線: 3号線銀座線/11号線半蔵門線 | 設備: 車椅子対応, オストメイト対応, おむつ交換台",#0066cc,139.774866,35.684552
東陽町駅 (5号線東西線),東京都 江東区東陽4丁目2番1号,B2F,バリアフリートイレ,"鉄道会社: 東京地下鉄 | 路線: 5号線東西線 | 設備: 車椅子対応, オストメイト対応, おむつ交換台",#0066cc,139.8185,35.66961
東陽町駅 (5号線東西線),東京都 江東区東陽4丁目2番1号,B1F,バリアフリートイレ,"鉄道会社: 東京地下鉄 | 路線: 5号線東西線 | 設備: 車椅子対応, オストメイト対応, おむつ交換台",#0066cc,139.8168,35.66945
秋葉原駅 (2号線日比谷線),東京都 千代田区神田佐久間町1丁目21番地,B1F,バリアフリートイレ,"鉄道会社: 東京地下鉄 | 路線: 2号線日比谷線 | 設備: 車椅子対応, オストメイト対応, おむつ交換台",#0066cc,139.7755,35.69786
四ツ谷駅 (4号線丸ノ内線/7号線南北線),東京都 新宿区四谷1丁目3番地,B2F,バリアフリートイレ,"鉄道会社: 東京地下鉄 | 路線: 4号線丸ノ内線/7号線南北線 | 設備: 車椅子対応, オストメイト対応, おむつ交換台",#0066cc,139.7297,35.68608
四ツ谷駅 (4号線丸ノ内線/7号線南北線),東京都 新宿区四谷1丁目3番地,1F,バリアフリートイレ,"鉄道会社: 東京地下鉄 | 路線: 4号線丸ノ内線/7号線南北線 | 設備: 車椅子対応, オストメイト対応, おむつ交換台",#0066cc,139.72991,35.68498
赤坂見附駅 (3号線銀座線/4号線丸ノ内線),東京都 港区赤坂3丁目1番6号,B1F,バリアフリートイレ,"鉄道会社: 東京地下鉄 | 路線: 3号線銀座線/4号線丸ノ内線 | 設備: 車椅子対応, オストメイト対応, おむつ交換台",#0066cc,139.736727,35.677652
赤坂見附駅 (3号線銀座線/4号線丸ノ内線),東京都 港区赤坂3丁目1番6号,B3F,バリアフリートイレ,"鉄道会社: 東京地下鉄 | 路線: 3号線銀座線/4号線丸ノ内線 | 設備: 車椅子対応, オストメイト対応, おむつ交換台",#0066cc,139.737749,35.675901
虎ノ門駅 (3号線銀座線),東京都 港区虎ノ門1丁目1番21号先,B1F,バリアフリートイレ,"鉄道会社: 東京地下鉄 | 路線: 3号線銀座線 | 設備: 車椅子対応, オストメイト対応, おむつ交換台",#0066cc,139.749966,35.670212
虎ノ門駅 (3号線銀座線),東京都 港区虎ノ門1丁目1番21号先,B1F,バリアフリートイレ,"鉄道会社: 東京地下鉄 | 路線: 3号線銀座線 | 設備: 車椅子対応, オストメイト対応, おむつ交換台",#0066cc,139.749434,35.670222
門前仲町駅 (5号線東西線),東京都 江東区門前仲町1丁目4番8号,B1F,バリアフリートイレ,"鉄道会社: 東京地下鉄 | 路線: 5号線東西線 | 設備: 車椅子対応, オストメイト対応, おむつ交換台",#0066cc,139.797,35.67147
門前仲町駅 (5号線東西線),東京都 江東区門前仲町1丁目4番8号,B1F,バリアフリートイレ,"鉄道会社: 東京地下鉄 | 路線: 5号線東西線 | 設備: 車椅子対応, オストメイト対応, おむつ交換台",#0066cc,139.7944,35.67252
青山一丁目駅 (3号線銀座線/11号線半蔵門線),東京都 港区南青山1丁目1番19号,B1F,バリアフリートイレ,"鉄道会社: 東京地下鉄 | 路線: 3号線銀座線/11号線半蔵門線 | 設備: 車椅子対応, オストメイト対応, おむつ交換台",#0066cc,139.723728,35.672798
恵比寿駅 (2号線日比谷線),東京都 渋谷区恵比寿南1丁目5番5号,B2F,バリアフリートイレ,"鉄道会社: 東京地下鉄 | 路線: 2号線日比谷線 | 設備: 車椅子対応, オストメイト対応, おむつ交換台",#0066cc,139.709,35.64725
八丁堀駅 (2号線日比谷線),東京都 中央区八丁堀2丁目22番5号,B1F,バリアフリートイレ,"鉄道会社: 東京地下鉄 | 路線: 2号線日比谷線 | 設備: 車椅子対応, オストメイト対応, おむつ交換台",#0066cc,139.7778,35.67609
新木場駅 (8号線有楽町線),東京都 江東区新木場1丁目6番地先,3F,バリアフリートイレ,"鉄道会社: 東京地下鉄 | 路線: 8号線有楽町線 | 設備: 車椅子対応, オストメイト対応, おむつ交換台",#0066cc,139.82602,35.64588
浅草駅 (3号線銀座線),東京都 台東区浅草1丁目1番3号,B2F,バリアフリートイレ（1番線ホーム）,"鉄道会社: 東京地下鉄 | 路線: 3号線銀座線 | 設備: 車椅子対応, オストメイト対応, おむつ交換台",#0066cc,139.797873,35.710634
浅草駅 (3号線銀座線),東京都 台東区浅草1丁目1番3号,B2F,バリアフリートイレ（2番線ホーム）,"鉄道会社: 東京地下鉄 | 路線: 3号線銀座線 | 設備: 車椅子対応, オストメイト対応, おむつ交換台",#0066cc,139.7971204,35.71003406
葛西駅 (5号線東西線),東京都 江戸川区中葛西5丁目43番11号,1F,バリアフリートイレ,"鉄道会社: 東京地下鉄 | 路線: 5号線東西線 | 設備: 車椅子対応, オストメイト対応, おむつ交換台",#0066cc,139.8726,35.66367
日比谷駅 (2号線日比谷線/9号線千代田線),東京都 千代田区有楽町1丁目5番1号先,B2F,バリアフリートイレ,"鉄道会社: 東京地下鉄 | 路線: 2号線日比谷線/9号線千代田線 | 設備: 車椅子対応, オストメイト対応, おむつ交換台",#0066cc,139.76,35.67472
日比谷駅 (2号線日比谷線/9号線千代田線),東京都 千代田区有楽町1丁目5番1号先,B1F,バリアフリートイレ,"鉄道会社: 東京地下鉄 | 路線: 2号線日比谷線/9号線千代田線 | 設備: 車椅子対応, オストメイト対応, おむつ交換台",#0066cc,139.7594,35.67481
日比谷駅 (2号線日比谷線/9号線千代田線),東京都 千代田区有楽町1丁目5番1号先,B1F,バリアフリートイレ,"鉄道会社: 東京地下鉄 | 路線: 2号線日比谷線/9号線千代田線 | 設備: 車椅子対応, オストメイト対応, おむつ交換台",#0066cc,139.7579,35.67339
西葛西駅 (5号線東西線),東京都 江戸川区西葛西6丁目14番1号,2F,バリアフリートイレ,"鉄道会社: 東京地下鉄 | 路線: 5号線東西線 | 設備: 車椅子対応, オストメイト対応, おむつ交換台",#0066cc,139.8591,35.66451
錦糸町駅 (11号線半蔵門線),東京都 墨田区江東橋3丁目14番6号先,B1F,バリアフリートイレ,"鉄道会社: 東京地下鉄 | 路線: 11号線半蔵門線 | 設備: 車椅子対応, オストメイト対応, おむつ交換台",#0066cc,139.815,35.697228
明治神宮前＜原宿＞駅 (9号線千代田線/13号線副都心線),東京都 渋谷区神宮前1丁目18番22号,B1F,バリアフリートイレ,"鉄道会社: 東京地下鉄 | 路線: 9号線千代田線/13号線副都心線 | 設備: 車椅子対応, オストメイト対応, おむつ交換台",#0066cc,139.70481,35.66874
明治神宮前＜原宿＞駅 (9号線千代田線/13号線副都心線),東京都 渋谷区神宮前1丁目18番22号,B2F,バリアフリートイレ,"鉄道会社: 東京地下鉄 | 路線: 9号線千代田線/13号線副都心線 | 設備: 車椅子対応, オストメイト対応, おむつ交換台",#0066cc,139.70353,35.669344
明治神宮前＜原宿＞駅 (9号線千代田線/13号線副都心線),東京都 渋谷区神宮前1丁目18番22号,B4F,バリアフリートイレ,"鉄道会社: 東京地下鉄 | 路線: 9号線千代田線/13号線副都心線 | 設備: 車椅子対応, オストメイト対応, おむつ交換台",#0066cc,139.70502,35.668073
明治神宮前＜原宿＞駅 (9号線千代田線/13号線副都心線),東京都 渋谷区神宮前1丁目18番22号,B4F,バリアフリートイレ,"鉄道会社: 東京地下鉄 | 路線: 9号線千代田線/13号線副都心線 | 設備: 車椅子対応, オストメイト対応, おむつ交換台",#0066cc,139.70505,35.66811
後楽園駅 (4号線丸ノ内線/7号線南北線),東京都 文京区春日1丁目2番3号,1F,バリアフリートイレ,"鉄道会社: 東京地下鉄 | 路線: 4号線丸ノ内線/7号線南北線 | 設備: 車椅子対応, オストメイト対応, おむつ交換台",#0066cc,139.7513,35.70727
後楽園駅 (4号線丸ノ内線/7号線南北線),東京都 文京区春日1丁目2番3号,B1F,バリアフリートイレ,"鉄道会社: 東京地下鉄 | 路線: 4号線丸ノ内線/7号線南北線 | 設備: 車椅子対応, オストメイト対応, おむつ交換台",#0066cc,139.7518,35.70785
後楽園駅 (4号線丸ノ内線/7号線南北線),東京都 文京区春日1丁目2番3号,B1F,バリアフリートイレ,"鉄道会社: 東京地下鉄 | 路線: 4号線丸ノ内線/7号線南北線 | 設備: 車椅子対応, オストメイト対応, おむつ交換台",#0066cc,139.7518,35.70914
神谷町駅 (2号線日比谷線),東京都 港区虎ノ門5丁目12番11号,B2F,バリアフリートイレ,"鉄道会社: 東京地下鉄 | 路線: 2号線日比谷線 | 設備: 車椅子対応, オストメイト対応, おむつ交換台",#0066cc,139.7447,35.66253
神谷町駅 (2号線日比谷線),東京都 港区虎ノ門5丁目12番11号,B2F,バリアフリートイレ,"鉄道会社: 東京地下鉄 | 路線: 2号線日比谷線 | 設備: 車椅子対応, オストメイト対応, おむつ交換台",#0066cc,139.7446,35.66253
新御茶ノ水駅 (9号線千代田線),東京都 千代田区神田駿河台3丁目,B1F,バリアフリートイレ,"鉄道会社: 東京地下鉄 | 路線: 9号線千代田線 | 設備: 車椅子対応, オストメイト対応, おむつ交換台",#0066cc,139.7657,35.698852
新御茶ノ水駅 (9号線千代田線),東京都 千代田区神田駿河台3丁目,B1F,バリアフリートイレ,"鉄道会社: 東京地下鉄 | 路線: 9号線千代田線 | 設備: 車椅子対応, オストメイト対応, おむつ交換台",#0066cc,139.76503,35.69571
神保町駅 (11号線半蔵門線),東京都 千代田区神田神保町2丁目2番地,B2F,バリアフリートイレ,"鉄道会社: 東京地下鉄 | 路線: 11号線半蔵門線 | 設備: 車椅子対応, オストメイト対応, おむつ交換台",#0066cc,139.75632,35.695806
神保町駅 (11号線半蔵門線),東京都 千代田区神田神保町2丁目2番地,B2F,バリアフリートイレ,"鉄道会社: 東京地下鉄 | 路線: 11号線半蔵門線 | 設備: 車椅子対応, オストメイト対応, おむつ交換台",#0066cc,139.75771,35.69598
赤坂駅 (9号線千代田線),東京都 港区赤坂5丁目4番5号,B1F,バリアフリートイレ,"鉄道会社: 東京地下鉄 | 路線: 9号線千代田線 | 設備: 車椅子対応, オストメイト対応, おむつ交換台",#0066cc,139.73668,35.67241
赤坂駅 (9号線千代田線),東京都 港区赤坂5丁目4番5号,B1F,バリアフリートイレ,"鉄道会社: 東京地下鉄 | 路線: 9号線千代田線 | 設備: 車椅子対応, オストメイト対応, おむつ交換台",#0066cc,139.73578,35.671762
東銀座駅 (2号線日比谷線),東京都 中央区銀座4丁目12番15号先,B1F,バリアフリートイレ,"鉄道会社: 東京地下鉄 | 路線: 2号線日比谷線 | 設備: 車椅子対応, オストメイト対応, おむつ交換台",#0066cc,139.7667,35.66999
半蔵門駅 (11号線半蔵門線),東京都 千代田区麹町1丁目6番地先,B2F,バリアフリートイレ,"鉄道会社: 東京地下鉄 | 路線: 11号線半蔵門線 | 設備: 車椅子対応, オストメイト対応, おむつ交換台",#0066cc,139.74162,35.685533
半蔵門駅 (11号線半蔵門線),東京都 千代田区麹町1丁目6番地先,B2F,バリアフリートイレ,"鉄道会社: 東京地下鉄 | 路線: 11号線半蔵門線 | 設備: 車椅子対応, オストメイト対応, おむつ交換台",#0066cc,139.74177,35.686464
荻窪駅 (4号線丸ノ内線),東京都 杉並区荻窪5丁目31番7号,B1F,バリアフリートイレ,"鉄道会社: 東京地下鉄 | 路線: 4号線丸ノ内線 | 設備: 車椅子対応, オストメイト対応, おむつ交換台",#0066cc,139.621,35.70436
西新宿駅 (4号線丸ノ内線),東京都 新宿区西新宿6丁目7番51号,B1F,バリアフリートイレ,"鉄道会社: 東京地下鉄 | 路線: 4号線丸ノ内線 | 設備: 車椅子対応, オストメイト対応, おむつ交換台",#0066cc,139.6925,35.69454
人形町駅 (2号線日比谷線),東京都 中央区日本橋人形町2丁目6番5号,B1F,バリアフリートイレ,"鉄道会社: 東京地下鉄 | 路線: 2号線日比谷線 | 設備: 車椅子対応, オストメイト対応, おむつ交換台",#0066cc,139.7828,35.68661
早稲田駅 (5号線東西線),東京都 新宿区早稲田南町12番地,B2F,バリアフリートイレ,"鉄道会社: 東京地下鉄 | 路線: 5号線東西線 | 設備: 車椅子対応, オストメイト対応, おむつ交換台",#0066cc,139.72,35.70616
早稲田駅 (5号線東西線),東京都 新宿区早稲田南町12番地,B2F,バリアフリートイレ,"鉄道会社: 東京地下鉄 | 路線: 5号線東西線 | 設備: 車椅子対応, オストメイト対応, おむつ交換台",#0066cc,139.721209,35.705751
外苑前駅 (3号線銀座線),東京都 港区北青山2丁目7番16号,B1F,バリアフリートイレ,"鉄道会社: 東京地下鉄 | 路線: 3号線銀座線 | 設備: 車椅子対応, オストメイト対応, おむつ交換台",#0066cc,139.718731,35.6708
外苑前駅 (3号線銀座線),東京都 港区北青山2丁目7番16号,B1F,バリアフリートイレ,"鉄道会社: 東京地下鉄 | 路線: 3号線銀座線 | 設備: 車椅子対応, オストメイト対応, おむつ交換台",#0066cc,139.717721,35.670299
水天宮前駅 (11号線半蔵門線),東京都 中央区日本橋蛎殻町2丁目1番1号,B1F,バリアフリートイレ,"鉄道会社: 東京地下鉄 | 路線: 11号線半蔵門線 | 設備: 車椅子対応, オストメイト対応, おむつ交換台",#0066cc,139.78581,35.682426
茗荷谷駅 (4号線丸ノ内線),東京都 文京区小日向4丁目6番15号,1F,バリアフリートイレ,"鉄道会社: 東京地下鉄 | 路線: 4号線丸ノ内線 | 設備: 車椅子対応, オストメイト対応, おむつ交換台",#0066cc,139.7369,35.71727
築地駅 (2号線日比谷線),東京都 中央区築地3丁目15番1号,B1F,バリアフリートイレ,"鉄道会社: 東京地下鉄 | 路線: 2号線日比谷線 | 設備: 車椅子対応, オストメイト対応, おむつ交換台",#0066cc,139.7722,35.66746
永田町駅 (7号線南北線/8号線有楽町線/11号線半蔵門線),東京都 千代田区永田町1丁目11番28号先,B1F,バリアフリートイレ,"鉄道会社: 東京地下鉄 | 路線: 7号線南北線/8号線有楽町線/11号線半蔵門線 | 設備: 車椅子対応, オストメイト対応, おむつ交換台",#0066cc,139.74075,35.678403
永田町駅 (7号線南北線/8号線有楽町線/11号線半蔵門線),東京都 千代田区永田町1丁目11番28号先,B1F,バリアフリートイレ,"鉄道会社: 東京地下鉄 | 路線: 7号線南北線/8号線有楽町線/11号線半蔵門線 | 設備: 車椅子対応, オストメイト対応, おむつ交換台",#0066cc,139.74269,35.67747
永田町駅 (7号線南北線/8号線有楽町線/11号線半蔵門線),東京都 千代田区永田町1丁目11番28号先,B2F,バリアフリートイレ,"鉄道会社: 東京地下鉄 | 路線: 7号線南北線/8号線有楽町線/11号線半蔵門線 | 設備: 車椅子対応, オストメイト対応, おむつ交換台",#0066cc,139.74049,35.677811
永田町駅 (7号線南北線/8号線有楽町線/11号線半蔵門線),東京都 千代田区永田町1丁目11番28号先,B1F,バリアフリートイレ,"鉄道会社: 東京地下鉄 | 路線: 7号線南北線/8号線有楽町線/11号線半蔵門線 | 設備: 車椅子対応, オストメイト対応, おむつ交換台",#0066cc,139.73843,35.678977
永田町駅 (7号線南北線/8号線有楽町線/11号線半蔵門線),東京都 千代田区永田町1丁目11番28号先,B2F,バリアフリートイレ,"鉄道会社: 東京地下鉄 | 路線: 7号線南北線/8号線有楽町線/11号線半蔵門線 | 設備: 車椅子対応, オストメイト対応, おむつ交換台",#0066cc,139.73697,35.678222
中野坂上駅 (4号線丸ノ内線/4号線丸ノ内線分岐線),東京都 中野区本町2丁目48番2号,B3F,バリアフリートイレ,"鉄道会社: 東京地下鉄 | 路線: 4号線丸ノ内線/4号線丸ノ内線分岐線 | 設備: 車椅子対応, オストメイト対応, おむつ交換台",#0066cc,139.681,35.69688
六本木一丁目駅 (7号線南北線),東京都 港区六本木1丁目4番1号,B2F,バリアフリートイレ,"鉄道会社: 東京地下鉄 | 路線: 7号線南北線 | 設備: 車椅子対応, オストメイト対応, おむつ交換台",#0066cc,139.739,35.66518
月島駅 (8号線有楽町線),東京都 中央区月島1丁目3番9号先,B1F,バリアフリートイレ,"鉄道会社: 東京地下鉄 | 路線: 8号線有楽町線 | 設備: 車椅子対応, オストメイト対応, おむつ交換台",#0066cc,139.78456,35.664596
麹町駅 (8号線有楽町線),東京都 千代田区麹町3丁目2番地先,B1F,バリアフリートイレ,"鉄道会社: 東京地下鉄 | 路線: 8号線有楽町線 | 設備: 車椅子対応, オストメイト対応, おむつ交換台",#0066cc,139.73706,35.685447
麹町駅 (8号線有楽町線),東京都 千代田区麹町3丁目2番地先,B1F,バリアフリートイレ,"鉄道会社: 東京地下鉄 | 路線: 8号線有楽町線 | 設備: 車椅子対応, オストメイト対応, おむつ交換台",#0066cc,139.73759,35.684061
王子駅 (7号線南北線),東京都 北区王子1丁目10番18号,B1F,バリアフリートイレ,"鉄道会社: 東京地下鉄 | 路線: 7号線南北線 | 設備: 車椅子対応, オストメイト対応, おむつ交換台",#0066cc,139.7376,35.754
南砂町駅 (5号線東西線),東京都 江東区南砂3丁目11番85号,B1F,バリアフリートイレ,"鉄道会社: 東京地下鉄 | 路線: 5号線東西線 | 設備: 車椅子対応, オストメイト対応, おむつ交換台",#0066cc,139.8307417,35.66852382
南砂町駅 (5号線東西線),東京都 江東区南砂3丁目11番85号,B1F,バリアフリートイレ,"鉄道会社: 東京地下鉄 | 路線: 5号線東西線 | 設備: 車椅子対応, オストメイト対応, おむつ交換台",#0066cc,139.8307417,35.66852382
町屋駅 (9号線千代田線),東京都 荒川区町屋1丁目1番5号,B1F,バリアフリートイレ,"鉄道会社: 東京地下鉄 | 路線: 9号線千代田線 | 設備: 車椅子対応, オストメイト対応, おむつ交換台",#0066cc,139.78092,35.742767
神田駅 (3号線銀座線),東京都 千代田区神田須田町1丁目16番地,B1F,バリアフリートイレ,"鉄道会社: 東京地下鉄 | 路線: 3号線銀座線 | 設備: 車椅子対応, オストメイト対応, おむつ交換台",#0066cc,139.77066,35.69427
神田駅 (3号線銀座線),東京都 千代田区神田須田町1丁目16番地,B1F,バリアフリートイレ,"鉄道会社: 東京地下鉄 | 路線: 3号線銀座線 | 設備: 車椅子対応, オストメイト対応, おむつ交換台",#0066cc,139.771108,35.692833
御茶ノ水駅 (4号線丸ノ内線),東京都 文京区湯島1丁目5番8号,B1F,バリアフリートイレ,"鉄道会社: 東京地下鉄 | 路線: 4号線丸ノ内線 | 設備: 車椅子対応, オストメイト対応, おむつ交換台",#0066cc,139.7638,35.70078
淡路町駅 (4号線丸ノ内線),東京都 千代田区神田淡路町1丁目2番地,B1F,バリアフリートイレ,"鉄道会社: 東京地下鉄 | 路線: 4号線丸ノ内線 | 設備: 車椅子対応, オストメイト対応, おむつ交換台",#0066cc,139.7677,35.69553
淡路町駅 (4号線丸ノ内線),東京都 千代田区神田淡路町1丁目2番地,B1F,バリアフリートイレ,"鉄道会社: 東京地下鉄 | 路線: 4号線丸ノ内線 | 設備: 車椅子対応, オストメイト対応, おむつ交換台",#0066cc,139.7673,35.69542
京橋駅 (3号線銀座線),東京都 中央区京橋2丁目2番10号,B1F,バリアフリートイレ,"鉄道会社: 東京地下鉄 | 路線: 3号線銀座線 | 設備: 車椅子対応, オストメイト対応, おむつ交換台",#0066cc,139.769658,35.676285
本郷三丁目駅 (4号線丸ノ内線),東京都 文京区本郷2丁目39番1号,1F,バリアフリートイレ,"鉄道会社: 東京地下鉄 | 路線: 4号線丸ノ内線 | 設備: 車椅子対応, オストメイト対応, おむつ交換台",#0066cc,139.76,35.70657
住吉駅 (11号線半蔵門線),東京都 江東区猿江2丁目9番10号,B2F,バリアフリートイレ,"鉄道会社: 東京地下鉄 | 路線: 11号線半蔵門線 | 設備: 車椅子対応, オストメイト対応, おむつ交換台",#0066cc,139.8158,35.688487
清澄白河駅 (11号線半蔵門線),東京都 江東区白河1丁目6番13号,B1F,バリアフリートイレ,"鉄道会社: 東京地下鉄 | 路線: 11号線半蔵門線 | 設備: 車椅子対応, オストメイト対応, おむつ交換台",#0066cc,139.79951,35.682064
清澄白河駅 (11号線半蔵門線),東京都 江東区白河1丁目6番13号,B1F,バリアフリートイレ,"鉄道会社: 東京地下鉄 | 路線: 11号線半蔵門線 | 設備: 車椅子対応, オストメイト対応, おむつ交換台",#0066cc,139.80157,35.682164
新宿御苑前駅 (4号線丸ノ内線),東京都 新宿区新宿1丁目7番2号,B1F,バリアフリートイレ,"鉄道会社: 東京地下鉄 | 路線: 4号線丸ノ内線 | 設備: 車椅子対応, オストメイト対応, おむつ交換台",#0066cc,139.7104,35.68869
新宿御苑前駅 (4号線丸ノ内線),東京都 新宿区新宿1丁目7番2号,B1F,バリアフリートイレ,"鉄道会社: 東京地下鉄 | 路線: 4号線丸ノ内線 | 設備: 車椅子対応, オストメイト対応, おむつ交換台",#0066cc,139.710075,35.688697
江戸川橋駅 (8号線有楽町線),東京都 文京区関口1丁目19番6号,B2F,バリアフリートイレ,"鉄道会社: 東京地下鉄 | 路線: 8号線有楽町線 | 設備: 車椅子対応, オストメイト対応, おむつ交換台",#0066cc,139.73354,35.7095
地下鉄成増駅 (8号線有楽町線),東京都 板橋区成増2丁目11番3号,B1F,バリアフリートイレ,"鉄道会社: 東京地下鉄 | 路線: 8号線有楽町線 | 設備: 車椅子対応, オストメイト対応, おむつ交換台",#0066cc,139.6315,35.77656
竹橋駅 (5号線東西線),東京都 千代田区一ツ橋1丁目1番1号,B1F,バリアフリートイレ,"鉄道会社: 東京地下鉄 | 路線: 5号線東西線 | 設備: 車椅子対応, オストメイト対応, おむつ交換台",#0066cc,139.757,35.69064
竹橋駅 (5号線東西線),東京都 千代田区一ツ橋1丁目1番1号,B1F,バリアフリートイレ,"鉄道会社: 東京地下鉄 | 路線: 5号線東西線 | 設備: 車椅子対応, オストメイト対応, おむつ交換台",#0066cc,139.760162,35.689607
麻布十番駅 (7号線南北線),東京都 港区麻布十番4丁目4番9号先,B1F,バリアフリートイレ,"鉄道会社: 東京地下鉄 | 路線: 7号線南北線 | 設備: 車椅子対応, オストメイト対応, おむつ交換台",#0066cc,139.7372,35.65504
四谷三丁目駅 (4号線丸ノ内線),東京都 新宿区四谷3丁目8番地,B1F,バリアフリートイレ,"鉄道会社: 東京地下鉄 | 路線: 4号線丸ノ内線 | 設備: 車椅子対応, オストメイト対応, おむつ交換台",#0066cc,139.7204,35.68824
四谷三丁目駅 (4号線丸ノ内線),東京都 新宿区四谷3丁目8番地,B1F,バリアフリートイレ,"鉄道会社: 東京地下鉄 | 路線: 4号線丸ノ内線 | 設備: 車椅子対応, オストメイト対応, おむつ交換台",#0066cc,139.7209,35.68797
東池袋駅 (8号線有楽町線),東京都 豊島区東池袋4丁目4番4号,B1F,バリアフリートイレ,"鉄道会社: 東京地下鉄 | 路線: 8号線有楽町線 | 設備: 車椅子対応, オストメイト対応, おむつ交換台",#0066cc,139.71935,35.725833
平和台駅 (8号線有楽町線),東京都 練馬区早宮2丁目17番48号,B1F,バリアフリートイレ,"鉄道会社: 東京地下鉄 | 路線: 8号線有楽町線 | 設備: 車椅子対応, オストメイト対応, おむつ交換台",#0066cc,139.65387,35.757875
乃木坂駅 (9号線千代田線),東京都 港区南青山1丁目25番8号,B1F,バリアフリートイレ,"鉄道会社: 東京地下鉄 | 路線: 9号線千代田線 | 設備: 車椅子対応, オストメイト対応, おむつ交換台",#0066cc,139.72687,35.667161
護国寺駅 (8号線有楽町線),東京都 文京区大塚5丁目40番8号,B2F,バリアフリートイレ,"鉄道会社: 東京地下鉄 | 路線: 8号線有楽町線 | 設備: 車椅子対応, オストメイト対応, おむつ交換台",#0066cc,139.72693,35.720071
護国寺駅 (8号線有楽町線),東京都 文京区大塚5丁目40番8号,B2F,バリアフリートイレ,"鉄道会社: 東京地下鉄 | 路線: 8号線有楽町線 | 設備: 車椅子対応, オストメイト対応, おむつ交換台",#0066cc,139.72744,35.719032
仲御徒町駅 (2号線日比谷線),東京都 台東区上野5丁目24番12号,B1F,バリアフリートイレ,"鉄道会社: 東京地下鉄 | 路線: 2号線日比谷線 | 設備: 車椅子対応, オストメイト対応, おむつ交換台",#0066cc,139.7764,35.7073
仲御徒町駅 (2号線日比谷線),東京都 台東区上野5丁目24番12号,B2F,バリアフリートイレ,"鉄道会社: 東京地下鉄 | 路線: 2号線日比谷線 | 設備: 車椅子対応, オストメイト対応, おむつ交換台",#0066cc,139.776295,35.706584
新富町駅 (8号線有楽町線),東京都 中央区築地1丁目1番1号,B1F,バリアフリートイレ,"鉄道会社: 東京地下鉄 | 路線: 8号線有楽町線 | 設備: 車椅子対応, オストメイト対応, おむつ交換台",#0066cc,139.77403,35.670397
神楽坂駅 (5号線東西線),東京都 新宿区矢来町112番地,B1F,バリアフリートイレ,"鉄道会社: 東京地下鉄 | 路線: 5号線東西線 | 設備: 車椅子対応, オストメイト対応, おむつ交換台",#0066cc,139.7357,35.70371
神楽坂駅 (5号線東西線),東京都 新宿区矢来町112番地,B2F,バリアフリートイレ,"鉄道会社: 東京地下鉄 | 路線: 5号線東西線 | 設備: 車椅子対応, オストメイト対応, おむつ交換台",#0066cc,139.7332,35.70417
東新宿駅 (13号線副都心線),東京都 新宿区新宿7丁目27番11号,B4F,バリアフリートイレ,"鉄道会社: 東京地下鉄 | 路線: 13号線副都心線 | 設備: 車椅子対応, オストメイト対応, おむつ交換台",#0066cc,139.7079,35.70005
東新宿駅 (13号線副都心線),東京都 新宿区新宿7丁目27番11号,B4F,バリアフリートイレ,"鉄道会社: 東京地下鉄 | 路線: 13号線副都心線 | 設備: 車椅子対応, オストメイト対応, おむつ交換台",#0066cc,139.7079,35.70004
駒込駅 (7号線南北線),東京都 北区西ケ原2丁目3番8号,B1F,バリアフリートイレ,"鉄道会社: 東京地下鉄 | 路線: 7号線南北線 | 設備: 車椅子対応, オストメイト対応, おむつ交換台",#0066cc,139.7466,35.7367
駒込駅 (7号線南北線),東京都 北区西ケ原2丁目3番8号,B1F,バリアフリートイレ,"鉄道会社: 東京地下鉄 | 路線: 7号線南北線 | 設備: 車椅子対応, オストメイト対応, おむつ交換台",#0066cc,139.7467,35.73588
氷川台駅 (8号線有楽町線),東京都 練馬区氷川台3丁目38番18号,B2F,バリアフリートイレ,"鉄道会社: 東京地下鉄 | 路線: 8号線有楽町線 | 設備: 車椅子対応, オストメイト対応, おむつ交換台",#0066cc,139.66534,35.749707
要町駅 (8号線有楽町線),東京都 豊島区要町1丁目1番10号,B1F,バリアフリートイレ,"鉄道会社: 東京地下鉄 | 路線: 8号線有楽町線 | 設備: 車椅子対応, オストメイト対応, おむつ交換台",#0066cc,139.69774,35.733393
要町駅 (8号線有楽町線),東京都 豊島区要町1丁目1番10号,B1F,バリアフリートイレ,"鉄道会社: 東京地下鉄 | 路線: 8号線有楽町線 | 設備: 車椅子対応, オストメイト対応, おむつ交換台",#0066cc,139.69982,35.733106
三ノ輪駅 (2号線日比谷線),東京都 台東区根岸5丁目19番6号,1F,バリアフリートイレ,"鉄道会社: 東京地下鉄 | 路線: 2号線日比谷線 | 設備: 車椅子対応, オストメイト対応, おむつ交換台",#0066cc,139.7921,35.73018
三ノ輪駅 (2号線日比谷線),東京都 台東区根岸5丁目19番6号,B1F,バリアフリートイレ,"鉄道会社: 東京地下鉄 | 路線: 2号線日比谷線 | 設備: 車椅子対応, オストメイト対応, おむつ交換台",#0066cc,139.7908,35.72919
小伝馬町駅 (2号線日比谷線),東京都 中央区日本橋小伝馬町11番1号,B1F,バリアフリートイレ,"鉄道会社: 東京地下鉄 | 路線: 2号線日比谷線 | 設備: 車椅子対応, オストメイト対応, おむつ交換台",#0066cc,139.7787,35.69084
千川駅 (8号線有楽町線),東京都 豊島区要町3丁目10番7号,B2F,バリアフリートイレ,"鉄道会社: 東京地下鉄 | 路線: 8号線有楽町線 | 設備: 車椅子対応, オストメイト対応, おむつ交換台",#0066cc,139.68922,35.738455
銀座一丁目駅 (8号線有楽町線),東京都 中央区銀座1丁目7番12号,B1F,バリアフリートイレ,"鉄道会社: 東京地下鉄 | 路線: 8号線有楽町線 | 設備: 車椅子対応, オストメイト対応, おむつ交換台",#0066cc,139.7666,35.674632
西早稲田駅 (13号線副都心線),東京都 新宿区戸山3丁目18番2号,B1F,バリアフリートイレ,"鉄道会社: 東京地下鉄 | 路線: 13号線副都心線 | 設備: 車椅子対応, オストメイト対応, おむつ交換台",#0066cc,139.7089,35.70641
西早稲田駅 (13号線副都心線),東京都 新宿区戸山3丁目18番2号,B1F,バリアフリートイレ,"鉄道会社: 東京地下鉄 | 路線: 13号線副都心線 | 設備: 車椅子対応, オストメイト対応, おむつ交換台",#0066cc,139.7089,35.70643
西早稲田駅 (13号線副都心線),東京都 新宿区戸山3丁目18番2号,B1F,バリアフリートイレ,"鉄道会社: 東京地下鉄 | 路線: 13号線副都心線 | 設備: 車椅子対応, オストメイト対応, おむつ交換台",#0066cc,139.7093,35.70883
西早稲田駅 (13号線副都心線),東京都 新宿区戸山3丁目18番2号,B1F,バリアフリートイレ,"鉄道会社: 東京地下鉄 | 路線: 13号線副都心線 | 設備: 車椅子対応, オストメイト対応, おむつ交換台",#0066cc,139.7093,35.70878
地下鉄赤塚駅 (8号線有楽町線/13号線副都心線),東京都 練馬区北町8丁目37番16号,B1F,バリアフリートイレ,"鉄道会社: 東京地下鉄 | 路線: 8号線有楽町線/13号線副都心線 | 設備: 車椅子対応, オストメイト対応, おむつ交換台",#0066cc,139.64455,35.769662
新高円寺駅 (4号線丸ノ内線),東京都 杉並区高円寺南2丁目20番1号,B1F,バリアフリートイレ,"鉄道会社: 東京地下鉄 | 路線: 4号線丸ノ内線 | 設備: 車椅子対応, オストメイト対応, おむつ交換台",#0066cc,139.648,35.69788
新高円寺駅 (4号線丸ノ内線),東京都 杉並区高円寺南2丁目20番1号,B1F,バリアフリートイレ,"鉄道会社: 東京地下鉄 | 路線: 4号線丸ノ内線 | 設備: 車椅子対応, オストメイト対応, おむつ交換台",#0066cc,139.6487,35.69781
方南町駅 (4号線丸ノ内線分岐線),東京都 杉並区堀ノ内1丁目1番1号,B2F,バリアフリートイレ,"鉄道会社: 東京地下鉄 | 路線: 4号線丸ノ内線分岐線 | 設備: 車椅子対応, オストメイト対応, おむつ交換台",#0066cc,139.6565,35.68333
東高円寺駅 (4号線丸ノ内線),東京都 杉並区和田3丁目55番42号,B1F,バリアフリートイレ,"鉄道会社: 東京地下鉄 | 路線: 4号線丸ノ内線 | 設備: 車椅子対応, オストメイト対応, おむつ交換台",#0066cc,139.6582,35.69804
新中野駅 (4号線丸ノ内線),東京都 中野区中央4丁目2番15号,B1F,バリアフリートイレ,"鉄道会社: 東京地下鉄 | 路線: 4号線丸ノ内線 | 設備: 車椅子対応, オストメイト対応, おむつ交換台",#0066cc,139.6681,35.69741
湯島駅 (9号線千代田線),東京都 文京区湯島3丁目47番10号,B1F,バリアフリートイレ,"鉄道会社: 東京地下鉄 | 路線: 9号線千代田線 | 設備: 車椅子対応, オストメイト対応, おむつ交換台",#0066cc,139.76982,35.708495
王子神谷駅 (7号線南北線),東京都 北区王子5丁目2番11号,B1F,バリアフリートイレ,"鉄道会社: 東京地下鉄 | 路線: 7号線南北線 | 設備: 車椅子対応, オストメイト対応, おむつ交換台",#0066cc,139.7358,35.76437
二重橋前駅 (9号線千代田線),東京都 千代田区丸の内2丁目3番1号,B1F,バリアフリートイレ,"鉄道会社: 東京地下鉄 | 路線: 9号線千代田線 | 設備: 車椅子対応, オストメイト対応, おむつ交換台",#0066cc,139.76203,35.681488
入谷駅 (2号線日比谷線),東京都 台東区下谷2丁目15番1号,B1F,バリアフリートイレ,"鉄道会社: 東京地下鉄 | 路線: 2号線日比谷線 | 設備: 車椅子対応, オストメイト対応, おむつ交換台",#0066cc,139.785,35.72145
入谷駅 (2号線日比谷線),東京都 台東区下谷2丁目15番1号,B1F,バリアフリートイレ,"鉄道会社: 東京地下鉄 | 路線: 2号線日比谷線 | 設備: 車椅子対応, オストメイト対応, おむつ交換台",#0066cc,139.7846,35.72061
田原町駅 (3号線銀座線),東京都 台東区西浅草1丁目1番18号,B1F,バリアフリートイレ,"鉄道会社: 東京地下鉄 | 路線: 3号線銀座線 | 設備: 車椅子対応, オストメイト対応, おむつ交換台",#0066cc,139.790422,35.70981
田原町駅 (3号線銀座線),東京都 台東区西浅草1丁目1番18号,B1F,バリアフリートイレ,"鉄道会社: 東京地下鉄 | 路線: 3号線銀座線 | 設備: 車椅子対応, オストメイト対応, おむつ交換台",#0066cc,139.790587,35.710009
辰巳駅 (8号線有楽町線),東京都 江東区辰巳1丁目1番44号,B2F,バリアフリートイレ,"鉄道会社: 東京地下鉄 | 路線: 8号線有楽町線 | 設備: 車椅子対応, オストメイト対応, おむつ交換台",#0066cc,139.80996,35.646041
北綾瀬駅 (9号線千代田線),東京都 足立区谷中2丁目6番21号,1F,バリアフリートイレ,"鉄道会社: 東京地下鉄 | 路線: 9号線千代田線 | 設備: 車椅子対応, オストメイト対応, おむつ交換台",#0066cc,139.832055,35.777149
北綾瀬駅 (9号線千代田線),東京都 足立区谷中2丁目6番21号,2F,バリアフリートイレ,"鉄道会社: 東京地下鉄 | 路線: 9号線千代田線 | 設備: 車椅子対応, オストメイト対応, おむつ交換台",#0066cc,139.832073,35.775938
南千住駅 (2号線日比谷線),東京都 荒川区南千住4丁目3番1号,1F,バリアフリートイレ,"鉄道会社: 東京地下鉄 | 路線: 2号線日比谷線 | 設備: 車椅子対応, オストメイト対応, おむつ交換台",#0066cc,139.7992,35.73282
東大前駅 (7号線南北線),東京都 文京区向丘1丁目19番2号,B1F,バリアフリートイレ,"鉄道会社: 東京地下鉄 | 路線: 7号線南北線 | 設備: 車椅子対応, オストメイト対応, おむつ交換台",#0066cc,139.7583,35.7171
根津駅 (9号線千代田線),東京都 文京区根津1丁目3番5号,B1F,バリアフリートイレ,"鉄道会社: 東京地下鉄 | 路線: 9号線千代田線 | 設備: 車椅子対応, オストメイト対応, おむつ交換台",#0066cc,139.76625,35.716791
根津駅 (9号線千代田線),東京都 文京区根津1丁目3番5号,B1F,バリアフリートイレ,"鉄道会社: 東京地下鉄 | 路線: 9号線千代田線 | 設備: 車椅子対応, オストメイト対応, おむつ交換台",#0066cc,139.76502,35.717934
千駄木駅 (9号線千代田線),東京都 文京区千駄木3丁目36番7号,B1F,バリアフリートイレ,"鉄道会社: 東京地下鉄 | 路線: 9号線千代田線 | 設備: 車椅子対応, オストメイト対応, おむつ交換台",#0066cc,139.76291,35.724855
千駄木駅 (9号線千代田線),東京都 文京区千駄木3丁目36番7号,B1F,バリアフリートイレ,"鉄道会社: 東京地下鉄 | 路線: 9号線千代田線 | 設備: 車椅子対応, オストメイト対応, おむつ交換台",#0066cc,139.76337,35.726163
代々木公園駅 (9号線千代田線),東京都 渋谷区富ケ谷1丁目3番9号,B1F,バリアフリートイレ,"鉄道会社: 東京地下鉄 | 路線: 9号線千代田線 | 設備: 車椅子対応, オストメイト対応, おむつ交換台",#0066cc,139.69108,35.668954
南阿佐ヶ谷駅 (4号線丸ノ内線),東京都 杉並区阿佐谷南1丁目15番7号,B1F,バリアフリートイレ,"鉄道会社: 東京地下鉄 | 路線: 4号線丸ノ内線 | 設備: 車椅子対応, オストメイト対応, おむつ交換台",#0066cc,139.6351,35.69958
落合駅 (5号線東西線),東京都 新宿区上落合2丁目13番7号,B1F,バリアフリートイレ,"鉄道会社: 東京地下鉄 | 路線: 5号線東西線 | 設備: 車椅子対応, オストメイト対応, おむつ交換台",#0066cc,139.6869,35.71088
落合駅 (5号線東西線),東京都 新宿区上落合2丁目13番7号,B1F,バリアフリートイレ,"鉄道会社: 東京地下鉄 | 路線: 5号線東西線 | 設備: 車椅子対応, オストメイト対応, おむつ交換台",#0066cc,139.6845,35.71029
新大塚駅 (4号線丸ノ内線),東京都 文京区大塚4丁目51番5号,B1F,多機能トイレ,"鉄道会社: 東京地下鉄 | 路線: 4号線丸ノ内線 | 設備: 車椅子対応, オストメイト対応, おむつ交換台",#0066cc,139.7296,35.72611
末広町駅 (3号線銀座線),東京都 千代田区外神田4丁目7番3号,B1F,多機能トイレ,"鉄道会社: 東京地下鉄 | 路線: 3号線銀座線 | 設備: 車椅子対応, オストメイト対応, おむつ交換台",#0066cc,139.771773,35.703188
上野広小路駅 (3号線銀座線),東京都 台東区上野3丁目29番3号,B1F,多機能トイレ,"鉄道会社: 東京地下鉄 | 路線: 3号線銀座線 | 設備: 車椅子対応, オストメイト対応, おむつ交換台",#0066cc,139.772888,35.707665
北参道駅 (13号線副都心線),東京都 渋谷区千駄ヶ谷4丁目7番11号,B1F,多機能トイレ,"2つの多機能トイレが並設 | 鉄道会社: 東京地下鉄 | 路線: 13号線副都心線 | 設備: 車椅子対応, オストメイト対応, おむつ交換台",#0066cc,139.7057,35.67817
北参道駅 (13号線副都心線),東京都 渋谷区千駄ヶ谷4丁目7番11号,B1F,多機能トイレ,"2つの多機能トイレが並設 | 鉄道会社: 東京地下鉄 | 路線: 13号線副都心線 | 設備: 車椅子対応, オストメイト対応, おむつ交換台",#0066cc,139.7058,35.67815
本駒込駅 (7号線南北線),東京都 文京区向丘2丁目37番1号,B1F,多機能トイレ,"鉄道会社: 東京地下鉄 | 路線: 7号線南北線 | 設備: 車椅子対応, オストメイト対応, おむつ交換台",#0066cc,139.7536,35.72516
中野新橋駅 (4号線丸ノ内線分岐線),東京都 中野区弥生町2丁目26番8号,1F,多機能トイレ,"鉄道会社: 東京地下鉄 | 路線: 4号線丸ノ内線分岐線 | 設備: 車椅子対応, オストメイト対応, 大型ベッド",#0066cc,139.6741,35.69245
中野富士見町駅 (4号線丸ノ内線分岐線),東京都 中野区弥生町5丁目24番4号,1F,多機能トイレ,"鉄道会社: 東京地下鉄 | 路線: 4号線丸ノ内線分岐線 | 設備: 車椅子対応, オストメイト対応, おむつ交換台",#0066cc,139.667,35.69055
雑司が谷駅 (13号線副都心線),東京都 豊島区雑司が谷2丁目6番1号,B1F,多機能トイレ,"鉄道会社: 東京地下鉄 | 路線: 13号線副都心線 | 設備: 車椅子対応, オストメイト対応, おむつ交換台",#0066cc,139.7142,35.71939
雑司が谷駅 (13号線副都心線),東京都 豊島区雑司が谷2丁目6番1号,B1F,多機能トイレ,"鉄道会社: 東京地下鉄 | 路線: 13号線副都心線 | 設備: 車椅子対応, オストメイト対応, おむつ交換台",#0066cc,139.7141,35.71935
雑司が谷駅 (13号線副都心線),東京都 豊島区雑司が谷2丁目6番1号,B2F,多機能トイレ,"鉄道会社: 東京地下鉄 | 路線: 13号線副都心線 | 設備: 車椅子対応, オストメイト対応, おむつ交換台",#0066cc,139.7155,35.72099
雑司が谷駅 (13号線副都心線),東京都 豊島区雑司が谷2丁目6番1号,B2F,多機能トイレ,"鉄道会社: 東京地下鉄 | 路線: 13号線副都心線 | 設備: 車椅子対応, オストメイト対応, おむつ交換台",#0066cc,139.7155,35.721
稲荷町駅 (3号線銀座線),東京都 台東区東上野3丁目33番11号,B1F,多機能トイレ,"鉄道会社: 東京地下鉄 | 路線: 3号線銀座線 | 設備: 車椅子対応, オストメイト対応, おむつ交換台",#0066cc,139.78254,35.711286
稲荷町駅 (3号線銀座線),東京都 台東区東上野3丁目33番11号,B1F,多機能トイレ,"鉄道会社: 東京地下鉄 | 路線: 3号線銀座線 | 設備: 車椅子対応, オストメイト対応, おむつ交換台",#0066cc,139.782574,35.711452
桜田門駅 (8号線有楽町線),東京都 千代田区霞が関2丁目1番1号,B1F,多機能トイレ,"鉄道会社: 東京地下鉄 | 路線: 8号線有楽町線 | 設備: 車椅子対応, オストメイト対応, おむつ交換台",#0066cc,139.7529,35.677595
桜田門駅 (8号線有楽町線),東京都 千代田区霞が関2丁目1番1号,B1F,多機能トイレ,"鉄道会社: 東京地下鉄 | 路線: 8号線有楽町線 | 設備: 車椅子対応, オストメイト対応, おむつ交換台",#0066cc,139.75085,35.677317
志茂駅 (7号線南北線),東京都 北区志茂2丁目1番18号,B1F,多機能トイレ,"鉄道会社: 東京地下鉄 | 路線: 7号線南北線 | 設備: 車椅子対応, オストメイト対応, おむつ交換台",#0066cc,139.7324,35.77822
西ヶ原駅 (7号線南北線),東京都 北区西ケ原2丁目3番8号,B1F,多機能トイレ,"鉄道会社: 東京地下鉄 | 路線: 7号線南北線 | 設備: 車椅子対応, オストメイト対応, おむつ交換台",#0066cc,139.7424,35.74586
綾瀬駅 (9号線千代田線),東京都 足立区綾瀬3丁目1番1号,1F,多機能トイレ,"点字ブロックはトイレの場所の説明が文章で書かれた触知板へ誘導 | 鉄道会社: 東京地下鉄 | 路線: 9号線千代田線 | 設備: 車椅子対応, オストメイト対応, おむつ交換台",#0066cc,139.82604,35.762245
綾瀬駅 (9号線千代田線),東京都 足立区綾瀬3丁目1番1号,1F,多機能トイレ,"鉄道会社: 東京地下鉄 | 路線: 9号線千代田線 | 設備: 車椅子対応, オストメイト対応, おむつ交換台",#0066cc,139.82358,35.762007
小竹向原駅 (8号線有楽町線/13号線副都心線),東京都 練馬区小竹町2丁目16番15号,B1F,多機能トイレ,"鉄道会社: 東京地下鉄 | 路線: 8号線有楽町線/13号線副都心線 | 設備: 車椅子対応, オストメイト対応, おむつ交換台",#0066cc,139.6787,35.74379
小竹向原駅 (8号線有楽町線/13号線副都心線),東京都 練馬区小竹町2丁目16番15号,B1F,多機能トイレ,"鉄道会社: 東京地下鉄 | 路線: 8号線有楽町線/13号線副都心線 | 設備: 車椅子対応, オストメイト対応, おむつ交換台",#0066cc,139.6804,35.74311
押上＜スカイツリー前＞駅 (11号線半蔵門線),東京都 墨田区押上1丁目1番65号,B2F,多機能トイレ,"鉄道会社: 東京地下鉄 | 路線: 11号線半蔵門線 | 設備: 車椅子対応, オストメイト対応, おむつ交換台",#0066cc,139.81324,35.709984
赤羽岩淵駅 (7号線南北線),東京都 北区赤羽1丁目52番8号,B2F,多機能トイレ,"鉄道会社: 東京地下鉄 | 路線: 7号線南北線 | 設備: 車椅子対応, オストメイト対応, おむつ交換台",#0066cc,139.7222,35.78344
白金高輪駅 (7号線南北線),東京都 港区高輪1丁目3番20号先,B1F,多機能トイレ,"鉄道会社: 東京地下鉄 | 路線: 7号線南北線 | 設備: 車椅子対応, オストメイト対応, おむつ交換台",#0066cc,139.7344,35.64336
白金台駅 (7号線南北線),東京都 港区白金台4丁目5番10号,B2F,多機能トイレ,"鉄道会社: 東京地下鉄 | 路線: 7号線南北線 | 設備: 車椅子対応, オストメイト対応, おむつ交換台",#0066cc,139.7268,35.63838
広尾駅 (2号線日比谷線),東京都 港区南麻布5丁目1番25号,B1F,多機能トイレ,"鉄道会社: 東京地下鉄 | 路線: 2号線日比谷線 | 設備: 車椅子対応, オストメイト対応, おむつ交換台",#0066cc,139.722177,35.652612
渋谷駅駅 (3号線銀座線),東京都 渋谷区渋谷２丁目21番1号,2F,多機能トイレ,"鉄道会社: 東京地下鉄 | 路線: 3号線銀座線 | 設備: 車椅子対応, オストメイト対応, おむつ交換台",#0066cc,139.703003,35.659183
虎ノ門ヒルズ駅駅 (2号線日比谷線),東京都 港区虎ノ門１丁目22番12号,B1F,多機能トイレ,"鉄道会社: 東京地下鉄 | 路線: 2号線日比谷線 | 設備: 車椅子対応, オストメイト対応, おむつ交換台",#0066cc,139.74792,35.667928
木場駅駅 (5号線東西線),東京都 東京都江東区木場5丁目5番1号,B2F,バリアフリートイレ（多機能トイレ）,"鉄道会社: 東京地下鉄 | 路線: 5号線東西線 | 設備: 車椅子対応, オストメイト対応",#0066cc,139.808179,35.669275
モノレール浜松町駅 (東京モノレール羽田空港線),東京都 港区浜松町2丁目4番12号,1F,だれでもトイレ,"鉄道会社: 東京モノレール | 路線: 東京モノレール羽田空港線 | 設備: 車椅子対応, オストメイト対応, 大型ベッド",#0066cc,139.756632,35.655204
天王洲アイル駅 (東京モノレール羽田空港線),東京都 品川区東品川2丁目3番8号,2F,だれでもトイレ,"鉄道会社: 東京モノレール | 路線: 東京モノレール羽田空港線 | 設備: 車椅子対応, オストメイト対応",#0066cc,139.750647,35.623019
大井競馬場前駅 (東京モノレール羽田空港線),東京都 品川区勝島2丁目2番35号,2F,だれでもトイレ,"鉄道会社: 東京モノレール | 路線: 東京モノレール羽田空港線 | 設備: 車椅子対応, オストメイト対応, おむつ交換台",#0066cc,139.746997,35.595356
流通センター駅 (東京モノレール羽田空港線),東京都 大田区平和島6丁目1番2号,2F,だれでもトイレ,"鉄道会社: 東京モノレール | 路線: 東京モノレール羽田空港線 | 設備: 車椅子対応, オストメイト対応, おむつ交換台",#0066cc,139.748866,35.581837
天空橋駅 (東京モノレール羽田空港線),東京都 大田区羽田空港1丁目1番2号,1F,だれでもトイレ,"鉄道会社: 東京モノレール | 路線: 東京モノレール羽田空港線 | 設備: 車椅子対応, オストメイト対応",#0066cc,139.754394,35.5489
羽田空港第3ターミナル駅 (東京モノレール羽田空港線),東京都 大田区羽田空港2丁目6番5号,2F,だれでもトイレ,"曲がり角手前の触知板まで点字ブロックあり | 鉄道会社: 東京モノレール | 路線: 東京モノレール羽田空港線 | 設備: 車椅子対応, オストメイト対応, おむつ交換台",#0066cc,139.768296,35.544308
新整備場駅 (東京モノレール羽田空港線),東京都 大田区羽田空港3丁目5番1号,B1F,だれでもトイレ,"鉄道会社: 東京モノレール | 路線: 東京モノレール羽田空港線 | 設備: 車椅子対応, オストメイト対応, おむつ交換台",#0066cc,139.787242,35.542895
羽田空港第1ターミナル駅 (東京モノレール羽田空港線),東京都 大田区羽田空港3丁目3番2号,B1F,だれでもトイレ南,鉄道会社: 東京モノレール | 路線: 東京モノレール羽田空港線 | 設備: 車椅子対応,#0066cc,139.784381,35.549582
羽田空港第1ターミナル駅 (東京モノレール羽田空港線),東京都 大田区羽田空港3丁目3番2号,B1F,だれでもトイレ北,"鉄道会社: 東京モノレール | 路線: 東京モノレール羽田空港線 | 設備: 車椅子対応, オストメイト対応",#0066cc,139.784813,35.548564
羽田空港第2ターミナル駅 (東京モノレール羽田空港線),東京都 大田区羽田空港3丁目4番2号,B1F,だれでもトイレ,"鉄道会社: 東京モノレール | 路線: 東京モノレール羽田空港線 | 設備: 車椅子対応, オストメイト対応, おむつ交換台",#0066cc,139.787625,35.551309
新木場駅 (りんかい線),東京都 江東区新木場1丁目6番地,3F,多目的トイレ,"最終当駅止まりあり | 鉄道会社: 東京臨海高速鉄道 | 路線: りんかい線 | 設備: 車椅子対応, オストメイト対応, 大型ベッド",#0066cc,139.827232,35.646164
新木場駅 (りんかい線),東京都 江東区新木場1丁目6番地,3F,多目的トイレ,"最終当駅止まりあり | 鉄道会社: 東京臨海高速鉄道 | 路線: りんかい線 | 設備: 車椅子対応, オストメイト対応, 大型ベッド",#0066cc,139.827232,35.646161
東雲駅 (りんかい線),東京都 江東区東雲2丁目8番10号,1F,多目的トイレ,"最終当駅止まりあり | 鉄道会社: 東京臨海高速鉄道 | 路線: りんかい線 | 設備: 車椅子対応, オストメイト対応, 大型ベッド",#0066cc,139.803555,35.640725
東雲駅 (りんかい線),東京都 江東区東雲2丁目8番10号,1F,多目的トイレ,"最終当駅止まりあり | 鉄道会社: 東京臨海高速鉄道 | 路線: りんかい線 | 設備: 車椅子対応, オストメイト対応, 大型ベッド",#0066cc,139.803555,35.640725
国際展示場駅 (りんかい線),東京都 江東区有明3丁目7番3号,1F,だれでもトイレ,"鉄道会社: 東京臨海高速鉄道 | 路線: りんかい線 | 設備: 車椅子対応, オストメイト対応, 大型ベッド",#0066cc,139.791894,35.634746
国際展示場駅 (りんかい線),東京都 江東区有明3丁目7番3号,1F,だれでもトイレ,"鉄道会社: 東京臨海高速鉄道 | 路線: りんかい線 | 設備: 車椅子対応, オストメイト対応, 大型ベッド",#0066cc,139.791909,35.634723
東京テレポート駅 (りんかい線),東京都 江東区青海1丁目2番1号,B1F,だれでもトイレ,"最終当駅止まりあり | 鉄道会社: 東京臨海高速鉄道 | 路線: りんかい線 | 設備: 車椅子対応, オストメイト対応, 大型ベッド",#0066cc,139.779162,35.627762
東京テレポート駅 (りんかい線),東京都 江東区青海1丁目2番1号,B1F,多機能トイレ,"最終当駅止まりあり | 鉄道会社: 東京臨海高速鉄道 | 路線: りんかい線 | 設備: 車椅子対応, オストメイト対応, 大型ベッド",#0066cc,139.779158,35.627759
天王洲アイル駅 (りんかい線),東京都 品川区東品川2丁目5番19号,B1F,多機能トイレ,"鉄道会社: 東京臨海高速鉄道 | 路線: りんかい線 | 設備: 車椅子対応, オストメイト対応, 大型ベッド",#0066cc,139.750836,35.620076
天王洲アイル駅 (りんかい線),東京都 品川区東品川2丁目5番19号,B1F,多機能トイレ,"鉄道会社: 東京臨海高速鉄道 | 路線: りんかい線 | 設備: 車椅子対応, オストメイト対応, 大型ベッド",#0066cc,139.750836,35.620076
品川シーサイド駅 (りんかい線),東京都 品川区東品川4丁目12番22号,B1F,オストメイト・幼児対応多機能トイレ,"鉄道会社: 東京臨海高速鉄道 | 路線: りんかい線 | 設備: 車椅子対応, オストメイト対応, おむつ交換台",#0066cc,139.749642,35.609113
品川シーサイド駅 (りんかい線),東京都 品川区東品川4丁目12番22号,B1F,オストメイト・幼児対応多機能トイレ,"鉄道会社: 東京臨海高速鉄道 | 路線: りんかい線 | 設備: 車椅子対応, オストメイト対応, おむつ交換台",#0066cc,139.749695,35.609137
品川シーサイド駅 (りんかい線),東京都 品川区東品川4丁目12番22号,B1F,車いす対応多機能トイレ,"車イス用トイレとオストメイトトイレで機能分散した | 鉄道会社: 東京臨海高速鉄道 | 路線: りんかい線 | 設備: 車椅子対応, オストメイト対応, 大型ベッド, おむつ交換台",#0066cc,139.749639,35.609096
品川シーサイド駅 (りんかい線),東京都 品川区東品川4丁目12番22号,B1F,車いす対応多機能トイレ,"車イス用トイレとオストメイトトイレで機能分散した | 鉄道会社: 東京臨海高速鉄道 | 路線: りんかい線 | 設備: 車椅子対応, オストメイト対応, 大型ベッド, おむつ交換台",#0066cc,139.749698,35.609161
大井町駅 (りんかい線),東京都 品川区大井1丁目2番10号,B1F,多機能トイレ女子トイレ,"鉄道会社: 東京臨海高速鉄道 | 路線: りんかい線 | 設備: 車椅子対応, オストメイト対応, 大型ベッド",#0066cc,139.735239,35.60762
大井町駅 (りんかい線),東京都 品川区大井1丁目2番10号,B1F,多機能トイレ男子トイレ,"鉄道会社: 東京臨海高速鉄道 | 路線: りんかい線 | 設備: 車椅子対応, オストメイト対応, 大型ベッド",#0066cc,139.735239,35.607604
浅草駅 (伊勢崎線),東京都 台東区花川戸1丁目4番1号,2F,多機能トイレ,"鉄道会社: 東武鉄道 | 路線: 伊勢崎線 | 設備: 車椅子対応, オストメイト対応, 大型ベッド",#0066cc,139.797934,35.711596
とうきょうスカイツリー駅 (伊勢崎線),東京都 墨田区押上1丁目1番4号,1F,多機能トイレ,"鉄道会社: 東武鉄道 | 路線: 伊勢崎線 | 設備: 車椅子対応, オストメイト対応, 大型ベッド",#0066cc,139.808803,35.710333
曳舟駅 (伊勢崎線),東京都 墨田区東向島2丁目26番6号,1F,多機能トイレ,"鉄道会社: 東武鉄道 | 路線: 伊勢崎線 | 設備: 車椅子対応, オストメイト対応, 大型ベッド",#0066cc,139.816742,35.718344
東向島駅 (伊勢崎線),東京都 墨田区東向島4丁目29番7号,1F,多機能トイレ,"鉄道会社: 東武鉄道 | 路線: 伊勢崎線 | 設備: 車椅子対応, オストメイト対応, おむつ交換台",#0066cc,139.819509,35.725049
鐘ヶ淵駅 (伊勢崎線),東京都 墨田区墨田5丁目50番2号,1F,多機能トイレ,"鉄道会社: 東武鉄道 | 路線: 伊勢崎線 | 設備: 車椅子対応, オストメイト対応, 大型ベッド",#0066cc,139.820062,35.733528
牛田駅 (伊勢崎線),東京都 足立区千住曙町1番地1号,1F,多機能トイレ,"鉄道会社: 東武鉄道 | 路線: 伊勢崎線 | 設備: 車椅子対応, オストメイト対応, おむつ交換台",#0066cc,139.811278,35.744404
北千住駅 (伊勢崎線),東京都 足立区千住旭町42番地1号,2F,多機能トイレ,"鉄道会社: 東武鉄道 | 路線: 伊勢崎線 | 設備: 車椅子対応, オストメイト対応, 大型ベッド",#0066cc,139.805738,35.750132
北千住駅 (伊勢崎線),東京都 足立区千住旭町42番地1号,2F,多機能トイレ,"鉄道会社: 東武鉄道 | 路線: 伊勢崎線 | 設備: 車椅子対応, オストメイト対応, 大型ベッド",#0066cc,139.805135,35.748995
小菅駅 (伊勢崎線),東京都 足立区足立2丁目46番11号,1F,多機能トイレ,"鉄道会社: 東武鉄道 | 路線: 伊勢崎線 | 設備: 車椅子対応, オストメイト対応, 大型ベッド",#0066cc,139.812662,35.758672
五反野駅 (伊勢崎線),東京都 足立区足立3丁目34番6号,M2F,多機能トイレ,"鉄道会社: 東武鉄道 | 路線: 伊勢崎線 | 設備: 車椅子対応, オストメイト対応, 大型ベッド",#0066cc,139.809346,35.766044
梅島駅 (伊勢崎線),東京都 足立区梅田7丁目37番1号,1F,多機能トイレ,"鉄道会社: 東武鉄道 | 路線: 伊勢崎線 | 設備: 車椅子対応, オストメイト対応, 大型ベッド, おむつ交換台",#0066cc,139.798028,35.772362
梅島駅 (伊勢崎線),東京都 足立区梅田7丁目37番1号,1F,女子トイレ内多機能トイレ,"鉄道会社: 東武鉄道 | 路線: 伊勢崎線 | 設備: 車椅子対応, オストメイト対応, おむつ交換台",#0066cc,139.798028,35.772362
梅島駅 (伊勢崎線),東京都 足立区梅田7丁目37番1号,1F,男子トイレ内多機能トイレ,"鉄道会社: 東武鉄道 | 路線: 伊勢崎線 | 設備: 車椅子対応, オストメイト対応, おむつ交換台",#0066cc,139.798028,35.772362
西新井駅 (伊勢崎線/大師線),東京都 足立区西新井栄町2丁目1番1号,3F,多機能トイレ,"鉄道会社: 東武鉄道 | 路線: 伊勢崎線/大師線 | 設備: 車椅子対応, オストメイト対応, 大型ベッド",#0066cc,139.790409,35.777246
竹ノ塚駅 (伊勢崎線),東京都 足立区竹の塚6丁目6番1号,1F,多機能トイレ,"鉄道会社: 東武鉄道 | 路線: 伊勢崎線 | 設備: 車椅子対応, オストメイト対応, 大型ベッド, おむつ交換台",#0066cc,139.790724,35.794151
小村井駅 (亀戸線),東京都 墨田区文花2丁目20番1号,1F,多機能トイレ,"鉄道会社: 東武鉄道 | 路線: 亀戸線 | 設備: 車椅子対応, オストメイト対応, 大型ベッド",#0066cc,139.828033,35.71013
東あずま駅 (亀戸線),東京都 墨田区立花4丁目23番8号,1F,多機能トイレ,"鉄道会社: 東武鉄道 | 路線: 亀戸線 | 設備: 車椅子対応, オストメイト対応, おむつ交換台",#0066cc,139.831896,35.707144
亀戸水神駅 (亀戸線),東京都 江東区亀戸8丁目5番1号,1F,多機能トイレ,"鉄道会社: 東武鉄道 | 路線: 亀戸線 | 設備: 車椅子対応, オストメイト対応, 大型ベッド",#0066cc,139.833645,35.700229
亀戸駅 (亀戸線),東京都 江東区亀戸5丁目1番1号,1F,多機能トイレ,"鉄道会社: 東武鉄道 | 路線: 亀戸線 | 設備: 車椅子対応, オストメイト対応",#0066cc,139.826952,35.69773
大師前駅 (大師線),東京都 足立区西新井1丁目3番1号,1F,多機能トイレ,"鉄道会社: 東武鉄道 | 路線: 大師線 | 設備: 車椅子対応, オストメイト対応",#0066cc,139.781495,35.778854
池袋駅 (東上本線),東京都 豊島区西池袋1丁目1番21号,1F,多機能トイレ,"鉄道会社: 東武鉄道 | 路線: 東上本線 | 設備: 車椅子対応, オストメイト対応, 大型ベッド",#0066cc,139.710283,35.72945
北池袋駅 (東上本線),東京都 豊島区池袋本町1丁目36番6号,1F,多機能トイレ,"鉄道会社: 東武鉄道 | 路線: 東上本線 | 設備: 車椅子対応, オストメイト対応, 大型ベッド, おむつ交換台",#0066cc,139.716735,35.741124
大山駅 (東上本線),東京都 板橋区大山町4番地1号,1F,多機能トイレ,"鉄道会社: 東武鉄道 | 路線: 東上本線 | 設備: 車椅子対応, オストメイト対応, 大型ベッド",#0066cc,139.702531,35.748609
中板橋駅 (東上本線),東京都 板橋区弥生町33番地1号,1F,多機能トイレ,"鉄道会社: 東武鉄道 | 路線: 東上本線 | 設備: 車椅子対応, オストメイト対応, おむつ交換台",#0066cc,139.695076,35.755793
ときわ台駅 (東上本線),東京都 板橋区常盤台1丁目43番1号,1F,多機能トイレ,"ホーム上 | 鉄道会社: 東武鉄道 | 路線: 東上本線 | 設備: 車椅子対応, オストメイト対応, おむつ交換台",#0066cc,139.688687,35.758873
ときわ台駅 (東上本線),東京都 板橋区常盤台1丁目43番1号,1F,多機能トイレ,"北口 | 鉄道会社: 東武鉄道 | 路線: 東上本線 | 設備: 車椅子対応, オストメイト対応, 大型ベッド",#0066cc,139.689438,35.758737
上板橋駅 (東上本線),東京都 板橋区上板橋2丁目36番7号,2F,多機能トイレ,"鉄道会社: 東武鉄道 | 路線: 東上本線 | 設備: 車椅子対応, オストメイト対応, 大型ベッド",#0066cc,139.676419,35.763517
東武練馬駅 (東上本線),東京都 板橋区徳丸2丁目2番14号,1F,多機能トイレ,"鉄道会社: 東武鉄道 | 路線: 東上本線 | 設備: 車椅子対応, オストメイト対応, おむつ交換台",#0066cc,139.661994,35.768645
下赤塚駅 (東上本線),東京都 板橋区赤塚新町1丁目23番1号,1F,多機能トイレ,"鉄道会社: 東武鉄道 | 路線: 東上本線 | 設備: 車椅子対応, オストメイト対応, おむつ交換台",#0066cc,139.644364,35.770606
成増駅 (東上本線),東京都 板橋区成増2丁目13番1号,2F,多機能トイレ,"鉄道会社: 東武鉄道 | 路線: 東上本線 | 設備: 車椅子対応, オストメイト対応, 大型ベッド",#0066cc,139.632863,35.777789
下板橋駅 (東上本線),東京都 豊島区池袋本町4丁目43番11号,1F,多機能トイレ,"鉄道会社: 東武鉄道 | 路線: 東上本線 | 設備: 車椅子対応, オストメイト対応, 大型ベッド",#0066cc,139.715136,35.745535
堀切駅 (伊勢崎線),東京都 足立区千住曙町34-1,1F,多機能トイレ,"鉄道会社: 東武鉄道 | 路線: 伊勢崎線 | 設備: 車椅子対応, オストメイト対応, 大型ベッド",#0066cc,139.817669,35.743088
東京駅 (東海道線/京葉線/総武線/東北線),東京都 千代田区丸の内1丁目9番1号,1F,多機能トイレ,"鉄道会社: 東日本旅客鉄道 | 路線: 東海道線/京葉線/総武線/東北線 | 設備: 車椅子対応, オストメイト対応, おむつ交換台",#0066cc,139.76581,35.68034
東京駅 (東海道線/京葉線/総武線/東北線),東京都 千代田区丸の内1丁目9番1号,1F,多機能トイレ,"鉄道会社: 東日本旅客鉄道 | 路線: 東海道線/京葉線/総武線/東北線 | 設備: 車椅子対応, オストメイト対応, おむつ交換台",#0066cc,139.76645,35.681667
東京駅 (東海道線/京葉線/総武線/東北線),東京都 千代田区丸の内1丁目9番1号,1F,多機能トイレ,"鉄道会社: 東日本旅客鉄道 | 路線: 東海道線/京葉線/総武線/東北線 | 設備: 車椅子対応, オストメイト対応, おむつ交換台",#0066cc,139.76629,35.68191
東京駅 (東海道線/京葉線/総武線/東北線),東京都 千代田区丸の内1丁目9番1号,1F,多機能化粧室,"鉄道会社: 東日本旅客鉄道 | 路線: 東海道線/京葉線/総武線/東北線 | 設備: 車椅子対応, オストメイト対応, おむつ交換台",#0066cc,139.76767,35.682
東京（地下）駅 (東海道線/京葉線/総武線/東北線),東京都 千代田区丸の内1丁目9番1号,B1F,多機能化粧室,"鉄道会社: 東日本旅客鉄道 | 路線: 東海道線/京葉線/総武線/東北線 | 設備: 車椅子対応, オストメイト対応, おむつ交換台",#0066cc,139.76719,35.681804
東京（地下）駅 (東海道線/京葉線/総武線/東北線),東京都 千代田区丸の内1丁目9番1号,B1F,多機能化粧室,"鉄道会社: 東日本旅客鉄道 | 路線: 東海道線/京葉線/総武線/東北線 | 設備: 車椅子対応, オストメイト対応, おむつ交換台",#0066cc,139.76762,35.681058
東京（地下）駅 (東海道線/京葉線/総武線/東北線),東京都 千代田区丸の内1丁目9番1号,B1F,多機能トイレ,"鉄道会社: 東日本旅客鉄道 | 路線: 東海道線/京葉線/総武線/東北線 | 設備: 車椅子対応, オストメイト対応, おむつ交換台",#0066cc,139.76639,35.682171
東京（地下）駅 (東海道線/京葉線/総武線/東北線),東京都 千代田区丸の内1丁目9番1号,B1F,多機能化粧室,"鉄道会社: 東日本旅客鉄道 | 路線: 東海道線/京葉線/総武線/東北線 | 設備: 車椅子対応, オストメイト対応, おむつ交換台",#0066cc,139.76645,35.682305
東京（京葉地下）駅 (東海道線/京葉線/総武線/東北線),東京都 千代田区丸の内1丁目9番1号,B1F,多機能トイレ,"鉄道会社: 東日本旅客鉄道 | 路線: 東海道線/京葉線/総武線/東北線 | 設備: 車椅子対応, オストメイト対応, おむつ交換台",#0066cc,139.76542,35.677662
東京（京葉地下）駅 (東海道線/京葉線/総武線/東北線),東京都 千代田区丸の内1丁目9番1号,B3F,多機能化粧室,"鉄道会社: 東日本旅客鉄道 | 路線: 東海道線/京葉線/総武線/東北線 | 設備: 車椅子対応, オストメイト対応, おむつ交換台",#0066cc,139.76403,35.67778
有楽町駅 (東海道線),東京都 千代田区有楽町2丁目,1F,多機能トイレ,"鉄道会社: 東日本旅客鉄道 | 路線: 東海道線 | 設備: 車椅子対応, オストメイト対応, おむつ交換台",#0066cc,139.7632,35.67491
有楽町駅 (東海道線),東京都 千代田区有楽町2丁目,1F,多機能トイレ,"鉄道会社: 東日本旅客鉄道 | 路線: 東海道線 | 設備: 車椅子対応, オストメイト対応, おむつ交換台",#0066cc,139.7632,35.67491
新橋駅 (東海道線),東京都 港区新橋2丁目,1F,多機能化粧室,"鉄道会社: 東日本旅客鉄道 | 路線: 東海道線 | 設備: 車椅子対応, オストメイト対応, おむつ交換台",#0066cc,139.75832,35.666802
新橋駅 (東海道線),東京都 港区新橋2丁目,1F,だれでもトイレ,"鉄道会社: 東日本旅客鉄道 | 路線: 東海道線 | 設備: 車椅子対応, オストメイト対応, おむつ交換台",#0066cc,139.75812,35.66661
浜松町駅 (東海道線),東京都 港区海岸1丁目,3F,多機能化粧室,"鉄道会社: 東日本旅客鉄道 | 路線: 東海道線 | 設備: 車椅子対応, オストメイト対応, おむつ交換台",#0066cc,139.75703,35.655448
田町駅 (東海道線),東京都 港区芝5丁目,2F,だれでもトイレ,"鉄道会社: 東日本旅客鉄道 | 路線: 東海道線 | 設備: 車椅子対応, オストメイト対応, おむつ交換台",#0066cc,139.74779,35.645928
田町駅 (東海道線),東京都 港区芝5丁目,2F,多機能化粧室,"鉄道会社: 東日本旅客鉄道 | 路線: 東海道線 | 設備: 車椅子対応, オストメイト対応, おむつ交換台",#0066cc,139.74727,35.645646
品川駅 (東海道線/山手線),東京都 港区高輪3丁目,2F,多機能化粧室,"鉄道会社: 東日本旅客鉄道 | 路線: 東海道線/山手線 | 設備: 車椅子対応, オストメイト対応, おむつ交換台",#0066cc,139.73911,35.628092
品川駅 (東海道線/山手線),東京都 港区高輪3丁目,2F,多機能化粧室,"鉄道会社: 東日本旅客鉄道 | 路線: 東海道線/山手線 | 設備: 車椅子対応, オストメイト対応, おむつ交換台",#0066cc,139.73911,35.628092
大井町駅 (東海道線),東京都 品川区大井1丁目,2F,多機能化粧室,"鉄道会社: 東日本旅客鉄道 | 路線: 東海道線 | 設備: 車椅子対応, オストメイト対応, おむつ交換台",#0066cc,139.73523,35.607611
大井町駅 (東海道線),東京都 品川区大井1丁目,2F,多機能トイレ,"鉄道会社: 東日本旅客鉄道 | 路線: 東海道線 | 設備: 車椅子対応, オストメイト対応, おむつ交換台",#0066cc,139.73495,35.606472
大森駅 (東海道線),東京都 大田区大森北1丁目,2F,多機能トイレ,"鉄道会社: 東日本旅客鉄道 | 路線: 東海道線 | 設備: 車椅子対応, オストメイト対応, おむつ交換台",#0066cc,139.72809,35.588552
蒲田駅 (東海道線),東京都 大田区蒲田5丁目,2F,多機能化粧室,"鉄道会社: 東日本旅客鉄道 | 路線: 東海道線 | 設備: 車椅子対応, オストメイト対応, おむつ交換台",#0066cc,139.71589,35.562659
神田駅 (中央線/東北線),東京都 千代田区鍛冶町2丁目,1F,多機能化粧室,"鉄道会社: 東日本旅客鉄道 | 路線: 中央線/東北線 | 設備: 車椅子対応, オストメイト対応, おむつ交換台",#0066cc,139.77091,35.692207
神田駅 (中央線/東北線),東京都 千代田区鍛冶町2丁目,1F,多機能化粧室,"鉄道会社: 東日本旅客鉄道 | 路線: 中央線/東北線 | 設備: 車椅子対応, オストメイト対応, おむつ交換台",#0066cc,139.7708,35.691317
水道橋駅 (中央線),東京都 千代田区三崎町2丁目,1F,多機能トイレ,"鉄道会社: 東日本旅客鉄道 | 路線: 中央線 | 設備: 車椅子対応, オストメイト対応, おむつ交換台",#0066cc,139.75462,35.702073
水道橋駅 (中央線),東京都 千代田区三崎町2丁目,1F,多機能トイレ,"鉄道会社: 東日本旅客鉄道 | 路線: 中央線 | 設備: 車椅子対応, オストメイト対応, おむつ交換台",#0066cc,139.75235,35.701989
飯田橋駅 (中央線),東京都 千代田区飯田橋4丁目,1F,多機能トイレ,"鉄道会社: 東日本旅客鉄道 | 路線: 中央線 | 設備: 車椅子対応, オストメイト対応, おむつ交換台",#0066cc,139.745,35.701966
飯田橋駅 (中央線),東京都 千代田区飯田橋4丁目,3F,多機能トイレ,"鉄道会社: 東日本旅客鉄道 | 路線: 中央線 | 設備: 車椅子対応, オストメイト対応, おむつ交換台",#0066cc,139.744231,35.700617
市ヶ谷駅 (中央線),東京都 千代田区五番町,1F,多機能トイレ,"鉄道会社: 東日本旅客鉄道 | 路線: 中央線 | 設備: 車椅子対応, オストメイト対応, おむつ交換台",#0066cc,139.73564,35.691195
四ツ谷駅 (中央線),東京都 新宿区四谷1丁目,1F,多機能トイレ,"鉄道会社: 東日本旅客鉄道 | 路線: 中央線 | 設備: 車椅子対応, オストメイト対応, おむつ交換台",#0066cc,139.73072,35.68595
信濃町駅 (中央線),東京都 新宿区信濃町,1F,多機能化粧室,"鉄道会社: 東日本旅客鉄道 | 路線: 中央線 | 設備: 車椅子対応, オストメイト対応, おむつ交換台",#0066cc,139.71994,35.680259
信濃町駅 (中央線),東京都 新宿区信濃町,1F,多機能化粧室,"鉄道会社: 東日本旅客鉄道 | 路線: 中央線 | 設備: 車椅子対応, オストメイト対応, おむつ交換台",#0066cc,139.71993,35.680241
千駄ヶ谷駅 (中央線),東京都 渋谷区千駄ヶ谷1丁目,1F,多機能化粧室,"鉄道会社: 東日本旅客鉄道 | 路線: 中央線 | 設備: 車椅子対応, オストメイト対応, おむつ交換台",#0066cc,139.71127,35.681038
千駄ヶ谷駅 (中央線),東京都 渋谷区千駄ヶ谷1丁目,1F,多機能化粧室,"鉄道会社: 東日本旅客鉄道 | 路線: 中央線 | 設備: 車椅子対応, オストメイト対応, おむつ交換台",#0066cc,139.71127,35.681038
代々木駅 (中央線),東京都 渋谷区代々木1丁目,1F,多機能トイレ,"鉄道会社: 東日本旅客鉄道 | 路線: 中央線 | 設備: 車椅子対応, オストメイト対応, おむつ交換台",#0066cc,139.70229,35.683131
大久保駅 (中央線),東京都 新宿区百人町1丁目,1F,多機能化粧室,"鉄道会社: 東日本旅客鉄道 | 路線: 中央線 | 設備: 車椅子対応, オストメイト対応, おむつ交換台",#0066cc,139.69691,35.701495
東中野駅 (中央線),東京都 中野区東中野4丁目,1F,多機能トイレ,"鉄道会社: 東日本旅客鉄道 | 路線: 中央線 | 設備: 車椅子対応, オストメイト対応, おむつ交換台",#0066cc,139.68378,35.706153
中野駅 (中央線),東京都 中野区中野5丁目,1F,多機能トイレ,"鉄道会社: 東日本旅客鉄道 | 路線: 中央線 | 設備: 車椅子対応, オストメイト対応, おむつ交換台",#0066cc,139.66584,35.706011
高円寺駅 (中央線),東京都 杉並区高円寺南4丁目,1F,多機能トイレ,"鉄道会社: 東日本旅客鉄道 | 路線: 中央線 | 設備: 車椅子対応, オストメイト対応, おむつ交換台",#0066cc,139.65006,35.705427
阿佐ヶ谷駅 (中央線),東京都 杉並区阿佐谷南3丁目,1F,多機能化粧室,"鉄道会社: 東日本旅客鉄道 | 路線: 中央線 | 設備: 車椅子対応, オストメイト対応, おむつ交換台",#0066cc,139.63611,35.705015
阿佐ヶ谷駅 (中央線),東京都 杉並区阿佐谷南3丁目,M2F,多機能トイレ,"男子トイレの中に男女共用の多機能トイレあり | 鉄道会社: 東日本旅客鉄道 | 路線: 中央線 | 設備: 車椅子対応, オストメイト対応, おむつ交換台",#0066cc,139.63587,35.705017
荻窪駅 (中央線),東京都 杉並区上荻1丁目,1F,多機能トイレ,"鉄道会社: 東日本旅客鉄道 | 路線: 中央線 | 設備: 車椅子対応, オストメイト対応, おむつ交換台",#0066cc,139.62034,35.704557
西荻窪駅 (中央線),東京都 杉並区西荻南3丁目,1F,多機能トイレ,"鉄道会社: 東日本旅客鉄道 | 路線: 中央線 | 設備: 車椅子対応, オストメイト対応, おむつ交換台",#0066cc,139.59984,35.703735
秋葉原駅 (東北線/総武線),東京都 千代田区外神田1丁目,1F,多機能化粧室,"鉄道会社: 東日本旅客鉄道 | 路線: 東北線/総武線 | 設備: 車椅子対応, オストメイト対応, おむつ交換台",#0066cc,139.7733,35.6986
御徒町駅 (東北線),東京都 台東区上野5丁目,1F,多機能トイレ,"鉄道会社: 東日本旅客鉄道 | 路線: 東北線 | 設備: 車椅子対応, オストメイト対応, おむつ交換台",#0066cc,139.7749,35.70748
御徒町駅 (東北線),東京都 台東区上野5丁目,1F,多機能トイレ,"鉄道会社: 東日本旅客鉄道 | 路線: 東北線 | 設備: 車椅子対応, オストメイト対応, おむつ交換台",#0066cc,139.7746,35.70662
上野駅 (東北線),東京都 台東区上野7丁目,1F,多機能トイレ,"鉄道会社: 東日本旅客鉄道 | 路線: 東北線 | 設備: 車椅子対応, オストメイト対応",#0066cc,139.7777,35.71366
上野駅 (東北線),東京都 台東区上野7丁目,1F,多機能化粧室,"鉄道会社: 東日本旅客鉄道 | 路線: 東北線 | 設備: 車椅子対応, オストメイト対応, おむつ交換台",#0066cc,139.7767,35.71285
上野駅 (東北線),東京都 台東区上野7丁目,3F,多機能トイレ,"鉄道会社: 東日本旅客鉄道 | 路線: 東北線 | 設備: 車椅子対応, オストメイト対応",#0066cc,139.777839,35.713803
上野駅 (東北線),東京都 台東区上野7丁目,3F,多機能トイレ,"鉄道会社: 東日本旅客鉄道 | 路線: 東北線 | 設備: 車椅子対応, オストメイト対応, おむつ交換台",#0066cc,139.775931,35.713614
鶯谷駅 (東北線),東京都 台東区根岸1丁目,1F,多機能化粧室,"鉄道会社: 東日本旅客鉄道 | 路線: 東北線 | 設備: 車椅子対応, オストメイト対応, おむつ交換台",#0066cc,139.7788,35.72051
日暮里駅 (東北線/常磐線),東京都 荒川区西日暮里2丁目,2F,多機能トイレ,"鉄道会社: 東日本旅客鉄道 | 路線: 東北線/常磐線 | 設備: 車椅子対応, オストメイト対応, おむつ交換台",#0066cc,139.7706,35.72787
西日暮里駅 (東北線),東京都 荒川区西日暮里5丁目,1F,多機能化粧室,"鉄道会社: 東日本旅客鉄道 | 路線: 東北線 | 設備: 車椅子対応, オストメイト対応, おむつ交換台",#0066cc,139.7669,35.73187
田端駅 (山手線/東北線),東京都 北区東田端1丁目,1F,多機能トイレ,"鉄道会社: 東日本旅客鉄道 | 路線: 山手線/東北線 | 設備: 車椅子対応, オストメイト対応, おむつ交換台",#0066cc,139.761,35.7381
上中里駅 (東北線),東京都 北区上中里1丁目,1F,多機能トイレ,"鉄道会社: 東日本旅客鉄道 | 路線: 東北線 | 設備: 車椅子対応, オストメイト対応, おむつ交換台",#0066cc,139.7469,35.74667
王子駅 (東北線),東京都 北区王子1丁目,1F,多機能トイレ,"鉄道会社: 東日本旅客鉄道 | 路線: 東北線 | 設備: 車椅子対応, オストメイト対応, おむつ交換台",#0066cc,139.7377,35.75293
東十条駅 (東北線),東京都 北区東十条3丁目,2F,多機能トイレ,"鉄道会社: 東日本旅客鉄道 | 路線: 東北線 | 設備: 車椅子対応, オストメイト対応, おむつ交換台",#0066cc,139.7263,35.76476
赤羽駅 (東北線/赤羽線（埼京線）/東北線（埼京線）),東京都 北区赤羽1丁目,1F,多機能化粧室,"鉄道会社: 東日本旅客鉄道 | 路線: 東北線/赤羽線（埼京線）/東北線（埼京線） | 設備: 車椅子対応, オストメイト対応, おむつ交換台",#0066cc,139.7215,35.77715
尾久駅 (東北線),東京都 北区昭和町1丁目,1F,多機能トイレ,"鉄道会社: 東日本旅客鉄道 | 路線: 東北線 | 設備: 車椅子対応, オストメイト対応, おむつ交換台",#0066cc,139.7546,35.74667
北赤羽駅 (東北線（埼京線）),東京都 北区赤羽北2丁目,1F,多機能トイレ,"鉄道会社: 東日本旅客鉄道 | 路線: 東北線（埼京線） | 設備: 車椅子対応, オストメイト対応, 大型ベッド",#0066cc,139.7047,35.7876
北赤羽駅 (東北線（埼京線）),東京都 北区赤羽北2丁目,1F,多機能トイレ,"鉄道会社: 東日本旅客鉄道 | 路線: 東北線（埼京線） | 設備: 車椅子対応, オストメイト対応, 大型ベッド",#0066cc,139.707625,35.786066
浮間舟渡駅 (東北線（埼京線）),東京都 北区浮間4丁目,1F,多機能トイレ,"鉄道会社: 東日本旅客鉄道 | 路線: 東北線（埼京線） | 設備: 車椅子対応, オストメイト対応, おむつ交換台",#0066cc,139.6916,35.79109
三河島駅 (常磐線),東京都 荒川区西日暮里1丁目,1F,多機能トイレ,"鉄道会社: 東日本旅客鉄道 | 路線: 常磐線 | 設備: 車椅子対応, オストメイト対応, おむつ交換台",#0066cc,139.7778,35.73323
南千住駅 (常磐線),東京都 荒川区南千住4丁目,1F,多機能トイレ,"鉄道会社: 東日本旅客鉄道 | 路線: 常磐線 | 設備: 車椅子対応, オストメイト対応, おむつ交換台",#0066cc,139.7992,35.73362
北千住駅 (常磐線),東京都 足立区千住旭町,2F,多機能トイレ,"鉄道会社: 東日本旅客鉄道 | 路線: 常磐線 | 設備: 車椅子対応, オストメイト対応, おむつ交換台",#0066cc,139.8049,35.74941
亀有駅 (常磐線),東京都 葛飾区亀有3丁目,1F,多機能トイレ,"鉄道会社: 東日本旅客鉄道 | 路線: 常磐線 | 設備: 車椅子対応, オストメイト対応, おむつ交換台",#0066cc,139.8478,35.76671
金町駅 (常磐線),東京都 葛飾区金町6丁目,1F,多機能トイレ,"鉄道会社: 東日本旅客鉄道 | 路線: 常磐線 | 設備: 車椅子対応, オストメイト対応, おむつ交換台",#0066cc,139.8706,35.76966
新日本橋駅 (総武線),東京都 中央区日本橋室町4丁目,B1F,多機能化粧室,"鉄道会社: 東日本旅客鉄道 | 路線: 総武線 | 設備: 車椅子対応, オストメイト対応, おむつ交換台",#0066cc,139.7742,35.68902
馬喰町駅 (総武線),東京都 中央区日本橋馬喰町1丁目,B1F,多機能化粧室,"鉄道会社: 東日本旅客鉄道 | 路線: 総武線 | 設備: 車椅子対応, オストメイト対応, おむつ交換台",#0066cc,139.7817,35.69291
八丁堀駅 (京葉線),東京都 中央区八丁堀3丁目,1F,多機能化粧室,"鉄道会社: 東日本旅客鉄道 | 路線: 京葉線 | 設備: 車椅子対応, オストメイト対応, おむつ交換台",#0066cc,139.778392,35.67462
越中島駅 (京葉線),東京都 江東区越中島2丁目,1F,多機能化粧室,"鉄道会社: 東日本旅客鉄道 | 路線: 京葉線 | 設備: 車椅子対応, オストメイト対応, おむつ交換台",#0066cc,139.792592,35.667919
駒込駅 (山手線),東京都 豊島区駒込2丁目,2F,多機能化粧室,"鉄道会社: 東日本旅客鉄道 | 路線: 山手線 | 設備: 車椅子対応, オストメイト対応, おむつ交換台",#0066cc,139.7472,35.73665
駒込駅 (山手線),東京都 豊島区駒込2丁目,B1F,多機能トイレ,"鉄道会社: 東日本旅客鉄道 | 路線: 山手線 | 設備: 車椅子対応, オストメイト対応, おむつ交換台",#0066cc,139.748993,35.73735
巣鴨駅 (山手線),東京都 豊島区巣鴨1丁目,2F,多機能化粧室,"鉄道会社: 東日本旅客鉄道 | 路線: 山手線 | 設備: 車椅子対応, オストメイト対応, おむつ交換台",#0066cc,139.7396,35.73359
大塚駅 (山手線),東京都 豊島区南大塚3丁目,1F,多機能化粧室,"鉄道会社: 東日本旅客鉄道 | 路線: 山手線 | 設備: 車椅子対応, オストメイト対応, おむつ交換台",#0066cc,139.7284,35.73178
池袋駅 (山手線/赤羽線（埼京線）),東京都 豊島区南池袋1丁目,B1F,多機能お手洗い,"鉄道会社: 東日本旅客鉄道 | 路線: 山手線/赤羽線（埼京線） | 設備: 車椅子対応, オストメイト対応, おむつ交換台",#0066cc,139.7111,35.72972
目白駅 (山手線),東京都 豊島区目白3丁目,2F,多機能トイレ,"戸の形式は回転ドア（押しボタン） | 鉄道会社: 東日本旅客鉄道 | 路線: 山手線 | 設備: 車椅子対応, オストメイト対応",#0066cc,139.7066,35.72114
高田馬場駅 (山手線),東京都 新宿区高田馬場1丁目,1F,多機能化粧室,"鉄道会社: 東日本旅客鉄道 | 路線: 山手線 | 設備: 車椅子対応, オストメイト対応, おむつ交換台",#0066cc,139.7038,35.71346
新宿駅 (山手線/中央線),東京都 新宿区新宿3丁目,B1F,多目的トイレ,"鉄道会社: 東日本旅客鉄道 | 路線: 山手線/中央線 | 設備: 車椅子対応, オストメイト対応, おむつ交換台",#0066cc,139.7007,35.69099
新宿駅 (山手線/中央線),東京都 新宿区新宿3丁目,B1F,多目的トイレ,"鉄道会社: 東日本旅客鉄道 | 路線: 山手線/中央線 | 設備: 車椅子対応, オストメイト対応, おむつ交換台",#0066cc,139.7008,35.69031
新宿駅 (山手線/中央線),東京都 新宿区新宿3丁目,2F,多機能化粧室,"鉄道会社: 東日本旅客鉄道 | 路線: 山手線/中央線 | 設備: 車椅子対応, オストメイト対応, おむつ交換台",#0066cc,139.7005,35.68869
新宿駅 (山手線/中央線),東京都 新宿区新宿3丁目,2F,多機能化粧室,"鉄道会社: 東日本旅客鉄道 | 路線: 山手線/中央線 | 設備: 車椅子対応, オストメイト対応, おむつ交換台",#0066cc,139.7006,35.6887
原宿駅 (山手線),東京都 渋谷区神宮前1丁目,改札階,多機能化粧室,"鉄道会社: 東日本旅客鉄道 | 路線: 山手線 | 設備: 車椅子対応, オストメイト対応, おむつ交換台",#0066cc,139.702623,35.670298
原宿駅 (山手線),東京都 渋谷区神宮前1丁目,改札階,多機能化粧室,"鉄道会社: 東日本旅客鉄道 | 路線: 山手線 | 設備: 車椅子対応, オストメイト対応, おむつ交換台",#0066cc,139.702623,35.670298
渋谷駅 (山手線),東京都 渋谷区道玄坂1丁目,1F,多目的トイレ(南改札内）,"鉄道会社: 東日本旅客鉄道 | 路線: 山手線 | 設備: 車椅子対応, オストメイト対応, おむつ交換台",#0066cc,139.7015,35.6578
渋谷駅 (山手線),東京都 渋谷区道玄坂1丁目,2F,多機能トイレ(新南改札内）,"鉄道会社: 東日本旅客鉄道 | 路線: 山手線 | 設備: 車椅子対応, オストメイト対応, おむつ交換台",#0066cc,139.7037,35.65581
渋谷駅 (山手線),東京都 渋谷区道玄坂1丁目,1F,仮設多機能トイレ(ハチ公改札内）,"鉄道会社: 東日本旅客鉄道 | 路線: 山手線 | 設備: 車椅子対応, オストメイト対応, おむつ交換台",#0066cc,139.7015048,35.65887541
恵比寿駅 (山手線),東京都 渋谷区恵比寿南1丁目,1F,多機能トイレ,"鉄道会社: 東日本旅客鉄道 | 路線: 山手線 | 設備: 車椅子対応, オストメイト対応, おむつ交換台",#0066cc,139.7099,35.64684
恵比寿駅 (山手線),東京都 渋谷区恵比寿南1丁目,2F,多機能トイレ,"鉄道会社: 東日本旅客鉄道 | 路線: 山手線 | 設備: 車椅子対応, オストメイト対応, おむつ交換台",#0066cc,139.7104,35.64618
目黒駅 (山手線),東京都 品川区上大崎2丁目,1F,多機能化粧室,"鉄道会社: 東日本旅客鉄道 | 路線: 山手線 | 設備: 車椅子対応, オストメイト対応, おむつ交換台",#0066cc,139.7159,35.63393
五反田駅 (山手線),東京都 品川区東五反田1丁目,1F,多機能トイレ,"鉄道会社: 東日本旅客鉄道 | 路線: 山手線 | 設備: 車椅子対応, オストメイト対応, おむつ交換台",#0066cc,139.7235,35.62632
大崎駅 (山手線),東京都 品川区大崎1丁目,2F,多機能トイレ,"鉄道会社: 東日本旅客鉄道 | 路線: 山手線 | 設備: 車椅子対応, オストメイト対応, おむつ交換台",#0066cc,139.7279,35.6198
十条駅 (赤羽線（埼京線）),東京都 北区上十条1丁目,1F,多機能トイレ,"鉄道会社: 東日本旅客鉄道 | 路線: 赤羽線（埼京線） | 設備: 車椅子対応, オストメイト対応, おむつ交換台",#0066cc,139.7221,35.76039
矢野口駅 (南武線),東京都 稲城市矢野口,1F,多機能化粧室,"鉄道会社: 東日本旅客鉄道 | 路線: 南武線 | 設備: 車椅子対応, オストメイト対応, おむつ交換台",#0066cc,139.5205,35.64168
稲城長沼駅 (南武線),東京都 稲城市東長沼,1F,多機能化粧室,"鉄道会社: 東日本旅客鉄道 | 路線: 南武線 | 設備: 車椅子対応, オストメイト対応, 大型ベッド",#0066cc,139.502,35.64447
南多摩駅 (南武線),東京都 稲城市大丸,1F,多機能化粧室,"鉄道会社: 東日本旅客鉄道 | 路線: 南武線 | 設備: 車椅子対応, オストメイト対応, 大型ベッド",#0066cc,139.4895,35.64925
府中本町駅 (南武線/武蔵野線),東京都 府中市本町1丁目,2F,多機能化粧室,"鉄道会社: 東日本旅客鉄道 | 路線: 南武線/武蔵野線 | 設備: 車椅子対応, オストメイト対応, おむつ交換台",#0066cc,139.4772,35.66633
分倍河原駅 (南武線),東京都 府中市片町2丁目,1F,だれでもトイレ,"鉄道会社: 東日本旅客鉄道 | 路線: 南武線 | 設備: 車椅子対応, オストメイト対応, おむつ交換台",#0066cc,139.4691,35.66842
西府駅 (南武線),東京都 府中市本宿町1丁目,2F,だれでもトイレ,"鉄道会社: 東日本旅客鉄道 | 路線: 南武線 | 設備: 車椅子対応, オストメイト対応, おむつ交換台",#0066cc,139.4574,35.67106
谷保駅 (南武線),東京都 国立市谷保,2F,多機能トイレ,"鉄道会社: 東日本旅客鉄道 | 路線: 南武線 | 設備: 車椅子対応, オストメイト対応, おむつ交換台",#0066cc,139.4466,35.68151
矢川駅 (南武線),東京都 国立市石田,2F,多機能化粧室,"鉄道会社: 東日本旅客鉄道 | 路線: 南武線 | 設備: 車椅子対応, オストメイト対応, おむつ交換台",#0066cc,139.4319,35.68505
西国立駅 (南武線),東京都 立川市羽衣町1丁目,1F,多機能化粧室,"鉄道会社: 東日本旅客鉄道 | 路線: 南武線 | 設備: 車椅子対応, オストメイト対応, おむつ交換台",#0066cc,139.4242,35.69348
北府中駅 (武蔵野線),東京都 府中市晴見町2丁目,2F,多機能化粧室,"鉄道会社: 東日本旅客鉄道 | 路線: 武蔵野線 | 設備: 車椅子対応, オストメイト対応, おむつ交換台",#0066cc,139.4718,35.68084
新小平駅 (武蔵野線),東京都 小平市小川町2丁目,1F,多機能化粧室,"鉄道会社: 東日本旅客鉄道 | 路線: 武蔵野線 | 設備: 車椅子対応, オストメイト対応, おむつ交換台",#0066cc,139.4704,35.73084
新秋津駅 (武蔵野線),東京都 東村山市秋津町5丁目,2F,多機能化粧室,"鉄道会社: 東日本旅客鉄道 | 路線: 武蔵野線 | 設備: 車椅子対応, オストメイト対応, おむつ交換台",#0066cc,139.4933,35.7779
相原駅 (横浜線),東京都 町田市相原町,2F,多機能化粧室,"鉄道会社: 東日本旅客鉄道 | 路線: 横浜線 | 設備: 車椅子対応, オストメイト対応, おむつ交換台",#0066cc,139.3317,35.60687
八王子みなみ野駅 (横浜線),東京都 八王子市みなみ野1丁目,2F,だれでもトイレ,"鉄道会社: 東日本旅客鉄道 | 路線: 横浜線 | 設備: 車椅子対応, オストメイト対応, おむつ交換台",#0066cc,139.331,35.63146
片倉駅 (横浜線),東京都 八王子市片倉町,1F,だれでもトイレ,"鉄道会社: 東日本旅客鉄道 | 路線: 横浜線 | 設備: 車椅子対応, オストメイト対応, おむつ交換台",#0066cc,139.3415,35.63989
成瀬駅 (横浜線),東京都 町田市南成瀬1丁目1番5号,1F,だれでもトイレ,"鉄道会社: 東日本旅客鉄道 | 路線: 横浜線 | 設備: 車椅子対応, オストメイト対応, おむつ交換台",#0066cc,139.4729,35.53552
町田駅 (横浜線),東京都 町田市原町田1丁目,2F,多機能化粧室,"鉄道会社: 東日本旅客鉄道 | 路線: 横浜線 | 設備: 車椅子対応, オストメイト対応, おむつ交換台",#0066cc,139.4454,35.54188
吉祥寺駅 (中央線),東京都 武蔵野市吉祥寺南町1丁目,2F,多機能化粧室,"鉄道会社: 東日本旅客鉄道 | 路線: 中央線 | 設備: 車椅子対応, オストメイト対応, 大型ベッド",#0066cc,139.57961,35.703223
三鷹駅 (中央線),東京都 三鷹市下連雀3丁目,3F,多機能化粧室,"鉄道会社: 東日本旅客鉄道 | 路線: 中央線 | 設備: 車椅子対応, オストメイト対応, おむつ交換台",#0066cc,139.56094,35.702882
武蔵境駅 (中央線),東京都 武蔵野市境1丁目,1F,だれでもトイレ,"鉄道会社: 東日本旅客鉄道 | 路線: 中央線 | 設備: 車椅子対応, オストメイト対応, おむつ交換台",#0066cc,139.54368,35.702149
東小金井駅 (中央線),東京都 小金井市梶野町5丁目,1F,多機能化粧室,"鉄道会社: 東日本旅客鉄道 | 路線: 中央線 | 設備: 車椅子対応, オストメイト対応, おむつ交換台",#0066cc,139.52405,35.701533
武蔵小金井駅 (中央線),東京都 小金井市本町6丁目,1F,多機能化粧室,"鉄道会社: 東日本旅客鉄道 | 路線: 中央線 | 設備: 車椅子対応, オストメイト対応, おむつ交換台",#0066cc,139.5062,35.701028
国分寺駅 (中央線),東京都 国分寺市本町2丁目,2F,多機能化粧室,"鉄道会社: 東日本旅客鉄道 | 路線: 中央線 | 設備: 車椅子対応, オストメイト対応, おむつ交換台",#0066cc,139.48004,35.699965
西国分寺駅 (中央線/武蔵野線),東京都 国分寺市西恋ヶ窪2丁目,2F,だれでもトイレ,"鉄道会社: 東日本旅客鉄道 | 路線: 中央線/武蔵野線 | 設備: 車椅子対応, オストメイト対応, おむつ交換台",#0066cc,139.46577,35.699846
国立駅 (中央線),東京都 国立市北1丁目,1F,だれでもトイレ,"鉄道会社: 東日本旅客鉄道 | 路線: 中央線 | 設備: 車椅子対応, オストメイト対応, おむつ交換台",#0066cc,139.44628,35.699288
立川駅 (中央線/南武線/青梅線),東京都 立川市曙町2丁目,2F,だれでもトイレ,"鉄道会社: 東日本旅客鉄道 | 路線: 中央線/南武線/青梅線 | 設備: 車椅子対応, オストメイト対応, おむつ交換台",#0066cc,139.41317,35.697726
立川駅 (中央線/南武線/青梅線),東京都 立川市曙町2丁目,2F,だれでもトイレ,"鉄道会社: 東日本旅客鉄道 | 路線: 中央線/南武線/青梅線 | 設備: 車椅子対応, オストメイト対応, おむつ交換台",#0066cc,139.41419,35.698068
日野駅 (中央線),東京都 日野市大坂上1丁目,1F,だれでもトイレ,"鉄道会社: 東日本旅客鉄道 | 路線: 中央線 | 設備: 車椅子対応, オストメイト対応, おむつ交換台",#0066cc,139.39394,35.679241
豊田駅 (中央線),東京都 日野市豊田4丁目,2F,多機能トイレ,"鉄道会社: 東日本旅客鉄道 | 路線: 中央線 | 設備: 車椅子対応, オストメイト対応, おむつ交換台",#0066cc,139.3814,35.659477
八王子駅 (中央線/横浜線/八高線),東京都 八王子市旭町1丁目,2F,多機能化粧室,"鉄道会社: 東日本旅客鉄道 | 路線: 中央線/横浜線/八高線 | 設備: 車椅子対応, オストメイト対応, おむつ交換台",#0066cc,139.33915,35.655692
西八王子駅 (中央線),東京都 八王子市千人町2丁目,2F,多機能化粧室,"鉄道会社: 東日本旅客鉄道 | 路線: 中央線 | 設備: 車椅子対応, オストメイト対応, おむつ交換台",#0066cc,139.31232,35.65656
西立川駅 (青梅線),東京都 立川市富士見町1丁目,2F,だれでもトイレ,"鉄道会社: 東日本旅客鉄道 | 路線: 青梅線 | 設備: 車椅子対応, オストメイト対応, おむつ交換台",#0066cc,139.3936,35.7036
東中神駅 (青梅線),東京都 昭島市玉川町1丁目,2F,多機能化粧室,"鉄道会社: 東日本旅客鉄道 | 路線: 青梅線 | 設備: 車椅子対応, オストメイト対応, おむつ交換台",#0066cc,139.3843,35.70642
中神駅 (青梅線),東京都 昭島市朝日町1丁目,2F,だれでもトイレ,"鉄道会社: 東日本旅客鉄道 | 路線: 青梅線 | 設備: 車椅子対応, オストメイト対応, おむつ交換台",#0066cc,139.3757,35.709
昭島駅 (青梅線),東京都 昭島市昭和町2丁目,2F,多機能トイレ,"鉄道会社: 東日本旅客鉄道 | 路線: 青梅線 | 設備: 車椅子対応, オストメイト対応, おむつ交換台",#0066cc,139.361,35.7136
拝島駅 (青梅線/五日市線/八高線),東京都 昭島市松原町4丁目,2F,多機能トイレ,"鉄道会社: 東日本旅客鉄道 | 路線: 青梅線/五日市線/八高線 | 設備: 車椅子対応, オストメイト対応, おむつ交換台",#0066cc,139.3436,35.72097
福生駅 (青梅線),東京都 福生市本町,2F,だれでもトイレ,"鉄道会社: 東日本旅客鉄道 | 路線: 青梅線 | 設備: 車椅子対応, オストメイト対応, おむつ交換台",#0066cc,139.3279,35.74243
羽村駅 (青梅線),東京都 羽村市羽東1丁目,2F,多機能トイレ,"鉄道会社: 東日本旅客鉄道 | 路線: 青梅線 | 設備: 車椅子対応, オストメイト対応, おむつ交換台",#0066cc,139.316,35.75833
小作駅 (青梅線),東京都 羽村市小作台5丁目,2F,だれでもトイレ,"鉄道会社: 東日本旅客鉄道 | 路線: 青梅線 | 設備: 車椅子対応, オストメイト対応, おむつ交換台",#0066cc,139.3019,35.77632
河辺駅 (青梅線),東京都 青梅市河辺町5丁目,2F,だれでもトイレ,"鉄道会社: 東日本旅客鉄道 | 路線: 青梅線 | 設備: 車椅子対応, オストメイト対応, おむつ交換台",#0066cc,139.2848,35.78439
青梅駅 (青梅線),東京都 青梅市本町,1F,多機能トイレ,"鉄道会社: 東日本旅客鉄道 | 路線: 青梅線 | 設備: 車椅子対応, オストメイト対応, 大型ベッド",#0066cc,139.2584,35.7903
武蔵五日市駅 (五日市線),東京都 あきる野市館谷,1F,多機能化粧室,"鉄道会社: 東日本旅客鉄道 | 路線: 五日市線 | 設備: 車椅子対応, オストメイト対応, おむつ交換台",#0066cc,139.2282,35.73238
北八王子駅 (八高線),東京都 八王子市石川町,1F,だれでもトイレ,"鉄道会社: 東日本旅客鉄道 | 路線: 八高線 | 設備: 車椅子対応, オストメイト対応, おむつ交換台",#0066cc,139.3633,35.66941
小宮駅 (八高線),東京都 八王子市小宮町,2F,多目的トイレ,"鉄道会社: 東日本旅客鉄道 | 路線: 八高線 | 設備: 車椅子対応, オストメイト対応, おむつ交換台",#0066cc,139.3688,35.68547
箱根ヶ崎駅 (八高線),東京都 西多摩郡瑞穂町大字箱根ヶ崎,2F,だれでもトイレ,"鉄道会社: 東日本旅客鉄道 | 路線: 八高線 | 設備: 車椅子対応, オストメイト対応, おむつ交換台",#0066cc,139.3468,35.7715
浅草橋駅 (総武線),東京都 台東区浅草橋1丁目,2F,多機能トイレ,"鉄道会社: 東日本旅客鉄道 | 路線: 総武線 | 設備: 車椅子対応, オストメイト対応, おむつ交換台",#0066cc,139.783714,35.697451
両国駅 (総武線),東京都 墨田区横網1丁目,1F,多機能トイレ,"鉄道会社: 東日本旅客鉄道 | 路線: 総武線 | 設備: 車椅子対応, オストメイト対応, おむつ交換台",#0066cc,139.792611,35.695868
錦糸町駅 (総武線),東京都 墨田区江東橋3丁目,1F,多機能トイレ,"鉄道会社: 東日本旅客鉄道 | 路線: 総武線 | 設備: 車椅子対応, オストメイト対応, 大型ベッド",#0066cc,139.813707,35.696915
亀戸駅 (総武線),東京都 江東区亀戸5丁目,1F,多機能トイレ,"鉄道会社: 東日本旅客鉄道 | 路線: 総武線 | 設備: 車椅子対応, オストメイト対応, おむつ交換台",#0066cc,139.825976,35.697267
平井駅 (総武線),東京都 江戸川区平井3丁目30番1号,1F,多機能トイレ,"鉄道会社: 東日本旅客鉄道 | 路線: 総武線 | 設備: 車椅子対応, オストメイト対応, おむつ交換台",#0066cc,139.842483,35.706457
新小岩駅 (総武線),東京都 葛飾区新小岩1丁目,1F,多機能トイレ,"鉄道会社: 東日本旅客鉄道 | 路線: 総武線 | 設備: 車椅子対応, オストメイト対応, 大型ベッド",#0066cc,139.857724,35.716643
小岩駅 (総武線),東京都 江戸川区南小岩7丁目24番16号,1F,多機能トイレ,"鉄道会社: 東日本旅客鉄道 | 路線: 総武線 | 設備: 車椅子対応, オストメイト対応, おむつ交換台",#0066cc,139.881661,35.733094
潮見駅 (京葉線),東京都 江東区潮見2丁目,1F,多機能トイレ,"鉄道会社: 東日本旅客鉄道 | 路線: 京葉線 | 設備: 車椅子対応, オストメイト対応, おむつ交換台",#0066cc,139.817263,35.658896
新木場駅 (京葉線),東京都 江東区新木場1丁目,3F,多機能トイレ,"鉄道会社: 東日本旅客鉄道 | 路線: 京葉線 | 設備: 車椅子対応, オストメイト対応, おむつ交換台",#0066cc,139.826434,35.646038
葛西臨海公園駅 (京葉線),東京都 江戸川区臨海町6-3-54,2F,多機能トイレ,"点字ブロックは音声案内板まで | 鉄道会社: 東日本旅客鉄道 | 路線: 京葉線 | 設備: 車椅子対応, オストメイト対応, おむつ交換台",#0066cc,139.861586,35.644439
高輪ゲートウェイ駅 (東海道線),東京都 港区港南2丁目,2F,多機能化粧室,"鉄道会社: 東日本旅客鉄道 | 路線: 東海道線 | 設備: 車椅子対応, オストメイト対応, おむつ交換台",#0066cc,139.740973,35.635929
高輪ゲートウェイ駅 (東海道線),東京都 港区港南2丁目,2F,多機能化粧室,"鉄道会社: 東日本旅客鉄道 | 路線: 東海道線 | 設備: 車椅子対応, オストメイト対応, おむつ交換台",#0066cc,139.740973,35.635929
御茶ノ水駅 (中央線),東京都 千代田区神田駿河台2丁目,1F,多機能トイレ,"鉄道会社: 東日本旅客鉄道 | 路線: 中央線 | 設備: 車椅子対応, オストメイト対応, おむつ交換台",#0066cc,139.764614,35.699612
新大久保駅駅 (山手線),東京都 新宿区百人町1丁目,1F,多機能化粧室,"鉄道会社: 東日本旅客鉄道 | 路線: 山手線 | 設備: 車椅子対応, オストメイト対応, おむつ交換台",#0066cc,139.700084,35.701236
板橋駅 (赤羽線（埼京線）),東京都 北区滝野川7丁目,1F,多機能化粧室,"鉄道会社: 東日本旅客鉄道 | 路線: 赤羽線（埼京線） | 設備: 車椅子対応, オストメイト対応, おむつ交換台",#0066cc,139.71968,35.745445
新柴又駅 (北総線),東京都 葛飾区柴又5丁目7番1号,2F,男女共用多機能トイレ,"鉄道会社: 北総鉄道 | 路線: 北総線 | 設備: 車椅子対応, オストメイト対応, おむつ交換台",#0066cc,139.87969,35.751243
滝本駅 (ケーブルカー),東京都 青梅市御岳2丁目483番地,1F,だれでもトイレ,"床面の修繕 | 鉄道会社: 御岳登山鉄道 | 路線: ケーブルカー | 設備: 車椅子対応, オストメイト対応, 大型ベッド",#0066cc,139.1614,35.79615
新橋駅 (東京臨海新交通臨海線),東京都 港区東新橋1丁目1番11号先,2F,多機能トイレ（東口）,"ハンドドライヤー、ベビーチェア下フィッテイングボード、大型ベッド（折りたたみ式）設置 | 鉄道会社: ゆりかもめ | 路線: 東京臨海新交通臨海線 | 設備: 車椅子対応, オストメイト対応, 大型ベッド, おむつ交換台",#0066cc,139.759628,35.665403
新橋駅 (東京臨海新交通臨海線),東京都 港区東新橋1丁目1番11号先,2F,多機能トイレ（東口）,"個室前の男性トイレ内では回転可・乳幼児用おむつ交換台、オストメイトは男性トイレ個室内に設置 | 鉄道会社: ゆりかもめ | 路線: 東京臨海新交通臨海線 | 設備: 車椅子対応, オストメイト対応, おむつ交換台",#0066cc,139.759628,35.665403
新橋駅 (東京臨海新交通臨海線),東京都 港区東新橋1丁目1番11号先,2F,多機能トイレ（東口）,"個室前の女性トイレ内では回転可・乳幼児用おむつ交換台、オストメイトは女性トイレ個室内に設置 | 鉄道会社: ゆりかもめ | 路線: 東京臨海新交通臨海線 | 設備: 車椅子対応, オストメイト対応, おむつ交換台",#0066cc,139.759628,35.665403
汐留駅 (東京臨海新交通臨海線),東京都 港区東新橋1丁目9番52号先,2F,多機能トイレ,"鉄道会社: ゆりかもめ | 路線: 東京臨海新交通臨海線 | 設備: 車椅子対応, オストメイト対応, 大型ベッド, おむつ交換台",#0066cc,139.760016,35.66293
竹芝駅 (東京臨海新交通臨海線),東京都 港区海岸1丁目13番10号,2F,多機能トイレ,"鉄道会社: ゆりかもめ | 路線: 東京臨海新交通臨海線 | 設備: 車椅子対応, オストメイト対応",#0066cc,139.761969,35.653976
日の出駅 (東京臨海新交通臨海線),東京都 港区海岸2丁目7番68号,2F,多機能トイレ,"鉄道会社: ゆりかもめ | 路線: 東京臨海新交通臨海線 | 設備: 車椅子対応, オストメイト対応",#0066cc,139.75911,35.649202
芝浦ふ頭駅 (東京臨海新交通臨海線),東京都 港区海岸3丁目22番12号,2F,多機能トイレ,"鉄道会社: ゆりかもめ | 路線: 東京臨海新交通臨海線 | 設備: 車椅子対応, オストメイト対応",#0066cc,139.757742,35.641603
お台場海浜公園駅 (東京臨海新交通臨海線),東京都 港区台場2丁目3番地先,2F,多機能トイレ,"一般トイレにオストメイト有り | 鉄道会社: ゆりかもめ | 路線: 東京臨海新交通臨海線 | 設備: 車椅子対応, オストメイト対応, おむつ交換台",#0066cc,139.77877,35.629883
台場駅 (東京臨海新交通臨海線),東京都 港区台場2丁目6番地先,2F,多機能トイレ,"鉄道会社: ゆりかもめ | 路線: 東京臨海新交通臨海線 | 設備: 車椅子対応, オストメイト対応, おむつ交換台",#0066cc,139.771415,35.625944
東京国際クルーズターミナル駅 (東京臨海新交通臨海線),東京都 江東区青海1丁目1番49号先,2F,多機能トイレ,"鉄道会社: ゆりかもめ | 路線: 東京臨海新交通臨海線 | 設備: 車椅子対応, オストメイト対応, おむつ交換台",#0066cc,139.773125,35.621395
テレコムセンター駅 (東京臨海新交通臨海線),東京都 江東区青海2丁目5番8号先,2F,多機能トイレ,"鉄道会社: ゆりかもめ | 路線: 東京臨海新交通臨海線 | 設備: 車椅子対応, オストメイト対応, おむつ交換台",#0066cc,139.779521,35.617571
青海駅 (東京臨海新交通臨海線),東京都 江東区青海1丁目3番14号先,2F,多機能トイレ,"鉄道会社: ゆりかもめ | 路線: 東京臨海新交通臨海線 | 設備: 車椅子対応, オストメイト対応, おむつ交換台",#0066cc,139.78103,35.624569
東京ビッグサイト駅 (東京臨海新交通臨海線),東京都 江東区有明3丁目6番15号先,2F,多機能トイレ1 南側(管理番号71),"鉄道会社: ゆりかもめ | 路線: 東京臨海新交通臨海線 | 設備: 車椅子対応, オストメイト対応, 大型ベッド, おむつ交換台",#0066cc,139.791509,35.630115
東京ビッグサイト駅 (東京臨海新交通臨海線),東京都 江東区有明3丁目6番15号先,2F,多機能トイレ2中央,"鉄道会社: ゆりかもめ | 路線: 東京臨海新交通臨海線 | 設備: 車椅子対応, オストメイト対応, 大型ベッド, おむつ交換台",#0066cc,139.791434,35.630211
東京ビッグサイト駅 (東京臨海新交通臨海線),東京都 江東区有明3丁目6番15号先,2F,男女共用一般トイレ1 北入口(管理番号92),鉄道会社: ゆりかもめ | 路線: 東京臨海新交通臨海線 | 設備: オストメイト対応,#0066cc,139.791327,35.630281
東京ビッグサイト駅 (東京臨海新交通臨海線),東京都 江東区有明3丁目6番15号先,2F,男女共用一般トイレ2 北奥(管理番号91),"鉄道会社: ゆりかもめ | 路線: 東京臨海新交通臨海線 | 設備: 車椅子対応, おむつ交換台",#0066cc,139.791209,35.630307
東京ビッグサイト駅 (東京臨海新交通臨海線),東京都 江東区有明3丁目6番15号先,2F,男子トイレ(管理番号33),"鉄道会社: ゆりかもめ | 路線: 東京臨海新交通臨海線 | 設備: オストメイト対応, おむつ交換台",#0066cc,139.791552,35.630499
東京ビッグサイト駅 (東京臨海新交通臨海線),東京都 江東区有明3丁目6番15号先,2F,女子トイレ(管理番号34),"鉄道会社: ゆりかもめ | 路線: 東京臨海新交通臨海線 | 設備: オストメイト対応, おむつ交換台",#0066cc,139.791391,35.630386
有明駅 (東京臨海新交通臨海線),東京都 江東区有明3丁目7番5号先,2F,多機能トイレ,"鉄道会社: ゆりかもめ | 路線: 東京臨海新交通臨海線 | 設備: 車椅子対応, オストメイト対応, おむつ交換台",#0066cc,139.793318,35.63471
有明駅 (東京臨海新交通臨海線),東京都 江東区有明3丁目7番5号先,2F,多機能トイレ,"個室前の女性トイレ内では回転可・乳幼児用おむつ交換台は個室前の女性トイレ内に設置 | 鉄道会社: ゆりかもめ | 路線: 東京臨海新交通臨海線 | 設備: 車椅子対応, オストメイト対応",#0066cc,139.793333,35.6345
有明駅 (東京臨海新交通臨海線),東京都 江東区有明3丁目7番5号先,2F,多機能トイレ,"個室前の男性トイレ内では回転可・乳幼児用おむつ交換台は個室前の男性トイレ内に設置 | 鉄道会社: ゆりかもめ | 路線: 東京臨海新交通臨海線 | 設備: 車椅子対応, オストメイト対応",#0066cc,139.793385,35.634535
有明テニスの森駅 (東京臨海新交通臨海線),東京都 江東区有明1丁目8番14号先,2F,多機能トイレ,"鉄道会社: ゆりかもめ | 路線: 東京臨海新交通臨海線 | 設備: 車椅子対応, オストメイト対応, おむつ交換台",#0066cc,139.788824,35.64003
市場前駅 (東京臨海新交通臨海線),東京都 江東区豊洲6丁目3番12号先,2F,多機能トイレ,"鉄道会社: ゆりかもめ | 路線: 東京臨海新交通臨海線 | 設備: 車椅子対応, オストメイト対応, おむつ交換台",#0066cc,139.785604,35.645721
新豊洲駅 (東京臨海新交通臨海線),東京都 江東区豊洲6丁目2番20号先,2F,多機能トイレ,"鉄道会社: ゆりかもめ | 路線: 東京臨海新交通臨海線 | 設備: 車椅子対応, オストメイト対応, おむつ交換台",#0066cc,139.79013,35.64876
豊洲駅 (東京臨海新交通臨海線),東京都 江東区豊洲2丁目2番14号先,2F,多機能トイレ,"鉄道会社: ゆりかもめ | 路線: 東京臨海新交通臨海線 | 設備: 車椅子対応, オストメイト対応, 大型ベッド",#0066cc,139.795371,35.653786
豊洲駅 (東京臨海新交通臨海線),東京都 江東区豊洲2丁目2番14号先,2F,多機能トイレ,"新規/個室前の女性トイレ内では回転可・乳幼児用おむつ交換台は個室前の女性トイレ内に設置 | 鉄道会社: ゆりかもめ | 路線: 東京臨海新交通臨海線 | 設備: 車椅子対応, オストメイト対応, おむつ交換台",#0066cc,139.795324,35.653753
豊洲駅 (東京臨海新交通臨海線),東京都 江東区豊洲2丁目2番14号先,2F,多機能トイレ,"新規/個室前の男性トイレ内では回転可・乳幼児用おむつ交換台は個室前の男性トイレ内に設置 | 鉄道会社: ゆりかもめ | 路線: 東京臨海新交通臨海線 | 設備: 車椅子対応, オストメイト対応, おむつ交換台",#0066cc,139.795413,35.653818
