name,address,floor,toilet_name,note,color,lng,lat
野山北・六道山公園,東京都 西多摩郡瑞穂町大字駒形富士山196号,1F,駒形富士山便所,"24時間 | 設備: 車椅子対応, オストメイト対応, おむつ交換台",#00cc00,139.354024,35.779047
野山北・六道山公園,東京都 西多摩郡瑞穂町大字高根407番地2号,1F,高根便所,"24時間 | 設備: 車椅子対応, おむつ交換台",#00cc00,139.364518,35.782607
野山北・六道山公園,東京都 西多摩郡瑞穂町大字石畑2235番地外,1F,石畑便所,"設備: 車椅子対応, オストメイト対応, おむつ交換台",#00cc00,139.359213,35.772096
野山北・六道山公園,東京都 西多摩郡瑞穂町大字石畑2150番地先,1F,夕日台便所,"24時間 | 設備: 車椅子対応, オストメイト対応, おむつ交換台",#00cc00,139.358433,35.770903
野山北・六道山公園,東京都 西多摩郡瑞穂町大字石畑2355番地3号,1F,六道山便所,"24時間 | 設備: 車椅子対応, おむつ交換台",#00cc00,139.368439,35.774866
瑞穂町役場（本庁舎）,東京都 西多摩郡瑞穂町大字箱根ケ崎2335番地,1F,１階だれでもトイレ,"設備: 車椅子対応, オストメイト対応, 大型ベッド, おむつ交換台",#00cc00,139.354258,35.772046
瑞穂町役場（本庁舎）,東京都 西多摩郡瑞穂町大字箱根ケ崎2335番地,2F,２階だれでもトイレ,"設備: 車椅子対応, オストメイト対応, 大型ベッド, おむつ交換台",#00cc00,139.354258,35.772047
瑞穂町役場（本庁舎）,東京都 西多摩郡瑞穂町大字箱根ケ崎2335番地,3F,３階だれでもトイレ,"設備: 車椅子対応, オストメイト対応, 大型ベッド, おむつ交換台",#00cc00,139.354257,35.772047
瑞穂町役場（本庁舎）,東京都 西多摩郡瑞穂町大字箱根ケ崎2335番地,4F,４階だれでもトイレ,"設備: 車椅子対応, オストメイト対応, 大型ベッド, おむつ交換台",#00cc00,139.354258,35.772047
瑞穂町町民会館,東京都 西多摩郡瑞穂町大字石畑1875番地5,1F,瑞穂町町民会館１階だれでもトイレ,平日の19時以降、土日祝日は会館の利用者がいる場合のみ利用可能。（利用時以外は施錠しているため） | 設備: 車椅子対応,#00cc00,139.354758,35.771695
瑞穂町町民会館,東京都 西多摩郡瑞穂町大字石畑1875番地5,2F,瑞穂町町民会館２階女子トイレ,平日の19時以降、土日祝日は会館の利用者がいる場合のみ利用可能。（利用時以外は施錠しているため） | 設備: 車椅子対応,#00cc00,139.354883,35.771688
元狭山コミュニティセンター,東京都 西多摩郡瑞穂町大字二本木673番地1,1F,１階東側だれでもトイレ,"設備: 車椅子対応, 大型ベッド",#00cc00,139.35552,35.790981
元狭山コミュニティセンター,東京都 西多摩郡瑞穂町大字二本木673番地1,2F,2階東側だれでもトイレ,"設備: 車椅子対応, おむつ交換台",#00cc00,139.35552,35.790981
石畑会館,東京都 西多摩郡瑞穂町大字石畑211番地,1F,石畑会館だれでもトイレ,"会館の利用時のみ利用可能。（利用時以外は施錠しているため） | 設備: 車椅子対応, おむつ交換台",#00cc00,139.35551,35.765602
長岡南会館,東京都 西多摩郡瑞穂町長岡四丁目六番4,1F,長岡南会館だれでもトイレ,会館の利用時のみ利用可能。（利用時以外は施錠しているため） | 設備: 車椅子対応,#00cc00,139.328725,35.77728
箱根ケ崎西会館,東京都 西多摩郡瑞穂町箱根ケ崎西松原16番地3,1F,箱根ケ崎西会館だれでもトイレ,会館の利用時のみ利用可能。（利用時以外は施錠しているため） | 設備: 車椅子対応,#00cc00,139.339761,35.774116
箱根ケ崎南会館,東京都 西多摩郡瑞穂町大字武蔵3番地,1F,箱根ケ崎南会館だれでもトイレ,"会館の利用時のみ利用可能。（利用時以外は施錠しているため） | 設備: 車椅子対応, オストメイト対応, おむつ交換台",#00cc00,139.349375,35.768173
箱根ケ崎北会館,東京都 西多摩郡瑞穂町大字箱根ケ崎2番地,1F,箱根ケ崎北会館だれでもトイレ,"会館の利用時のみ利用可能。（利用時以外は施錠しているため） | 設備: 車椅子対応, おむつ交換台",#00cc00,139.350325,35.776211
長岡コミュニティセンター,東京都 西多摩郡瑞穂町大字箱根ケ崎1180番地,1F,１階だれでもトイレ,"設備: 車椅子対応, オストメイト対応, おむつ交換台",#00cc00,139.337323,35.780901
長岡コミュニティセンター,東京都 西多摩郡瑞穂町大字箱根ケ崎1180番地,2F,２階だれでもトイレ,"設備: 車椅子対応, オストメイト対応, おむつ交換台",#00cc00,139.337258,35.780927
武蔵野コミュニティセンター (瑞穂アパート27号棟1階),東京都 西多摩郡瑞穂町むさし野一丁目5番地,1F,１階東側多目的トイレ,設備: 車椅子対応,#00cc00,139.339849,35.761674
石畑中央会館,東京都 西多摩郡瑞穂町大字石畑1837番地,1F,石畑中央会館だれでもトイレ,会館の利用時のみ利用可能。（利用時以外は施錠しているため） | 設備: 車椅子対応,#00cc00,139.35633,35.769278
瑞穂町ふれあいセンター,東京都 西多摩郡瑞穂町大字石畑2008番地,1F,１階だれでもトイレ,"設備: 車椅子対応, オストメイト対応, おむつ交換台",#00cc00,139.357313,35.774474
瑞穂町ふれあいセンター,東京都 西多摩郡瑞穂町大字石畑2008番地,2F,２階だれでもトイレ,"設備: 車椅子対応, オストメイト対応, おむつ交換台",#00cc00,139.357314,35.774474
殿ケ谷会館,東京都 西多摩郡瑞穂町大字殿ケ谷988番地,1F,殿ケ谷会館だれでもトイレ,"会館の利用時のみ利用可能（利用時以外は施錠しているため） | 設備: 車椅子対応, オストメイト対応, おむつ交換台",#00cc00,139.3636435,35.76523315
瑞穂町保健センター,東京都 西多摩郡瑞穂町大字石畑1970番地,1F,１階多目的トイレ,設備: 車椅子対応,#00cc00,139.35666,35.773735
瑞穂町保健センター,東京都 西多摩郡瑞穂町大字石畑1970番地,2F,２階多目的トイレ,設備: 車椅子対応,#00cc00,139.35666,35.773735
瑞穂町郷土資料館,東京都 西多摩郡瑞穂町大字駒形富士山316番地5,1F,だれでもトイレ,"設備: 車椅子対応, オストメイト対応, 大型ベッド, おむつ交換台",#00cc00,139.352162,35.780575
耕心館,東京都 西多摩郡瑞穂町大字駒形富士山317番地,1F,だれでもトイレ,休館日 第３月曜日（祝日の場合は翌日）はご利用できません。年末年始の休館予定日は12月29日〜1月4日になります。 | 設備: 車椅子対応,#00cc00,139.352588,35.781016
瑞穂ビューパーク・スカイホール,東京都 西多摩郡瑞穂町大字箱根ケ崎2475番地,1F,競技場管理棟だれでもトイレ,利用可能日時については、施設保守点検等による完全休館日（年間６日間程度）及び年末年始（12/29〜1/3）を除く。イベント等がある場合は、最長22時まで利用可能。 | 設備: おむつ交換台,#00cc00,139.355309,35.774889
瑞穂ビューパーク・スカイホール,東京都 西多摩郡瑞穂町大字箱根ケ崎2475番地,1F,小ホール１階だれでもトイレ,"利用可能日時については、施設保守点検等による完全休館日（年間６日間程度）及び年末年始（12/29〜1/3）を除く。イベント等がある場合は、最長22時まで利用可能。 | 設備: 車椅子対応, オストメイト対応",#00cc00,139.355277,35.774635
瑞穂ビューパーク・スカイホール,東京都 西多摩郡瑞穂町大字箱根ケ崎2475番地,1F,大ホール１階だれでもトイレ（１-２扉側）,"利用可能日時については、施設保守点検等による完全休館日（年間６日間程度）及び年末年始（12/29〜1/3）を除く。イベント等がある場合は、最長22時まで利用可能。 | 設備: 車椅子対応, おむつ交換台",#00cc00,139.355569,35.774486
瑞穂ビューパーク・スカイホール,東京都 西多摩郡瑞穂町大字箱根ケ崎2475番地,1F,大ホール１階だれでもトイレ（１-３扉側）,"利用可能日時については、施設保守点検等による完全休館日（年間６日間程度）及び年末年始（12/29〜1/3）を除く。イベント等がある場合は、最長22時まで利用可能。 | 設備: 車椅子対応, おむつ交換台",#00cc00,139.355468,35.77453
瑞穂ビューパーク・スカイホール,東京都 西多摩郡瑞穂町大字箱根ケ崎2475番地,2F,小ホール２階だれでもトイレ,"利用可能日時については、施設保守点検等による完全休館日（年間６日間程度）及び年末年始（12/29〜1/3）を除く。イベント等がある場合は、最長22時まで利用可能。 | 設備: 車椅子対応, おむつ交換台",#00cc00,139.355656,35.774705
みずほリサイクルプラザ,東京都 西多摩郡瑞穂町大字箱根ケ崎1723番地,1F,1階だれでもトイレ,"設備: 車椅子対応, おむつ交換台",#00cc00,139.343281,35.768338
みずほリサイクルプラザ,東京都 西多摩郡瑞穂町大字箱根ケ崎1723番地,1F,エコパークだれでもトイレ,"みずほエコパークのだれでもトイレは年末の12/29〜31の閉園日を除き下記の期間、時間でご利用になれます。4月1日〜5月31日　6：00〜18：00、6月1日〜8月31日　6：00〜19：00、9月1日〜10月31日　6：00〜17：00、11月1日〜2月末日　6：30〜16：00、3月1日〜3月31日　6：30〜17：00 | 設備: 車椅子対応, おむつ交換台",#00cc00,139.342455,35.768208
みずほリサイクルプラザ,東京都 西多摩郡瑞穂町大字箱根ケ崎1723番地,2F,2階だれでもトイレ,"設備: 車椅子対応, おむつ交換台",#00cc00,139.343267,35.768445
瑞穂中央体育館,東京都 西多摩郡瑞穂町大字石畑1989番地1,1F,瑞穂中央体育館１階トイレ,設備: 車椅子対応,#00cc00,139.357058,35.77272
瑞穂中央体育館,東京都 西多摩郡瑞穂町大字石畑1989番地1,1F,瑞穂中央体育館１階トイレ,設備: 車椅子対応,#00cc00,139.357058,35.77272
瑞穂町武道館,東京都 西多摩郡瑞穂町大字箱根ケ崎519番地,1F,瑞穂町武道館だれでもトイレ,"設備: 車椅子対応, おむつ交換台",#00cc00,139.347657,35.77545
シクラメンスポーツ公園,東京都 西多摩郡瑞穂町大字箱根ケ崎1155番地,1F,シクラメンスポーツ公園だれでもトイレ,"設備: 車椅子対応, オストメイト対応, おむつ交換台",#00cc00,139.337653,35.78407
殿ケ谷ポケットパーク,東京都 西多摩郡瑞穂町大字殿ケ谷834番地43,1F,殿ケ谷ポケットパークだれでもトイレ,"設備: 車椅子対応, おむつ交換台",#00cc00,139.36052,35.764136
玉林寺公園,東京都 西多摩郡瑞穂町大字殿ケ谷1050番地,1F,玉林寺公園だれでもトイレ,"設備: 車椅子対応, オストメイト対応, おむつ交換台",#00cc00,139.362761,35.767921
狭山谷公園,東京都 西多摩郡瑞穂町大字石畑1970番地,1F,狭山谷公園トイレ,設備: 車椅子対応,#00cc00,139.356797,35.773443
狭山池公園,東京都 西多摩郡瑞穂町大字箱根ケ崎712番地,1F,狭山池公園トイレ,"設備: 車椅子対応, おむつ交換台",#00cc00,139.347891,35.776019
さやま花多里の郷,東京都 西多摩郡瑞穂町大字駒形富士山243番地1,1F,さやま花多里の郷トイレ,"設備: 車椅子対応, オストメイト対応, おむつ交換台",#00cc00,139.350336,35.777128
かすが公園,東京都 西多摩郡瑞穂町長岡四丁目24番地　　　,1F,かすが公園だれでもトイレ,"設備: 車椅子対応, オストメイト対応, おむつ交換台",#00cc00,139.326642,35.778932
下野公園,東京都 西多摩郡瑞穂町長岡一丁目40番地　　　,1F,下野公園だれでもトイレ,"設備: 車椅子対応, おむつ交換台",#00cc00,139.331846,35.77642
若草公園,東京都 西多摩郡瑞穂町長岡一丁目17番地　　　,1F,若草公園だれでもトイレ,"設備: 車椅子対応, オストメイト対応, おむつ交換台",#00cc00,139.334413,35.775281
長岡公園,東京都 西多摩郡瑞穂町大字箱根ケ崎1178番地5,1F,長岡公園だれでもトイレ,設備: 車椅子対応,#00cc00,139.337425,35.780783
長谷部緑地だれでもトイレ,東京都 西多摩郡瑞穂町大字長岡長谷部376番地,1F,長谷部緑地だれでもトイレ,"設備: 車椅子対応, オストメイト対応, おむつ交換台",#00cc00,139.326285,35.78575
さくら公園,東京都 西多摩郡瑞穂町箱根ケ崎東松原33番地,1F,さくら公園だれでもトイレ,"設備: 車椅子対応, オストメイト対応, おむつ交換台",#00cc00,139.339468,35.775059
松原中央公園,東京都 西多摩郡瑞穂町箱根ケ崎西松原42番地,1F,松原中央公園トイレ,設備: 車椅子対応,#00cc00,139.333671,35.77225
松原西公園,東京都 西多摩郡瑞穂町箱根ケ崎西松原20番地,1F,松原西公園だれでもトイレ,"設備: 車椅子対応, オストメイト対応, おむつ交換台",#00cc00,139.335814,35.769346
松原ひがし公園,東京都 西多摩郡瑞穂町箱根ケ崎東松原7番地,1F,松原ひがし公園だれでもトイレ,"設備: 車椅子対応, おむつ交換台",#00cc00,139.339756,35.770975
南平ひばり公園,東京都 西多摩郡瑞穂町南平二丁目37番地,1F,南平ひばり公園だれでもトイレ,"設備: 車椅子対応, オストメイト対応, おむつ交換台",#00cc00,139.338396,35.765371
みずほさかえ公園,東京都 西多摩郡瑞穂町むさし野二丁目43番23,1F,みずほさかえ公園だれでもトイレ,"設備: 車椅子対応, オストメイト対応, おむつ交換台",#00cc00,139.337857,35.759172
富士見公園,東京都 西多摩郡瑞穂町むさし野二丁目1番20,1F,富士見公園だれでもトイレ,設備: 車椅子対応,#00cc00,139.341726,35.759637
松山公園,東京都 西多摩郡瑞穂町大字高根642番地4,1F,松山公園だれでもトイレ,"設備: 車椅子対応, オストメイト対応, おむつ交換台",#00cc00,139.349947,35.787135
二本木公園,東京都 西多摩郡瑞穂町大字二本木681番地1,1F,二本木公園だれでもトイレ,"設備: 車椅子対応, おむつ交換台",#00cc00,139.354759,35.791503
富士山公園,東京都 西多摩郡瑞穂町大字駒形富士山376番地4,1F,富士山公園だれでもトイレ,"設備: 車椅子対応, オストメイト対応, おむつ交換台",#00cc00,139.353924,35.782262
高根下公園,東京都 西多摩郡瑞穂町大字高根68番地1,1F,高根下公園だれでもトイレ,"設備: 車椅子対応, オストメイト対応, おむつ交換台",#00cc00,139.36432,35.785046
駒形公園,東京都 西多摩郡瑞穂町大字二本木1316番地1,1F,駒形公園だれでもトイレ,"設備: 車椅子対応, オストメイト対応, おむつ交換台",#00cc00,139.366427,35.790657
吉野橋だれでもトイレ,東京都 西多摩郡瑞穂町大字石畑1804番地,1F,吉野橋だれでもトイレ,"設備: 車椅子対応, おむつ交換台",#00cc00,139.355049,35.768396
石畑防災広場,東京都 西多摩郡瑞穂町大字石畑209番地1号,1F,石畑防災広場だれでもトイレ,"設備: 車椅子対応, オストメイト対応, おむつ交換台",#00cc00,139.355497,35.765831
元狭山広域防災広場,東京都 西多摩郡瑞穂町大字二本木487番地1,1F,元狭山広域防災広場誰でもトイレ,"設備: 車椅子対応, おむつ交換台",#00cc00,139.351478,35.792736
下師岡公園,東京都 西多摩郡瑞穂町長岡二丁目9番地,1F,だれでもトイレ,"設備: 車椅子対応, オストメイト対応, おむつ交換台",#00cc00,139.328264,35.775396
瑞穂町営グランド　,東京都 西多摩郡瑞穂町大字箱根ケ崎2189番地,1F,瑞穂町営グランドだれでもトイレ　,設備: 車椅子対応,#00cc00,139.34871,35.76728
瑞穂町営第２グランド　,東京都 西多摩郡瑞穂町箱根ケ崎西松原3番地1,1F,瑞穂町営第２グランド　だれでもトイレ,"設備: 車椅子対応, オストメイト対応, おむつ交換台",#00cc00,139.335417,35.76749
石畑地区スポーツ広場,東京都 西多摩郡瑞穂町大字石畑1595番地ほか,1F,石畑地区スポーツ広場だれでもトイレ,"設備: 車椅子対応, おむつ交換台",#00cc00,139.358045,35.765285
瑞穂町営少年サッカー場,東京都 西多摩郡瑞穂町大字駒形富士山320番地,1F,瑞穂町営少年サッカー場だれでもトイレ,設備: 車椅子対応,#00cc00,139.351571,35.78127
町営第2庭球場,東京都 西多摩郡瑞穂町箱根ケ崎西松原57番６,1F,町営第２庭球場だれでもトイレ,"設備: 車椅子対応, オストメイト対応, おむつ交換台",#00cc00,139.333013,35.772163
寄り合いハウスいこい,東京都 西多摩郡瑞穂町大字殿ケ谷874番地1,1F,だれでもトイレ,"設備: 車椅子対応, オストメイト対応",#00cc00,139.3611216,35.76621154