name,address,floor,toilet_name,note,color,lng,lat
足立都税事務所,東京都 足立区西新井栄町二丁目8番15号,1F,車椅子使用者対応トイレ,"設備: 車椅子対応, オストメイト対応, おむつ交換台",#00cc00,139.788288,35.778009
足立自動車税事務所,東京都 足立区南花畑五丁目12番1号,3F,車椅子使用者対応トイレ,"ご利用の際職員がご案内しますのでお声掛けください。 | 設備: 車椅子対応, オストメイト対応",#00cc00,139.817134,35.797142
東京武道館 (東京武道館),東京都 足立区綾瀬三丁目20番1号,1F,1階身障者用便所,"設備: 車椅子対応, オストメイト対応, おむつ交換台",#00cc00,139.825328,35.765455
東京武道館 (東京武道館),東京都 足立区綾瀬三丁目20番1号,2F,2階身障者用便所,設備: 車椅子対応,#00cc00,139.825582,35.765363
東京武道館 (東京武道館),東京都 足立区綾瀬三丁目20番1号,3F,3階身障者用便所,設備: 車椅子対応,#00cc00,139.825394,35.766009
東京武道館 (東京武道館),東京都 足立区綾瀬三丁目20番1号,B1F,B1階身障者用便所,設備: 車椅子対応,#00cc00,139.825572,35.765333
都立城東職業能力開発センター,東京都 足立区綾瀬五丁目6番1号,1F,１階だれでもトイレ,"設備: 車椅子対応, オストメイト対応, おむつ交換台",#00cc00,139.824949,35.767273
都立城東職業能力開発センター,東京都 足立区綾瀬五丁目6番1号,1F,１階人材育成プラザだれでもトイレ,"設備: 車椅子対応, オストメイト対応, おむつ交換台",#00cc00,139.824455,35.767352
都立城東職業能力開発センター,東京都 足立区綾瀬五丁目6番1号,2F,２階だれでもトイレ,"設備: 車椅子対応, オストメイト対応, おむつ交換台",#00cc00,139.824588,35.767261
都立城東職業能力開発センター,東京都 足立区綾瀬五丁目6番1号,4F,４階だれでもトイレ,"設備: 車椅子対応, オストメイト対応, おむつ交換台",#00cc00,139.824537,35.767262
舎人公園,東京都 足立区皿沼三丁目33番,1F,10号トイレ,"設備: 車椅子対応, おむつ交換台",#00cc00,139.767826,35.794784
舎人公園,東京都 足立区古千谷二丁目,1F,11号トイレ,"設備: 車椅子対応, オストメイト対応, 大型ベッド",#00cc00,139.77204,35.800631
舎人公園,東京都 足立区古千谷二丁目,1F,12号トイレ,"設備: 車椅子対応, 大型ベッド",#00cc00,139.771196,35.799974
舎人公園,東京都 足立区古千谷二丁目,1F,13号トイレ,"設備: 車椅子対応, おむつ交換台",#00cc00,139.773451,35.799699
舎人公園,東京都 足立区古千谷二丁目,1F,14号トイレ,"設備: 車椅子対応, オストメイト対応, 大型ベッド",#00cc00,139.774574,35.800413
舎人公園,東京都 足立区舎人公園一丁目,1F,15号トイレ,"設備: 車椅子対応, オストメイト対応, おむつ交換台",#00cc00,139.769753,35.799748
舎人公園,東京都 足立区古千谷一丁目,1F,16号トイレ,"設備: 車椅子対応, オストメイト対応, おむつ交換台",#00cc00,139.764611,35.796465
舎人公園,東京都 足立区古千谷一丁目,1F,17号トイレ,"設備: 車椅子対応, オストメイト対応, おむつ交換台",#00cc00,139.774384,35.794919
舎人公園,東京都 足立区舎人公園一丁目,1F,1号トイレ,"設備: 車椅子対応, おむつ交換台",#00cc00,139.768547,35.799497
舎人公園,東京都 足立区舎人公園1番地1号,1F,2号トイレ,"設備: 車椅子対応, おむつ交換台",#00cc00,139.770927,35.795524
舎人公園,東京都 足立区舎人公園1番地1号,1F,3号トイレ,"設備: 車椅子対応, おむつ交換台",#00cc00,139.766832,35.796626
舎人公園,東京都 足立区舎人公園1番地1号,1F,4号トイレ,"設備: 車椅子対応, おむつ交換台",#00cc00,139.769813,35.801426
舎人公園,東京都 足立区舎人公園一丁目,1F,5号トイレ,"設備: 車椅子対応, おむつ交換台",#00cc00,139.769233,35.797803
舎人公園,東京都 足立区古千谷一丁目,1F,6号トイレ,"設備: 車椅子対応, おむつ交換台",#00cc00,139.77184,35.798241
舎人公園,東京都 足立区古千谷二丁目,1F,7号トイレ,"設備: 車椅子対応, おむつ交換台",#00cc00,139.774699,35.798927
舎人公園,東京都 足立区西伊興三丁目16番,1F,8号トイレ,"設備: 車椅子対応, おむつ交換台",#00cc00,139.775658,35.798419
舎人公園,東京都 足立区古千谷一丁目,1F,9号トイレ（女性用）,設備: 車椅子対応,#00cc00,139.773296,35.796122
舎人公園,東京都 足立区古千谷一丁目,1F,9号トイレ（男性用）,設備: 車椅子対応,#00cc00,139.773293,35.796158
舎人公園,東京都 足立区古千谷一丁目,1F,BBQ場,"設備: 車椅子対応, オストメイト対応, おむつ交換台",#00cc00,139.770558,35.795269
舎人公園,東京都 足立区舎人公園一丁目,1F,サービスセンター内トイレ,"設備: 車椅子対応, おむつ交換台",#00cc00,139.768433,35.797023
舎人公園,東京都 足立区古千谷二丁目,1F,売店,"設備: オストメイト対応, おむつ交換台",#00cc00,139.773746,35.801123
舎人公園,東京都 足立区舎人公園一丁目,1F,陸上競技場１階,設備: 車椅子対応,#00cc00,139.768312,35.800639
舎人公園,東京都 足立区舎人公園一丁目,2F,陸上競技場２階,設備: 車椅子対応,#00cc00,139.768312,35.800639
舎人公園,東京都 足立区西伊興一丁目,1F,冒険の丘管理棟便所,"設備: 車椅子対応, オストメイト対応, 大型ベッド",#00cc00,139.774385,35.794941
舎人公園,東京都 足立区西伊興一丁目,1F,18号トイレ,"設備: 車椅子対応, オストメイト対応, おむつ交換台",#00cc00,139.771975,35.793024
東綾瀬公園,東京都 足立区東綾瀬三丁目4番,1F,A地区１号トイレ,"設備: 車椅子対応, おむつ交換台",#00cc00,139.832615,35.770142
東綾瀬公園,東京都 足立区東綾瀬三丁目4番,1F,D地区防災トイレ,"設備: 車椅子対応, オストメイト対応, おむつ交換台",#00cc00,139.825335,35.768353
東綾瀬公園,東京都 足立区東綾瀬三丁目4番,1F,F地区３号トイレ,"設備: 車椅子対応, おむつ交換台",#00cc00,139.832305,35.766953
東綾瀬公園,東京都 足立区東綾瀬三丁目4番,1F,F地区４号トイレ,"設備: 車椅子対応, おむつ交換台",#00cc00,139.82721,35.770625
東綾瀬公園,東京都 足立区東綾瀬三丁目4番,1F,K地区５号トイレ,"設備: 車椅子対応, おむつ交換台",#00cc00,139.825339,35.768343
東綾瀬公園,東京都 足立区東綾瀬三丁目4番,1F,綾瀬駅前公衆便所ファイブべインズ,設備: 車椅子対応,#00cc00,139.82752,35.76276
東綾瀬公園,東京都 足立区東綾瀬三丁目4番,1F,A地区2号トイレ,"設備: 車椅子対応, オストメイト対応, おむつ交換台",#00cc00,139.833952,35.770669
中川公園,東京都 足立区中川五丁目2番,1F,B地区Eトイレ,"設備: 車椅子対応, おむつ交換台",#00cc00,139.852001,35.772447
中川公園,東京都 足立区中川五丁目1番,1F,管理事務所前Aトイレ,設備: 車椅子対応,#00cc00,139.845383,35.774988
日暮里・舎人ライナー足立小台駅,東京都 足立区小台一丁目20番1号,2F,だれでもトイレ,"設備: 車椅子対応, オストメイト対応, おむつ交換台",#00cc00,139.770365,35.754577
日暮里・舎人ライナー扇大橋駅,東京都 足立区扇二丁目25番17号,2F,だれでもトイレ,"設備: 車椅子対応, オストメイト対応, おむつ交換台",#00cc00,139.770829,35.763903
日暮里・舎人ライナー高野駅,東京都 足立区扇二丁目45番1号,2F,だれでもトイレ,"設備: 車椅子対応, オストメイト対応, おむつ交換台",#00cc00,139.770644,35.76838
日暮里・舎人ライナー江北駅,東京都 足立区江北四丁目30番27号,2F,だれでもトイレ,"設備: 車椅子対応, オストメイト対応, おむつ交換台",#00cc00,139.770261,35.773851
日暮里・舎人ライナー西新井大師西駅,東京都 足立区江北六丁目30番23号,2F,だれでもトイレ,"設備: 車椅子対応, オストメイト対応, おむつ交換台",#00cc00,139.770108,35.781478
日暮里・舎人ライナー谷在家駅,東京都 足立区谷在家三丁目20番23号,2F,だれでもトイレ,"設備: 車椅子対応, オストメイト対応, おむつ交換台",#00cc00,139.770108,35.788762
日暮里・舎人ライナー舎人駅,東京都 足立区舎人一丁目16番15号,2F,だれでもトイレ,"設備: 車椅子対応, オストメイト対応, おむつ交換台",#00cc00,139.770133,35.805625
日暮里・舎人ライナー舎人公園駅,東京都 足立区舎人公園1番地10号,2F,だれでもトイレ,"設備: 車椅子対応, オストメイト対応, おむつ交換台",#00cc00,139.770164,35.796398
日暮里・舎人ライナー見沼代親水公園駅,東京都 足立区舎人二丁目21番13号,2F,だれでもトイレ,"設備: 車椅子対応, オストメイト対応, おむつ交換台",#00cc00,139.7707,35.814444
東京都水道局足立営業所,東京都 足立区中央本町三丁目8番2号,1F,車椅子使用者対応トイレ,設備: 車椅子対応,#00cc00,139.807747,35.771961
千住消防署,東京都 足立区千住中居町9番地14号,1F,多目的トイレ,設備: 車椅子対応,#00cc00,139.798688,35.748899
西新井消防署舎人出張所,東京都 足立区舎人二丁目18番12号,2F,だれでもトイレ,"設備: 車椅子対応, オストメイト対応, おむつ交換台",#00cc00,139.770434,35.81161
少年運動場,東京都 足立区小台一丁目22番地先,1F,１階バリアフリートイレ,11月から2月までの利用時間は午前8時から午後4時まで。 | 設備: 車椅子対応,#00cc00,139.776659,35.755525
西新井橋野球場,東京都 足立区千住元町36番7番地先,1F,1階バリアフリートイレ,11月から2月までの利用時間は午前8時から午後4時まで | 設備: 車椅子対応,#00cc00,139.791347,35.757275
足立区役所,東京都 足立区中央本町一丁目17番1号,1F,足立区役所前ロータリートイレ,設備: 車椅子対応,#00cc00,139.803991,35.774954
足立区役所,東京都 足立区中央本町一丁目17番1号,1F,中央館1階車椅子使用者対応トイレ,"設備: 車椅子対応, オストメイト対応, 大型ベッド",#00cc00,139.804741,35.775014
足立区役所,東京都 足立区中央本町一丁目17番1号,1F,北館1階　車椅子使用者対応トイレ,"設備: 車椅子対応, 大型ベッド",#00cc00,139.804223,35.775554
足立区役所,東京都 足立区中央本町一丁目17番1号,2F,北館2階　車椅子使用者対応トイレ,"設備: 車椅子対応, オストメイト対応, おむつ交換台",#00cc00,139.804223,35.775554
足立区役所,東京都 足立区中央本町一丁目17番1号,3F,北館3階　車椅子使用者対応トイレ,"設備: 車椅子対応, おむつ交換台",#00cc00,139.804223,35.775554
足立区役所,東京都 足立区中央本町一丁目17番1号,4F,北館4階　車椅子使用者対応トイレ,"設備: 車椅子対応, おむつ交換台",#00cc00,139.804223,35.775554
足立区役所,東京都 足立区中央本町一丁目17番1号,3F,中央館3階　車椅子使用者対応トイレ,"設備: 車椅子対応, おむつ交換台",#00cc00,139.804001,35.774817
足立区役所,東京都 足立区中央本町一丁目17番1号,1F,南館1階　車椅子使用者対応トイレ,"設備: 車椅子対応, おむつ交換台",#00cc00,139.804551,35.774658
足立区役所,東京都 足立区中央本町一丁目17番1号,2F,南館2階　車椅子使用者対応トイレ,"設備: 車椅子対応, おむつ交換台",#00cc00,139.804551,35.774658
足立区役所,東京都 足立区中央本町一丁目17番1号,3F,南館3階　車椅子使用者対応トイレ,"設備: 車椅子対応, おむつ交換台",#00cc00,139.804551,35.774658
足立区役所,東京都 足立区中央本町一丁目17番1号,4F,南館４階　車いすトイレ,設備: 車椅子対応,#00cc00,139.804582,35.774681
足立区役所,東京都 足立区中央本町一丁目17番1号,5F,南館５階　車いすトイレ,設備: 車椅子対応,#00cc00,139.804582,35.774681
足立区役所,東京都 足立区中央本町一丁目17番1号,6F,南館６階　車いすトイレ,設備: 車椅子対応,#00cc00,139.804582,35.774681
足立区役所,東京都 足立区中央本町一丁目17番1号,8F,南館８階　車いすトイレ,設備: 車椅子対応,#00cc00,139.804582,35.774681
足立区役所,東京都 足立区中央本町一丁目17番1号,9F,南館９階　車いすトイレ,設備: 車椅子対応,#00cc00,139.804582,35.774681
足立区役所,東京都 足立区中央本町一丁目17番1号,10F,南館１０階　車いすトイレ,設備: 車椅子対応,#00cc00,139.804582,35.774681
足立区役所,東京都 足立区中央本町一丁目17番1号,11F,南館１１階　車いすトイレ,設備: 車椅子対応,#00cc00,139.804582,35.774681
足立区役所,東京都 足立区中央本町一丁目17番1号,12F,南館１２階　車いすトイレ,設備: 車椅子対応,#00cc00,139.804582,35.774681
足立区役所,東京都 足立区中央本町一丁目17番1号,13F,南館13階 車椅子使用者対応トイレ,設備: 車椅子対応,#00cc00,139.804549,35.774781
足立区役所,東京都 足立区中央本町一丁目17番1号,14F,南館１４階　車椅子使用者対応トイレ,"設備: 車椅子対応, おむつ交換台",#00cc00,139.804582,35.774681
足立区役所,東京都 足立区中央本町一丁目17番1号,4F,中央館４階　車いすトイレ,設備: 車椅子対応,#00cc00,139.804356,35.77488
足立区役所,東京都 足立区中央本町一丁目17番1号,5F,中央館５階　車いすトイレ,設備: 車椅子対応,#00cc00,139.804356,35.77488
足立区役所,東京都 足立区中央本町一丁目17番1号,6F,中央館６階　車いすトイレ,設備: 車椅子対応,#00cc00,139.804356,35.77488
足立区役所,東京都 足立区中央本町一丁目17番1号,7F,中央館７階　車いすトイレ,設備: 車椅子対応,#00cc00,139.804356,35.77488
足立区役所,東京都 足立区中央本町一丁目17番1号,8F,中央館８階　車いすトイレ,設備: 車椅子対応,#00cc00,139.804356,35.77488
足立区役所,東京都 足立区中央本町一丁目17番1号,B2F,南館地下２階　車いすトイレ,設備: 車椅子対応,#00cc00,139.804582,35.774681
足立区役所,東京都 足立区梅島二丁目２番２号,1F,別館　１階　バリアフリートイレ,"設備: 車椅子対応, オストメイト対応, おむつ交換台",#00cc00,139.802974,35.775625
足立区役所千住庁舎 (千住庁舎),東京都 足立区千住仲町19番地3号,1F,千住庁舎　１階　車椅子使用者対応トイレ,設備: 車椅子対応,#00cc00,139.801592,35.746244
足立区役所千住庁舎 (千住庁舎),東京都 足立区千住仲町19番地3号,2F,千住庁舎　２階　車椅子使用者対応トイレ,"設備: 車椅子対応, オストメイト対応",#00cc00,139.801592,35.746244
綾瀬障がい福祉施設 (綾瀬障がい福祉施設),東京都 足立区東綾瀬一丁目26番2号,1F,１階車椅子者対応トイレ,"設備: 車椅子対応, オストメイト対応",#00cc00,139.831313,35.765852
綾瀬障がい福祉施設 (綾瀬障がい福祉施設),東京都 足立区東綾瀬一丁目26番2号,1F,１階車椅子者対応トイレ,"設備: 車椅子対応, オストメイト対応",#00cc00,139.831236,35.765852
足立区足立福祉事務所 (足立福祉事務所),東京都 足立区中央本町四丁目5番2号,2F,2階車椅子使用者対応トイレ,"設備: 車椅子対応, オストメイト対応, 大型ベッド",#00cc00,139.805812,35.77711
足立区足立福祉事務所 (足立福祉事務所),東京都 足立区中央本町四丁目5番2号,3F,3階車椅子使用者対応トイレ,"設備: 車椅子対応, オストメイト対応, 大型ベッド",#00cc00,139.805812,35.77711
足立区中川区民事務所,東京都 足立区中川四丁目43番4号,1F,1階車椅子使用者対応便所,"設備: 車椅子対応, オストメイト対応, 大型ベッド, おむつ交換台",#00cc00,139.850084,35.77178
足立区中川区民事務所,東京都 足立区中川四丁目43番4号,2F,2階車椅子使用者対応便所,"設備: 車椅子対応, オストメイト対応, 大型ベッド, おむつ交換台",#00cc00,139.850136,35.771735
足立区中川区民事務所,東京都 足立区中川四丁目43番4号,3F,3階車椅子使用者対応便所,"設備: 車椅子対応, オストメイト対応, 大型ベッド, おむつ交換台",#00cc00,139.850084,35.77178
足立区こども支援センターげんき,東京都 足立区梅島三丁目28番8号,1F,車椅子使用者対応トイレ,"乳幼児用おむつ交換台等は、長さ１５０cm×横幅６０cmの折りたたみシート（柵はなし）。乳幼児用イスについては、生後5ヶ月から2歳半位まで使用可能 | 設備: 車椅子対応, オストメイト対応, 大型ベッド, おむつ交換台",#00cc00,139.792662,35.775552
足立区こども支援センターげんき,東京都 足立区梅島三丁目28番8号,3F,車椅子使用者対応トイレ,設備: 車椅子対応,#00cc00,139.792684,35.775601
東綾瀬区民事務所,東京都 足立区東綾瀬二丁目３番２１号,1F,車椅子使用者対応トイレ,"設備: 車椅子対応, オストメイト対応, おむつ交換台",#00cc00,139.830041,35.767656
六木住区センター,東京都 足立区六木三丁目39番5号101,1F,１階車椅子使用者対応トイレ,,#00cc00,139.840191,35.799844
渕江住区センター分館,東京都 足立区西保木間三丁目14番16号101,1F,バリアフリー（車椅子使用者対応）トイレ,"設備: 車椅子対応, オストメイト対応, おむつ交換台",#00cc00,139.800315,35.804335
東和住区センター,東京都 足立区東和三丁目12番9号,1F,車椅子使用者対応トイレ,"設備: 車椅子対応, オストメイト対応, 大型ベッド",#00cc00,139.83962,35.771161
伊興住区センター,東京都 足立区伊興五丁目22番13号,1F,1階階段横車椅子使用者対応トイレ,設備: 車椅子対応,#00cc00,139.780029,35.798192
舎人住区センター,東京都 足立区舎人一丁目3番26号,1F,1階南側車椅子使用者対応トイレ,"設備: 車椅子対応, オストメイト対応, おむつ交換台",#00cc00,139.773151,35.806008
南花畑住区センター,東京都 足立区南花畑三丁目14番7号,1F,車椅子使用者対応トイレ,設備: 車椅子対応,#00cc00,139.824806,35.790519
綾瀬住区センター,東京都 足立区綾瀬三丁目17番9号,1F,１階車椅子使用者対応トイレ,"設備: 車椅子対応, オストメイト対応, おむつ交換台",#00cc00,139.82458,35.764748
千住本町住区センター,東京都 足立区千住五丁目6番2号,1F,１階車椅子使用者対応トイレ,"設備: 車椅子対応, おむつ交換台",#00cc00,139.803607,35.754741
加平住区センター,東京都 足立区加平一丁目10番6号,1F,１階車椅子使用者対応トイレ,"設備: 車椅子対応, オストメイト対応, おむつ交換台",#00cc00,139.828155,35.775021
江南住区センター,東京都 足立区小台二丁目4番18号,1F,共用廊下トイレ,"設備: 車椅子対応, オストメイト対応, 大型ベッド, おむつ交換台",#00cc00,139.761372,35.758801
江南住区センター,東京都 足立区小台二丁目4番18号,1F,住区センター車椅子使用者対応トイレ,"設備: 車椅子対応, オストメイト対応, 大型ベッド, おむつ交換台",#00cc00,139.761305,35.758721
栗島住区センター,東京都 足立区中央本町四丁目5番2号,1F,車椅子使用者対応トイレ,"設備: 車椅子対応, オストメイト対応, 大型ベッド",#00cc00,139.805804,35.776373
長門住区センター分館,東京都 足立区中川四丁目43番4号,2F,２階車椅子使用者対応トイレ,"設備: 車椅子対応, オストメイト対応, 大型ベッド, おむつ交換台",#00cc00,139.850114,35.771771
長門住区センター分館,東京都 足立区中川四丁目43番4号,3F,３階車椅子使用者対応トイレ,"設備: 車椅子対応, オストメイト対応, 大型ベッド, おむつ交換台",#00cc00,139.850064,35.771775
平野住区センター,東京都 足立区平野二丁目2番14号,1F,車椅子使用者対応トイレ,"設備: 車椅子対応, オストメイト対応",#00cc00,139.804634,35.782236
東綾瀬住区センター,東京都 足立区東綾瀬一丁目28番7号,1F,１階車椅子使用者対応トイレ,"設備: 車椅子対応, オストメイト対応, おむつ交換台",#00cc00,139.832998,35.766138
千住あずま住区センター,東京都 足立区千住東二丁目21番18号,1F,1階車椅子使用者対応トイレ,"設備: 車椅子対応, オストメイト対応, 大型ベッド, おむつ交換台",#00cc00,139.810278,35.745558
千住あずま住区センター,東京都 足立区千住東二丁目21番18号,3F,3階車椅子使用者対応トイレ,"設備: 車椅子対応, オストメイト対応, 大型ベッド, おむつ交換台",#00cc00,139.810287,35.745573
神明住区センター,東京都 足立区神明南二丁目6番19号,1F,１階車椅子使用者対応トイレ,"設備: 車椅子対応, オストメイト対応, おむつ交換台",#00cc00,139.833199,35.787825
千住河原町住区センター,東京都 足立区千住河原町5番地12号,1F,児童館車椅子使用者対応トイレ,"設備: 車椅子対応, オストメイト対応, おむつ交換台",#00cc00,139.795768,35.744557
千住河原町住区センター,東京都 足立区千住河原町6番地4号,1F,悠々館車椅子使用者対応トイレ,設備: 車椅子対応,#00cc00,139.796084,35.744696
西伊興住区センター,東京都 足立区西伊興一丁目12番12号,1F,1階階段横車椅子使用者対応トイレ,"設備: 車椅子対応, オストメイト対応",#00cc00,139.773527,35.790845
本木関原住区センター,東京都 足立区関原一丁目21番11号,1F,車椅子使用者対応トイレ,"設備: 車椅子対応, オストメイト対応",#00cc00,139.787209,35.764731
押皿谷住区センター（西部福祉課を含む）,東京都 足立区鹿浜八丁目27番15号,1F,1階入口横車椅子使用者対応トイレ,設備: 車椅子対応,#00cc00,139.76502,35.789984
押皿谷住区センター（西部福祉課を含む）,東京都 足立区鹿浜八丁目27番15号,2F,2階階段横車椅子使用者対応トイレ,"設備: 車椅子対応, オストメイト対応",#00cc00,139.76502,35.789984
押皿谷住区センター（西部福祉課を含む）,東京都 足立区鹿浜八丁目27番15号,3F,3階階段横車椅子使用者対応トイレ,設備: 車椅子対応,#00cc00,139.76502,35.789984
千住柳町住区センター,東京都 足立区千住柳町12番地5号,1F,1階車椅子使用者対応トイレ,"設備: 車椅子対応, おむつ交換台",#00cc00,139.796218,35.753742
千住柳町住区センター,東京都 足立区千住柳町12番地5号,2F,2階車椅子使用者対応トイレ,"設備: 車椅子対応, おむつ交換台",#00cc00,139.796135,35.753727
桜花住区センター,東京都 足立区花畑六丁目4番16号,1F,車椅子使用者対応トイレ,"設備: 車椅子対応, オストメイト対応, 大型ベッド",#00cc00,139.816929,35.804882
足立区鹿浜いきいき館,東京都 足立区鹿浜二丁目24番2号,1F,1階車椅子使用者対応トイレ,"設備: 車椅子対応, オストメイト対応, 大型ベッド",#00cc00,139.749094,35.780544
大谷田谷中住区センター,東京都 足立区大谷田四丁目16番6号,1F,車椅子使用者対応トイレ,"設備: 車椅子対応, オストメイト対応, おむつ交換台",#00cc00,139.838461,35.780824
西新井本町住区センター,東京都 足立区西新井本町2-30-37,1F,車椅子使用者対応トイレ,設備: 車椅子対応,#00cc00,139.77141,35.776549
西新井栄町住区センター,東京都 足立区西新井栄町3-1-6-101,1F,車椅子使用者対応トイレ,"設備: 車椅子対応, オストメイト対応",#00cc00,139.783789,35.774851
興本住区センター,東京都 足立区本木東町17-10,1F,車椅子使用者対応トイレ,"設備: 車椅子対応, オストメイト対応",#00cc00,139.781118,35.767462
保塚住区センター,東京都 足立区保塚町7-16,1F,車椅子使用者対応トイレ,"設備: 車椅子対応, おむつ交換台",#00cc00,139.816178,35.786638
入谷住区センター,東京都 足立区舎人六丁目12番4-101号,1F,バリアフリー（車椅子使用者対応）トイレ,"設備: 車椅子対応, オストメイト対応, おむつ交換台",#00cc00,139.761986,35.811422
西新井センター,東京都 足立区西新井一丁目4番17号,1F,バリアフリートイレ,"設備: 車椅子対応, オストメイト対応, 大型ベッド",#00cc00,139.780597,35.778717
西新井センター,東京都 足立区西新井一丁目4番17号,2F,バリアフリートイレ,"設備: 車椅子対応, オストメイト対応, 大型ベッド",#00cc00,139.780597,35.778717
西新井センター,東京都 足立区西新井一丁目4番17号,3F,バリアフリートイレ,"設備: 車椅子対応, オストメイト対応, 大型ベッド",#00cc00,139.780597,35.778717
足立区悠々会館,東京都 足立区西保木間四丁目9番1号,1F,バリアフリートイレ,"設備: 車椅子対応, オストメイト対応, 大型ベッド",#00cc00,139.796641,35.803399
足立保健所東部保健センター (足立保健所東部保健センター),東京都 足立区大谷田三丁目11番13号,1F,車椅子使用者対応トイレ,"保健センターの休業日は使用できません。また、日曜・祝日は休日応急診療所となるため使用できません。 | 設備: 車椅子対応, オストメイト対応, 大型ベッド, おむつ交換台",#00cc00,139.842351,35.779774
足立区　足立保健所江北保健センター (江北保健センター),東京都 足立区西新井本町二丁目30番40号,1F,車椅子使用者対応トイレ,"設備: 車椅子対応, オストメイト対応",#00cc00,139.771544,35.776024
足立保健所竹の塚保健センター (エミエルタワー竹の塚2階),東京都 足立区西竹の塚一丁目11番2号,2F,車椅子使用者対応トイレ１,"このトイレには乳児用おむつ交換台が設置されていますが、アングルの関係でそれを写り込ませる事はできませんでしたので、ご了承願います。 | 設備: オストメイト対応, おむつ交換台",#00cc00,139.789583,35.793089
足立保健所竹の塚保健センター (エミエルタワー竹の塚2階),東京都 足立区西竹の塚一丁目11番2号,2F,車椅子使用者対応トイレ２,"設備: 車椅子対応, おむつ交換台",#00cc00,139.789687,35.793513
足立保健所竹の塚保健センター (エミエルタワー竹の塚2階),東京都 足立区西竹の塚一丁目11番2号,2F,車椅子使用者対応トイレ３,"このトイレは当センター内に併設されている「竹の塚休日応急診療所」「竹の塚休日応急歯科診療所」のトイレです。両診療所は日曜祝日年末年始(12月29日〜1月3日）の１０：００から１２：００、１３：００から１６：００、１７：００から２１：３０の時間帯で開設されます(ただし、診察受付時間は終了時刻の30分前まで）。したがってトイレの利用可能時間も各々の時間帯となります。 | 設備: 車椅子対応, おむつ交換台",#00cc00,139.789902,35.793446
足立区役所千住庁舎 (千住庁舎),東京都 足立区千住仲町19番地3号,3F,千住庁舎　3階　車椅子使用者対応トイレ,設備: 車椅子対応,#00cc00,139.801647,35.746279
足立区役所千住庁舎 (千住庁舎),東京都 足立区千住仲町19番地3号,4F,千住庁舎　4階　車椅子使用者対応トイレ,設備: 車椅子対応,#00cc00,139.801647,35.746279
足立保健所 (足立保健所),東京都 足立区中央本町一丁目5番3号,1F,足立保健所一階車椅子使用者対応トイレ,"便座背もたれ、大型ベット、おむつ交換台はない | 設備: 車椅子対応, オストメイト対応",#00cc00,139.80371,35.771013
足立区立中央図書館 (学びピア21),東京都 足立区千住五丁目13番5号,2F,2階車椅子使用者対応トイレ,"設備: 車椅子対応, おむつ交換台",#00cc00,139.802562,35.756469
足立区立中央図書館 (学びピア21),東京都 足立区千住五丁目13番5号,3F,3階車椅子使用者対応トイレ,"設備: 車椅子対応, おむつ交換台",#00cc00,139.802533,35.756445
足立区立梅田図書館 (梅田図書館),東京都 足立区梅田七丁目13番1号,1F,１階車椅子使用者対応トイレ,設備: 車椅子対応,#00cc00,139.800801,35.768414
足立区立郷土博物館 (足立区立郷土博物館),東京都 足立区大谷田五丁目20番1号,1F,みんなのトイレ,"改修工事中。R7年４月リニューアルオープン予定 | 設備: 車椅子対応, オストメイト対応, おむつ交換台",#00cc00,139.841539,35.784524
足立区立伊興遺跡公園展示館,東京都 足立区東伊興四丁目9番1号,1F,伊興遺跡公園展示館車椅子使用者対応トイレ,"その他、教育委員会で定めた日は利用不可 | 設備: 車椅子対応, オストメイト対応",#00cc00,139.786375,35.804406
足立区生涯学習センター (足立区生涯学習総合施設（愛称：学びピア２１）),東京都 足立区千住五丁目13番5号,1F,1階車椅子使用者対応トイレ,"背もたれは便器ふたを立てて代用 | 設備: 車椅子対応, おむつ交換台",#00cc00,139.802396,35.75633
足立区生涯学習センター (足立区生涯学習総合施設（愛称：学びピア２１）),東京都 足立区千住五丁目13番5号,2F,2階車椅子使用者対応トイレ,"背もたれは便器ふたを立てて代用 | 設備: 車椅子対応, おむつ交換台",#00cc00,139.802433,35.75667
足立区生涯学習センター (足立区生涯学習総合施設（愛称：学びピア２１）),東京都 足立区千住五丁目13番5号,3F,3階車椅子使用者対応トイレ,"背もたれは便器ふたを立てて代用 | 設備: 車椅子対応, おむつ交換台",#00cc00,139.802377,35.75667
足立区生涯学習センター (足立区生涯学習総合施設（愛称：学びピア２１）),東京都 足立区千住五丁目13番5号,4F,4階車椅子使用者対応トイレ,"背もたれは便器ふたを立てて代用 | 設備: 車椅子対応, おむつ交換台",#00cc00,139.802297,35.75637
足立区生涯学習センター (足立区生涯学習総合施設（愛称：学びピア２１）),東京都 足立区千住五丁目13番5号,4F,4階車椅子使用者対応トイレ（講堂）,"背もたれは便器ふたを立てて代用、講堂利用者のみが使用 | 設備: 車椅子対応, おむつ交換台",#00cc00,139.802687,35.75648
足立区生涯学習センター (足立区生涯学習総合施設（愛称：学びピア２１）),東京都 足立区千住五丁目13番5号,5F,5階車椅子使用者対応トイレ,"背もたれは便器ふたを立てて代用 | 設備: 車椅子対応, おむつ交換台",#00cc00,139.802347,35.75643
足立区生涯学習センター (足立区生涯学習総合施設（愛称：学びピア２１）),東京都 足立区千住五丁目13番5号,6F,6階車椅子使用者対応トイレ,"背もたれは便器ふたを立てて代用 | 設備: 車椅子対応, おむつ交換台",#00cc00,139.802347,35.75643
足立区生涯学習センター (足立区生涯学習総合施設（愛称：学びピア２１）),東京都 足立区千住五丁目13番5号,7F,7階車椅子使用者対応トイレ,"背もたれは便器ふたを立てて代用 | 設備: 車椅子対応, おむつ交換台",#00cc00,139.802377,35.75649
足立区伊興地域学習センター,東京都 足立区伊興二丁目4番22号,1F,1階車椅子使用者対応トイレ,"毎月第3月曜日は休館のため使用不可（祝日にあたる場合は翌日が休館となる。） | 設備: 車椅子対応, オストメイト対応, おむつ交換台",#00cc00,139.780976,35.79127
足立区伊興地域学習センター,東京都 足立区伊興二丁目4番22号,2F,2階車椅子使用者対応トイレ,"毎月第3月曜日は休館のため使用不可（祝日にあたる場合は翌日が休館となる） | 設備: 車椅子対応, オストメイト対応, おむつ交換台",#00cc00,139.780976,35.79127
足立区梅田地域学習センター (足立区梅田センター（愛称：Ｌ・ソフィア）),東京都 足立区梅田七丁目33番1号,1F,1階車椅子使用者対応トイレ,"9月第3日曜日、3月第3日曜日は全館休館のため使用不可。 | 設備: 車椅子対応, おむつ交換台",#00cc00,139.798306,35.77058
足立区立興本地域学習センター,東京都 足立区興野一丁目18番38号,1F,体育館1階車椅子使用者対応トイレ,"毎月第3月曜日は休館のため使用不可（祝日にあたる場合は翌日が休館となる） | 設備: 車椅子対応, オストメイト対応, おむつ交換台",#00cc00,139.783246,35.76838
足立区立興本地域学習センター,東京都 足立区興野一丁目18番38号,1F,本館1階車椅子使用者対応トイレ,"毎月第3月曜日は休館のため使用不可（祝日にあたる場合は翌日が休館となる） | 設備: 車椅子対応, オストメイト対応, おむつ交換台",#00cc00,139.782495,35.76836
足立区立興本地域学習センター,東京都 足立区興野一丁目18番38号,2F,本館2階車椅子使用者対応トイレ,"毎月第3月曜日は休館のため使用不可（祝日にあたる場合は翌日が休館となる） | 設備: 車椅子対応, オストメイト対応, おむつ交換台",#00cc00,139.782495,35.76836
足立区江北地域学習センター,東京都 足立区江北三丁目39番4号,1F,1階車椅子使用者対応トイレ,"5月第3日曜日、11月第3日曜日は全館休館のため使用不可。 | 設備: 車椅子対応, オストメイト対応, 大型ベッド",#00cc00,139.760134,35.77594
足立区江北地域学習センター,東京都 足立区江北三丁目39番4号,2F,2階車椅子使用者対応トイレ,"毎月第3月曜日は休館のため使用不可（祝日にあたる場合は翌日が休館となる。5、11月のみ第3日曜） | 設備: 車椅子対応, オストメイト対応, おむつ交換台",#00cc00,139.760289,35.77577
足立区佐野地域学習センター,東京都 足立区佐野二丁目43番5号,2F,2階車椅子使用者対応トイレ,"毎月第2月曜日は休館のため使用不可（祝日にあたる場合は翌日が休館となる。5、11月のみ第2日曜） | 設備: 車椅子対応, オストメイト対応, 大型ベッド, おむつ交換台",#00cc00,139.840316,35.78818
足立区鹿浜地域学習センター (足立区鹿浜センター),東京都 足立区鹿浜六丁目8番1号,1F,1階車椅子使用者対応トイレ,"鹿浜センター休館日のみ午前8時30分〜午後6時まで利用可能 | 設備: 車椅子対応, オストメイト対応, 大型ベッド",#00cc00,139.758271,35.784055
足立区鹿浜地域学習センター (足立区鹿浜センター),東京都 足立区鹿浜六丁目8番1号,2F,2階車椅子使用者対応トイレ,"鹿浜センター休館日のみ午前8時30分〜午後6時まで利用可能 | 設備: 車椅子対応, オストメイト対応",#00cc00,139.75816,35.784204
足立区新田地域学習センター (足立区新田センター),東京都 足立区新田二丁目2番2号,1F,1階車椅子使用者対応トイレ,"毎月第2月曜日は休館のため使用不可（祝日にあたる場合は翌日が休館となる。9、3月のみ第2日曜） | 設備: 車椅子対応, おむつ交換台",#00cc00,139.737974,35.77142
足立区竹の塚地域学習センター (足立区竹の塚センター),東京都 足立区竹の塚二丁目25番17号,1F,1階車椅子使用者対応トイレ,"5月第2日曜日、11月第2日曜日は全館休館のため使用不可。また、12月28日および1月4日は18:00で閉館。 | 設備: 車椅子対応, オストメイト対応, おむつ交換台",#00cc00,139.794543,35.79266
足立区竹の塚地域学習センター (足立区竹の塚センター),東京都 足立区竹の塚二丁目25番17号,2F,2階車椅子使用者対応トイレ,"土曜日、日曜日は休館のため使用不可。また、12月28日および1月4日は18:00で閉館。 | 設備: 車椅子対応, オストメイト対応, おむつ交換台",#00cc00,139.794842,35.7926
足立区竹の塚地域学習センター (足立区竹の塚センター),東京都 足立区竹の塚二丁目25番17号,3F,3階車椅子使用者対応トイレ,"毎月第2月曜日は休館のため使用不可（祝日にあたる場合は翌日が休館となる。5、11月のみ第2日曜）また、12月28日および1月4日は18:00で閉館。 | 設備: 車椅子対応, おむつ交換台",#00cc00,139.794842,35.7926
足立区竹の塚地域学習センター (足立区竹の塚センター),東京都 足立区竹の塚二丁目25番17号,4F,4階車椅子使用者対応トイレ,"4階はホールであるため、ホール利用者がいる場合のみ、ホール利用者に対して解放。利用がない場合、4階への立ち入りは不可。毎月第2月曜日は休館のため使用不可（祝日にあたる場合は翌日が休館となる。5、11月のみ第2日曜）また、12月28日および1月4日は18:00で閉館。 | 設備: 車椅子対応, おむつ交換台",#00cc00,139.794875,35.792644
足立区中央本町地域学習センター (足立区中央本町センター),東京都 足立区中央本町三丁目15番1号,1F,1階車椅子使用者対応トイレ,"R5.9.1〜R7.3月まで工事休館のため変更の可能性あり。毎月第2月曜日は休館のため使用不可（祝日にあたる場合は翌日が休館となる。5、10月のみ第2日曜） | 設備: 車椅子対応, 大型ベッド, おむつ交換台",#00cc00,139.809697,35.77219
足立区中央本町地域学習センター (足立区中央本町センター),東京都 足立区中央本町三丁目15番1号,2F,2階車椅子使用者対応トイレ,"R5.9.1〜R7.3月まで工事休館のため変更の可能性あり。毎月第2月曜日は休館のため使用不可（祝日にあたる場合は翌日が休館となる。5、10月のみ第2日曜） | 設備: 車椅子対応, おむつ交換台",#00cc00,139.809614,35.77221
足立区中央本町地域学習センター (足立区中央本町センター),東京都 足立区中央本町三丁目15番1号,3F,3階車椅子使用者対応トイレ,"R5.9.1〜R7.3月まで工事休館のため変更の可能性あり。毎月第2月曜日、月末の館内整理日は休館のため使用不可（祝日にあたる場合は翌日が休館となる。5、10月のみ第2日曜） | 設備: 車椅子対応, おむつ交換台",#00cc00,139.809614,35.77221
足立区東和地域学習センター (足立区東和センター),東京都 足立区東和三丁目12番9号,2F,2階車椅子使用者対応トイレ1,"毎月第3月曜日は休館のため使用不可（祝日にあたる場合は翌日が休館となる。5、12月のみ第3日曜） | 設備: 車椅子対応, オストメイト対応, 大型ベッド, おむつ交換台",#00cc00,139.839527,35.77128
足立区東和地域学習センター (足立区東和センター),東京都 足立区東和三丁目12番9号,2F,2階車椅子使用者対応トイレ2,"毎月第3月曜日、月末の館内整理日は休館のため使用不可（祝日にあたる場合は翌日が休館となる。5、12月のみ第3日曜） | 設備: 車椅子対応, オストメイト対応, 大型ベッド, おむつ交換台",#00cc00,139.839673,35.77107
足立区東和地域学習センター (足立区東和センター),東京都 足立区東和三丁目12番9号,3F,3階車椅子使用者対応トイレ,"毎月第3月曜日は休館のため使用不可（祝日にあたる場合は翌日が休館となる。5、12月のみ第3日曜） | 設備: 車椅子対応, オストメイト対応, 大型ベッド, おむつ交換台",#00cc00,139.83948,35.77139
足立区東和地域学習センター (足立区東和センター),東京都 足立区東和三丁目12番9号,1F,1階車椅子使用者対応トイレ,"毎月第3月曜日は休館のため使用不可（祝日にあたる場合は翌日が休館となる。5、12月のみ第3日曜） | 設備: 車椅子対応, オストメイト対応, 大型ベッド, おむつ交換台",#00cc00,139.839602,35.771139
足立区舎人地域学習センター (足立区舎人センター),東京都 足立区舎人一丁目3番26号,2F,2階車椅子使用者対応トイレ,"毎月第3月曜日は休館のため使用不可（祝日にあたる場合は翌日が休館となる。5、11月のみ第3日曜） | 設備: 車椅子対応, おむつ交換台",#00cc00,139.773199,35.80613
足立区舎人地域学習センター (足立区舎人センター),東京都 足立区舎人一丁目3番26号,3F,3階車椅子使用者対応トイレ,"毎月第3月曜日は休館のため使用不可（祝日にあたる場合は翌日が休館となる。5、11月のみ第3日曜） | 設備: 車椅子対応, おむつ交換台",#00cc00,139.773199,35.80613
足立区花畑地域学習センター (足立区花畑センター),東京都 足立区花畑四丁目16番8号,1F,1階車椅子使用者対応トイレ,"毎月第3月曜日は休館のため使用不可（祝日にあたる場合は翌日が休館となる。4月は第3月曜日の直前の日曜、10月は第2または3月曜日の直前の日曜） | 設備: 車椅子対応, おむつ交換台",#00cc00,139.807313,35.80282
足立区花畑地域学習センター (足立区花畑センター),東京都 足立区花畑四丁目16番8号,2F,2階車椅子使用者対応トイレ,"毎月第3月曜日は休館のため使用不可（祝日にあたる場合は翌日が休館となる。4月は第3月曜日の直前の日曜、10月は第2または3月曜日の直前の日曜） | 設備: 車椅子対応, おむつ交換台",#00cc00,139.807313,35.80282
足立区花畑地域学習センター (足立区花畑センター),東京都 足立区花畑四丁目16番8号,3F,3階車椅子使用者対応トイレ,"毎月第3月曜日は休館のため使用不可（祝日にあたる場合は翌日が休館となる。4月は第3月曜日の直前の日曜、10月は第2または3月曜日の直前の日曜） | 設備: 車椅子対応, おむつ交換台",#00cc00,139.807313,35.80282
足立区こども未来創造館,東京都 足立区栗原一丁目3番1号,1F,1階こども未来創造館車椅子使用者対応トイレ,"毎月第2月曜日休館日（※8月を除く。祝日の場合は翌平日に振替）、9月・1月は別途休館日設定あり | 設備: 車椅子対応, オストメイト対応, 大型ベッド, おむつ交換台",#00cc00,139.790443,35.77952
足立区こども未来創造館,東京都 足立区栗原一丁目3番1号,1F,1階子ども未来創造館女性用トイレ内,"毎月第2月曜日休館日（※8月を除く。祝日の場合は翌平日に振替）、9月・1月は別途休館日設定あり | 設備: 車椅子対応, おむつ交換台",#00cc00,139.790398,35.77942
足立区こども未来創造館,東京都 足立区栗原一丁目3番1号,1F,1階子ども未来創造館男性用トイレ内,"毎月第2月曜日休館日（※8月を除く。祝日の場合は翌平日に振替）、9月・1月は別途休館日設定あり | 設備: 車椅子対応, おむつ交換台",#00cc00,139.790436,35.77942
足立区こども未来創造館,東京都 足立区栗原一丁目3番1号,2F,2階こども未来創造館車椅子使用者対応トイレ,"毎月第2月曜日休館日（※8月を除く。祝日の場合は翌平日に振替）、9月・1月は別途休館日設定あり | 設備: 車椅子対応, オストメイト対応, 大型ベッド, おむつ交換台",#00cc00,139.790391,35.77946
足立区こども未来創造館,東京都 足立区栗原一丁目3番1号,3F,3階こども未来創造館車椅子使用者対応トイレ,"毎月第2月曜日休館日（※8月を除く。祝日の場合は翌平日に振替）、１・３・９月に連続休館 | 設備: 車椅子対応, オストメイト対応, 大型ベッド",#00cc00,139.790369,35.77945
足立区こども未来創造館,東京都 足立区栗原一丁目3番1号,B2F,B2階こども未来創造館車椅子使用者対応トイレ,"毎月第2月曜日休館日（※8月を除く。祝日の場合は翌平日に振替）、9月・1月は別途休館日設定あり | 設備: 車椅子対応, オストメイト対応, 大型ベッド, おむつ交換台",#00cc00,139.790193,35.77953
足立区西新井文化ホール,東京都 足立区栗原一丁目3番1号,1F,1階西新井文化ホール車椅子使用者対応トイレ,"毎月第2月曜日休館日（※8月を除く。祝日の場合は翌平日に振替）、9月・1月は別途休館日設定あり | 設備: 車椅子対応, オストメイト対応, 大型ベッド, おむつ交換台",#00cc00,139.79061,35.77968
足立区保塚地域学習センター (足立区保塚センター),東京都 足立区保塚町7番16号,1F,車椅子使用者対応トイレ（区民事務所）,"設備: 車椅子対応, オストメイト対応, おむつ交換台",#00cc00,139.816268,35.786914
足立区保塚地域学習センター (足立区保塚センター),東京都 足立区保塚町7番16号,2F,車椅子使用者対応トイレ（学習センター）,"設備: 車椅子対応, オストメイト対応, 大型ベッド",#00cc00,139.816089,35.786646
足立区保塚地域学習センター (足立区保塚センター),東京都 足立区保塚町7番16号,1F,車椅子使用者対応トイレ（住区センター）,"基本毎月第２月曜日休館 | 設備: 車椅子対応, おむつ交換台",#00cc00,139.816178,35.786638
足立区文化芸術劇場,東京都 足立区千住三丁目92番地,10F,足立区文化芸術劇場10階車椅子使用者対応トイレ,"設備: 車椅子対応, オストメイト対応, おむつ交換台",#00cc00,139.804456,35.750553
足立区文化芸術劇場,東京都 足立区千住三丁目92番地,10F,足立区文化芸術劇場10階車椅子使用者対応トイレ,設備: 車椅子対応,#00cc00,139.804877,35.750957
足立区文化芸術劇場,東京都 足立区千住三丁目92番地,11F,足立区文化芸術劇場11階車椅子使用者対応トイレ,設備: 車椅子対応,#00cc00,139.804572,35.751335
足立区文化芸術劇場,東京都 足立区千住三丁目92番地,11F,足立区文化芸術劇場11階車椅子使用者対応トイレ,設備: 車椅子対応,#00cc00,139.804842,35.750863
足立区文化芸術劇場,東京都 足立区千住三丁目92番地,11F,足立区文化芸術劇場11階車椅子使用者対応トイレ,"設備: 車椅子対応, おむつ交換台",#00cc00,139.804498,35.751145
五丁田公園,東京都 足立区大谷田三丁目7番17号,1F,五丁田公園便所,"設備: 車椅子対応, オストメイト対応",#00cc00,139.841427,35.77778
河添公園,東京都 足立区綾瀬二丁目46番1号,1F,河添公園便所,設備: 車椅子対応,#00cc00,139.83076,35.76168
大谷田公園,東京都 足立区大谷田四丁目4番1号,1F,大谷田公園便所,設備: 車椅子対応,#00cc00,139.837815,35.77837
下河原公園（東側）,東京都 足立区東綾瀬一丁目11番12号,1F,下河原公園（東側）便所,設備: 車椅子対応,#00cc00,139.834415,35.763826
大谷田南公園,東京都 足立区中川四丁目42番1号,1F,大谷田南公園便所,12月28日〜1月4日は閉園（だれでもトイレ終日利用不可） | 設備: 車椅子対応,#00cc00,139.848326,35.771786
毛長公園,東京都 足立区花畑五丁目13番1号,1F,毛長公園便所,設備: 車椅子対応,#00cc00,139.810944,35.807688
毛長公園,東京都 足立区花畑五丁目9番,1F,毛長公園便所,"設備: 車椅子対応, オストメイト対応",#00cc00,139.806528,35.808456
仲組公園,東京都 足立区花畑三丁目38番1号,1F,仲組公園便所,設備: 車椅子対応,#00cc00,139.813419,35.805674
鷲宿公園,東京都 足立区花畑七丁目9番1号,1F,鷲宿公園便所,設備: 車椅子対応,#00cc00,139.81968,35.809506
しょうぶ沼公園（西側）,東京都 足立区谷中二丁目4番1号,1F,しょうぶ沼公園（西側）便所,設備: 車椅子対応,#00cc00,139.83036,35.775847
雪見公園,東京都 足立区神明南二丁目17番2号,1F,雪見公園便所,"設備: 車椅子対応, オストメイト対応",#00cc00,139.831733,35.79156
一ツ家第四公園,東京都 足立区一ツ家一丁目26番1号,1F,一ツ家第四公園便所,設備: 車椅子対応,#00cc00,139.810068,35.784171
元渕江公園,東京都 足立区保木間二丁目17番1号,1F,元渕江公園車椅子使用者対応トイレ,"設備: 車椅子対応, オストメイト対応",#00cc00,139.805954,35.792068
足立区生物園,東京都 足立区保木間二丁目17番1号,1F,生物園1階車椅子使用者対応トイレ,"有料施設。月曜休園日（月曜日が祝日及び10月1日のときは、次の平日に振替）、年末年始(12月29日〜1月1日)は使用不可。 | 設備: 車椅子対応, オストメイト対応, おむつ交換台",#00cc00,139.806937,35.792138
一ツ家第一公園（南側）,東京都 足立区一ツ家四丁目16番1号,1F,一ツ家第一公園（南側）便所,設備: 車椅子対応,#00cc00,139.817392,35.780317
青井公園,東京都 足立区青井一丁目11番11号,1F,青井公園便所,"設備: 車椅子対応, オストメイト対応",#00cc00,139.813107,35.774725
平野公園,東京都 足立区平野三丁目15番8号,1F,平野公園便所,設備: 車椅子対応,#00cc00,139.808081,35.784851
前谷公園,東京都 足立区花畑一丁目10番6号,1F,前谷公園便所,設備: 車椅子対応,#00cc00,139.810942,35.800269
栗島公園,東京都 足立区中央本町五丁目21番1号,1F,栗島公園便所,設備: 車椅子対応,#00cc00,139.809964,35.777617
陣川戸公園（南側）,東京都 足立区保木間五丁目17番1号,1F,陣川戸公園（南側）便所,設備: 車椅子対応,#00cc00,139.807604,35.801908
五反野コミュニティ公園,東京都 足立区西綾瀬二丁目1番18号,1F,五反野コミュニティ公園便所,設備: 車椅子対応,#00cc00,139.814846,35.761484
沖谷公園,東京都 足立区谷中四丁目18番15号,1F,沖谷公園便所,設備: 車椅子対応,#00cc00,139.833073,35.780825
花畑公園,東京都 足立区花畑四丁目40番1号,1F,花畑公園車椅子使用者対応トイレ,"設備: 車椅子対応, オストメイト対応",#00cc00,139.807365,35.806228
桜花亭,東京都 足立区花畑四丁目40番1号,1F,桜花亭1階車椅子使用者対応トイレ,"月曜休園日（月曜日が祝日及び10月1日のときは、次の平日に振替）、年末年始(12月29日〜1月1日)は使用不可。 | 設備: 車椅子対応, オストメイト対応, 大型ベッド",#00cc00,139.807468,35.806013
桜花亭,東京都 足立区花畑四丁目40番1号,2F,桜花亭2階車椅子使用者対応トイレ,"月曜休園日（月曜日が祝日及び10月1日のときは、次の平日に振替）、年末年始(12月29日〜1月1日)は使用不可。 | 設備: 車椅子対応, オストメイト対応, 大型ベッド",#00cc00,139.807356,35.805987
青井ふれあい公園,東京都 足立区青井一丁目3番1号,1F,青井ふれあい公園便所,"設備: 車椅子対応, オストメイト対応",#00cc00,139.810849,35.772656
青和コミュニティ公園,東京都 足立区青井三丁目22番1号,1F,青和コミュニティ公園便所,"設備: 車椅子対応, オストメイト対応",#00cc00,139.818484,35.773276
弘道中央公園,東京都 足立区弘道二丁目3番5号,1F,弘道中央公園便所,"設備: 車椅子対応, オストメイト対応",#00cc00,139.81533,35.768523
神明南公園,東京都 足立区神明南一丁目7番20号,1F,神明南公園便所,設備: 車椅子対応,#00cc00,139.830815,35.789107
葛西用水親水水路,東京都 足立区六木四丁目3番地,1F,葛西用水親水水路便所,設備: 車椅子対応,#00cc00,139.839884,35.794401
辰沼二丁目公園,東京都 足立区辰沼二丁目11番20号,1F,辰沼二丁目公園便所,設備: 車椅子対応,#00cc00,139.833481,35.788915
北加平公園,東京都 足立区北加平町16番地4号,1F,北加平公園便所,設備: 車椅子対応,#00cc00,139.829471,35.785353
弘道いこい公園,東京都 足立区弘道一丁目10番1号,1F,弘道いこい公園便所,設備: 車椅子対応,#00cc00,139.811948,35.767328
西綾瀬そよかぜ公園,東京都 足立区西綾瀬三丁目3番1号,1F,西綾瀬そよかぜ公園便所,設備: 車椅子対応,#00cc00,139.816638,35.762055
やよい公園,東京都 足立区中央本町二丁目13番2号,1F,やよい公園便所,設備: 車椅子対応,#00cc00,139.808046,35.770366
佐野一丁目ゆめ公園,東京都 足立区佐野一丁目20番20号,1F,佐野一丁目ゆめ公園便所,"設備: 車椅子対応, オストメイト対応",#00cc00,139.843077,35.786635
綾瀬七丁目丘公園,東京都 足立区綾瀬七丁目15番5号,1F,綾瀬七丁目丘公園便所,設備: 車椅子対応,#00cc00,139.827989,35.773188
花六東公園,東京都 足立区花畑六丁目23番9号,1F,花六東公園便所,"設備: 車椅子対応, オストメイト対応",#00cc00,139.818694,35.805934
神明南ふれあい公園,東京都 足立区神明南一丁目3番23号,1F,神明南ふれあい公園便所,設備: 車椅子対応,#00cc00,139.829358,35.787461
六木二丁目中央公園,東京都 足立区六木二丁目6番21号,1F,六木二丁目中央公園便所,"設備: 車椅子対応, オストメイト対応",#00cc00,139.841797,35.792684
弘道一丁目ふれあい児童遊園,東京都 足立区弘道一丁目26番1号,1F,弘道一丁目ふれあい児童遊園便所,"設備: 車椅子対応, オストメイト対応",#00cc00,139.810523,35.768928
梅島公園,東京都 足立区梅田七丁目20番9号,1F,梅島公園便所,"設備: 車椅子対応, オストメイト対応",#00cc00,139.800422,35.769823
中郷公園,東京都 足立区西新井一丁目29番15号,1F,中郷公園便所,設備: 車椅子対応,#00cc00,139.780542,35.78199
竹の塚第三公園,東京都 足立区竹の塚四丁目7番1号,1F,竹の塚第三公園便所,設備: 車椅子対応,#00cc00,139.799198,35.793705
上沼田第二公園,東京都 足立区江北四丁目21番,1F,上沼田第二公園便所,"設備: 車椅子対応, オストメイト対応",#00cc00,139.766535,35.775712
諏訪木東公園,東京都 足立区西新井三丁目25番1号,1F,諏訪木東公園便所,設備: 車椅子対応,#00cc00,139.781377,35.78993
西中第一公園,東京都 足立区西新井六丁目44番1号,1F,西中第一公園便所,"設備: 車椅子対応, オストメイト対応",#00cc00,139.776439,35.782607
六月町公園,東京都 足立区六月三丁目17番1号,1F,六月町公園便所,設備: 車椅子対応,#00cc00,139.792263,35.787268
北鹿浜公園 (北鹿浜公園便所（C)),東京都 足立区鹿浜三丁目26番1号,1F,北鹿浜公園（北側）便所,"12月29日〜1月3日は閉園（車椅子使用対応トイレ終日利用不可） | 設備: 車椅子対応, おむつ交換台",#00cc00,139.754682,35.782525
北鹿浜公園 (北鹿浜公園便所（B)),東京都 足立区鹿浜三丁目26番1号,1F,北鹿浜公園（南側）便所,12月29日〜1月3日は閉園（車椅子使用対応トイレ終日利用不可） | 設備: 車椅子対応,#00cc00,139.75415,35.78193
西新井西公園,東京都 足立区西新井六丁目9番1号,1F,西新井西公園便所,設備: 車椅子対応,#00cc00,139.773851,35.778971
鹿浜校趾公園,東京都 足立区鹿浜三丁目14番1号,1F,鹿浜校趾公園便所,"設備: 車椅子対応, オストメイト対応",#00cc00,139.752475,35.780748
入谷緑地公園,東京都 足立区入谷五丁目1番1号,1F,入谷緑地公園便所,設備: 車椅子対応,#00cc00,139.762071,35.80219
西保木間公園,東京都 足立区西保木間二丁目14番15号,1F,西保木間公園便所,"設備: 車椅子対応, オストメイト対応",#00cc00,139.800268,35.801865
上沼田北公園,東京都 足立区江北七丁目16番1号,1F,上沼田北公園便所,設備: 車椅子対応,#00cc00,139.764352,35.782297
島根公園,東京都 足立区島根二丁目14番22号,1F,島根公園便所,"設備: 車椅子対応, オストメイト対応",#00cc00,139.799799,35.78324
江北公園,東京都 足立区鹿浜一丁目2番1号,1F,江北公園便所,設備: 車椅子対応,#00cc00,139.75022,35.777189
江北公園 (Ｂ地区少年野球場),東京都 足立区鹿浜五丁目10番1号,1F,江北公園（Ｂ地区少年野球場）便所,設備: 車椅子対応,#00cc00,139.751127,35.785911
足立区都市農業公園,東京都 足立区鹿浜二丁目44番1号,1F,レストハウス1階車椅子使用者対応トイレ,毎月第1・3水曜休園日（祝日及び10月1日のときは、次の平日に振替）、年末年始(12月29日〜1月1日)は使用不可。 | 設備: 車椅子対応,#00cc00,139.745408,35.783028
足立区都市農業公園,東京都 足立区鹿浜二丁目44番1号,1F,管理棟1階車椅子使用者対応トイレ,"毎月第1・3水曜休園日（祝日及び10月1日のときは、次の平日に振替）、年末年始(12月29日〜1月1日)は使用不可。 | 設備: 車椅子対応, オストメイト対応, 大型ベッド",#00cc00,139.745408,35.783028
足立区都市農業公園,東京都 足立区鹿浜二丁目44番1号,1F,工房棟車椅子使用者対応トイレ,"毎月第1・3水曜休園日（祝日及び10月1日のときは、次の平日に振替）、年末年始(12月29日〜1月1日)は使用不可。 | 設備: 車椅子対応, オストメイト対応",#00cc00,139.745408,35.783028
足立区都市農業公園,東京都 足立区鹿浜二丁目44番1号,1F,人と自然の共生館車椅子使用者対応トイレ,毎月第1・3水曜休園日（祝日及び10月1日のときは、次の平日に振替）、年末年始(12月29日〜1月1日)は使用不可。 | 設備: 車椅子対応,#00cc00,139.745408,35.783028
足立区都市農業公園,東京都 足立区鹿浜二丁目44番1号,1F,都市農業公園畑横車椅子使用者対応トイレ,毎月第1・3水曜休園日（祝日及び10月1日のときは、次の平日に振替）、年末年始(12月29日〜1月1日)は使用不可。 | 設備: 車椅子対応,#00cc00,139.745408,35.783028
足立区都市農業公園,東京都 足立区鹿浜二丁目44番1号,2F,管理棟2階車椅子使用者対応トイレ,"毎月第1・3水曜休園日（祝日及び10月1日のときは、次の平日に振替）、年末年始(12月29日〜1月1日)は使用不可。 | 設備: 車椅子対応, 大型ベッド",#00cc00,139.745408,35.783028
入谷中央公園,東京都 足立区入谷四丁目16番1号,1F,入谷中央公園便所,"設備: 車椅子対応, オストメイト対応",#00cc00,139.760504,35.808271
島根中堀公園,東京都 足立区島根四丁目36番1号,1F,島根中堀公園便所,設備: 車椅子対応,#00cc00,139.793255,35.783606
江北平成公園 (西側),東京都 足立区江北四丁目16番1号,1F,江北平成公園（西側）便所,"設備: 車椅子対応, おむつ交換台",#00cc00,139.764463,35.773504
江北平成公園 (東側),東京都 足立区江北四丁目16番1号,1F,江北平成公園（東側）便所,"設備: 車椅子対応, オストメイト対応",#00cc00,139.765541,35.772867
入谷中郷南恐竜公園,東京都 足立区入谷五丁目12番1号,1F,入谷中郷南恐竜公園便所,"設備: 車椅子対応, オストメイト対応",#00cc00,139.763026,35.803811
皿沼公園,東京都 足立区皿沼二丁目25番1号,1F,皿沼公園便所,設備: 車椅子対応,#00cc00,139.764587,35.792051
ベルモント公園（南側）,東京都 足立区梅島一丁目33番7号,1F,ベルモント公園（南側）便所,"車椅子対応トイレ12月29日〜1月3日終日利用不可 | 設備: 車椅子対応, オストメイト対応, おむつ交換台",#00cc00,139.799359,35.774783
竹北公園,東京都 足立区竹の塚七丁目20番20号,1F,竹北公園便所,"設備: 車椅子対応, オストメイト対応",#00cc00,139.794543,35.80079
入谷日の出公園,東京都 足立区入谷一丁目3番1号,1F,入谷日の出公園便所,設備: 車椅子対応,#00cc00,139.771167,35.803103
島六ふれあい公園,東京都 足立区六月一丁目7番1号,1F,島六ふれあい公園便所,"設備: 車椅子対応, オストメイト対応",#00cc00,139.799857,35.7852
江北みどり公園,東京都 足立区江北三丁目8番10号,1F,江北みどり公園便所,設備: 車椅子対応,#00cc00,139.762725,35.77288
東伊興淵之宮公園,東京都 足立区東伊興二丁目4番21号,1F,東伊興淵之宮公園便所,設備: 車椅子対応,#00cc00,139.790268,35.804894
伊興北の根公園,東京都 足立区伊興本町一丁目16番21号,1F,伊興北の根公園便所,設備: 車椅子対応,#00cc00,139.788724,35.799555
西新井さくら公園,東京都 足立区西新井二丁目6番1号,1F,西新井さくら公園便所,設備: 車椅子対応,#00cc00,139.780214,35.784089
西保木間一丁目公園,東京都 足立区西保木間一丁目7番1号,1F,西保木間一丁目公園便所,設備: 車椅子対応,#00cc00,139.800452,35.794938
上沼田南どんぐり公園,東京都 足立区江北三丁目34番5号,1F,上沼田南どんぐり公園便所,"設備: 車椅子対応, オストメイト対応",#00cc00,139.763738,35.776988
西新井さかえ公園,東京都 足立区西新井栄町一丁目19番1号,1F,西新井さかえ公園便所,"設備: 車椅子対応, おむつ交換台",#00cc00,139.787307,35.773463
梅田五丁目フレンド公園,東京都 足立区梅田五丁目25番16号,1F,梅田五丁目フレンド公園便所,"設備: 車椅子対応, オストメイト対応",#00cc00,139.795468,35.770067
亀田トレイン公園,東京都 足立区梅田八丁目14番3号,1F,亀田トレイン公園便所,"設備: 車椅子対応, オストメイト対応",#00cc00,139.79302,35.774357
西新井蓮沼公園,東京都 足立区西新井一丁目20番4号,1F,西新井蓮沼公園便所,"設備: 車椅子対応, オストメイト対応",#00cc00,139.782437,35.779859
伊興四丁目公園,東京都 足立区伊興四丁目19番14号,1F,伊興四丁目公園便所,設備: 車椅子対応,#00cc00,139.780008,35.796574
江北六丁目児童遊園,東京都 足立区江北六丁目30番23号,1F,江北六丁目児童遊園便所,設備: 車椅子対応,#00cc00,139.768322,35.781693
宮城公園,東京都 足立区宮城一丁目38番3号,1F,宮城公園便所,設備: 車椅子対応,#00cc00,139.758342,35.761595
千住スポーツ公園（南側）,東京都 足立区千住緑町二丁目1番1号,1F,千住スポーツ公園（南側）便所,設備: 車椅子対応,#00cc00,139.794869,35.743541
千住仲町公園（西側）,東京都 足立区千住仲町28番地1号,1F,千住仲町公園（西側）便所,設備: 車椅子対応,#00cc00,139.801433,35.743774
千住桜木町公園,東京都 足立区千住桜木一丁目7番4号,1F,千住桜木町公園便所,設備: 車椅子対応,#00cc00,139.7928,35.749731
千住中居町公園,東京都 足立区千住中居町24番地7号,1F,千住中居町公園便所,設備: 車椅子対応,#00cc00,139.796425,35.749641
関屋公園,東京都 足立区千住関屋町17番地7号,1F,関屋公園便所,設備: 車椅子対応,#00cc00,139.806448,35.741405
宮城ゆうゆう公園,東京都 足立区宮城二丁目13番1号,1F,宮城ゆうゆう公園便所,12月29日〜1月3日は閉園（だれでもトイレ終日利用不可） | 設備: 車椅子対応,#00cc00,139.757335,35.764956
新田稲荷公園,東京都 足立区新田一丁目8番5号,1F,新田稲荷公園便所,"設備: 車椅子対応, オストメイト対応",#00cc00,139.73827,35.775287
新田さくら公園,東京都 足立区新田三丁目34番1号,1F,新田さくら公園便所,"設備: 車椅子対応, おむつ交換台",#00cc00,139.746539,35.768299
千住大橋さくら公園,東京都 足立区千住緑町一丁目1番10号,1F,千住大橋さくら公園便所,設備: 車椅子対応,#00cc00,139.794492,35.742918
桑袋ビオトープ公園,東京都 足立区花畑八丁目2番2号,1F,あやせ川清流館車椅子使用者対応トイレ,"月曜休園日（月曜日が祝日及び10月1日のときは、次の平日に振替）、年末年始(12月29日〜1月3日)は使用不可。 | 設備: 車椅子対応, オストメイト対応",#00cc00,139.822469,35.810191
舎人いきいき公園,東京都 足立区舎人六丁目３番１号,1F,舎人いきいき公園便所,"設備: 車椅子対応, オストメイト対応",#00cc00,139.764985,35.813378
佐野いこいの森緑地,東京都 足立区佐野一丁目１３番１１号,1F,車椅子用トイレ,"設備: 車椅子対応, オストメイト対応",#00cc00,139.843679,35.789094
しょうぶ沼公園（東側）,東京都 足立区谷中二丁目4番1号,1F,しょうぶ沼公園（東側）便所,"設備: 車椅子対応, オストメイト対応, おむつ交換台",#00cc00,139.831669,35.775849
花保さくら公園,東京都 足立区南花畑3-1-4,1F,車椅子使用者対応トイレ,"設備: 車椅子対応, オストメイト対応",#00cc00,139.822313,35.789825
弘道第一公園,東京都 足立区弘道二丁目16番14号,1F,弘道第一公園便所,"設備: 車椅子対応, オストメイト対応",#00cc00,139.817657,35.768143
中央本町三丁目のびのび広場,東京都 足立区中央本町三丁目8番,1F,中央本町三丁目のびのび広場便所,※2月〜4月は17:00まで、5月〜8月は18:00まで、9月〜10月は17:00まで、※12/29〜1/3は広場閉鎖のため利用不可 | 設備: 車椅子対応,#00cc00,139.807819,35.773321
綾瀬駅前公衆便所,東京都 足立区綾瀬三丁目10番20号,1F,綾瀬駅前公衆便所,"設備: 車椅子対応, オストメイト対応, おむつ交換台",#00cc00,139.827518,35.762757
青井駅前公衆便所,東京都 足立区青井三丁目16番7号,1F,青井駅前公衆便所,設備: 車椅子対応,#00cc00,139.819745,35.772251
綾瀬駅西口公衆便所,東京都 足立区綾瀬一丁目39番6号先,1F,綾瀬駅西口公衆便所,設備: 車椅子対応,#00cc00,139.823894,35.761749
六町駅前公衆便所,東京都 足立区六町四丁目1番15号,1F,六町駅前公衆便所,"設備: 車椅子対応, オストメイト対応, おむつ交換台",#00cc00,139.821569,35.785187
西新井駅東口公衆便所,東京都 足立区梅島三丁目32番4号,1F,西新井駅東口公衆便所,設備: 車椅子対応,#00cc00,139.790234,35.777705
保木間公衆便所,東京都 足立区竹の塚三丁目8番1号,1F,保木間公衆便所,"設備: 車椅子対応, オストメイト対応",#00cc00,139.802463,35.790507
西新井大師駅前公衆便所,東京都 足立区西新井一丁目4番16号,1F,西新井大師駅前公衆便所,設備: 車椅子対応,#00cc00,139.78108,35.778943
見沼代親水公園,東京都 足立区舎人二丁目3番地,1F,見沼代親水公園便所,設備: 車椅子対応,#00cc00,139.774603,35.809463
見沼代親水公園駅前公衆便所,東京都 足立区舎人五丁目29番1号,1F,見沼代親水公園駅前　公衆便所,"設備: 車椅子対応, オストメイト対応",#00cc00,139.770459,35.813899
江北駅駅前広場公衆トイレ,東京都 足立区西新井本町二丁目32番8号,1F,江北駅前公衆便所,"設備: 車椅子対応, オストメイト対応",#00cc00,139.770539,35.773783
千住大橋際公衆便所,東京都 足立区千住橋戸町31番地1号,1F,千住大橋際公衆便所,設備: 車椅子対応,#00cc00,139.797251,35.739999
北千住駅前公衆便所,東京都 足立区千住旭町42番地3号,1F,北千住駅前公衆便所,設備: 車椅子対応,#00cc00,139.804466,35.74879
足立区障がい福祉センター,東京都 足立区梅島三丁目31番19号,1F,1階南側車椅子使用者対応トイレ,設備: 車椅子対応,#00cc00,139.792829,35.777334
足立区障がい福祉センター,東京都 足立区梅島三丁目31番19号,1F,1階北側車椅子使用者対応トイレ,設備: 車椅子対応,#00cc00,139.792839,35.777369
足立区障がい福祉センター,東京都 足立区梅島三丁目31番19号,2F,2階北側車椅子使用者対応トイレ,設備: 車椅子対応,#00cc00,139.792855,35.777428
足立区障がい福祉センター,東京都 足立区梅島三丁目31番19号,2F,2階中央車椅子使用者対応トイレ,他の車椅子使用者対応が使用できない場合のみ | 設備: 車椅子対応,#00cc00,139.792829,35.777334
足立区障がい福祉センター,東京都 足立区梅島三丁目31番19号,2F,2階南側車椅子使用者対応トイレ,他の車椅子使用者対応が使用できない場合のみ | 設備: 車椅子対応,#00cc00,139.792839,35.777369
足立区障がい福祉センター,東京都 足立区梅島三丁目31番19号,3F,3階南側車椅子使用者対応トイレ,設備: 車椅子対応,#00cc00,139.792851,35.777413
足立区障がい福祉センター,東京都 足立区梅島三丁目31番19号,3F,3階北側車椅子使用者対応トイレ,"設備: 車椅子対応, オストメイト対応",#00cc00,139.792858,35.777441
足立区障がい福祉センター,東京都 足立区梅島三丁目31番19号,4F,4階車椅子使用者対応トイレ,"設備: 車椅子対応, おむつ交換台",#00cc00,139.792922,35.777412
足立区障がい福祉センター,東京都 足立区梅島三丁目31番19号,5F,5階車椅子使用者対応トイレ,他の車椅子使用者対応が使用できない場合のみ | 設備: 車椅子対応,#00cc00,139.792866,35.777304
足立区勤労福祉会館 (綾瀬プルミエ),東京都 足立区綾瀬一丁目34番7号,1F,1階車椅子使用者対応トイレ,"設備: 車椅子対応, オストメイト対応, 大型ベッド",#00cc00,139.821427,35.761168
足立区勤労福祉会館 (綾瀬プルミエ),東京都 足立区綾瀬一丁目34番7号,2F,2階車椅子使用者対応トイレ,"設備: 車椅子対応, オストメイト対応, 大型ベッド",#00cc00,139.821582,35.761076
あだち産業センター,東京都 足立区千住一丁目5番7号,1F,車椅子使用者対応トイレ,"設備: 車椅子対応, オストメイト対応, 大型ベッド, おむつ交換台",#00cc00,139.80037,35.747401
足立区精神障がい者自立支援センター,東京都 足立区竹の塚六丁目18番4号,1F,車椅子使用者対応トイレ,"設備: 車椅子対応, オストメイト対応, 大型ベッド, おむつ交換台",#00cc00,139.79269,35.796628
千住龍田町防災ひろば,東京都 足立区千住龍田町9番地1号,1F,車椅子使用者対応トイレ,"設備: 車椅子対応, オストメイト対応",#00cc00,139.796137,35.751695
足立区総合ボランティアセンター,東京都 足立区日ノ出町27番3-102号,1F,車椅子対応トイレ,設備: 車椅子対応,#00cc00,139.808763,35.751978
足立清掃事務所 (足立清掃事務所),東京都 足立区東伊興三丁目23番9号,1F,車椅子使用者対応トイレ,"大型ﾍﾞｯﾄﾞ(耐重量100)はおむつ交換台としても利用可能 | 設備: 車椅子対応, オストメイト対応, 大型ベッド",#00cc00,139.793895,35.804412
足立区総合スポーツセンター,東京都 足立区東保木間二丁目27番1号,1F,車椅子使用者対応トイレ（体育館棟）,設備: 車椅子対応,#00cc00,139.813858,35.79229
足立区総合スポーツセンター,東京都 足立区東保木間二丁目27番1号,2F,車椅子使用者対応トイレ（体育館棟）,"設備: 車椅子対応, オストメイト対応",#00cc00,139.81395,35.792326
足立区総合スポーツセンター,東京都 足立区東保木間二丁目27番1号,2F,車椅子使用者対応トイレ（体育館棟）,"設備: 車椅子対応, オストメイト対応",#00cc00,139.81403,35.792341
足立区総合スポーツセンター,東京都 足立区東保木間二丁目27番1号,4F,車椅子使用者対応トイレ（体育館棟）,設備: 車椅子対応,#00cc00,139.813744,35.792147
足立区総合スポーツセンター,東京都 足立区東保木間二丁目27番1号,5F,車椅子使用者対応トイレ（体育館棟）,設備: 車椅子対応,#00cc00,139.813744,35.792147
足立区総合スポーツセンター,東京都 足立区東保木間二丁目27番1号,1F,車椅子使用者対応トイレ（公園）,"設備: 車椅子対応, オストメイト対応, 大型ベッド",#00cc00,139.813749,35.792118
足立区総合スポーツセンター,東京都 足立区東保木間二丁目27番1号,1F,車椅子使用者対応トイレ（公園）,"設備: 車椅子対応, オストメイト対応, おむつ交換台",#00cc00,139.813749,35.792118
足立区総合スポーツセンター,東京都 足立区東保木間二丁目27番1号,1F,車椅子使用者対応トイレ（テニスコート棟）,設備: 車椅子対応,#00cc00,139.815876,35.793075
足立区総合スポーツセンター,東京都 足立区東保木間二丁目27番1号,B1F,車椅子使用者対応トイレ（地下駐車場）,設備: 車椅子対応,#00cc00,139.813744,35.792147
足立区総合スポーツセンター,東京都 足立区東保木間二丁目27番1号,1F,車椅子使用者対応トイレ（プール棟）,,#00cc00,139.813136,35.791769
足立区東綾瀬公園温水温水プール,東京都 足立区東綾瀬三丁目4番1号,1F,障がい者対応トイレ,設備: 車椅子対応,#00cc00,139.831279,35.77037
足立区千寿本町小学校温水プール,東京都 足立区千住三丁目30番,1F,障がい者対応トイレ,"設備: 車椅子対応, オストメイト対応",#00cc00,139.801869,35.751633
足立区平野運動場,東京都 足立区平野二丁目12番1号,1F,障がい者対応トイレ,設備: 車椅子対応,#00cc00,139.804261,35.784388
西綾瀬ボランティアセンター,東京都 足立区西綾瀬4-5-6,1F,車椅子対応トイレ,設備: 車椅子対応,#00cc00,139.819612,35.7647
六町駅前安全安心ステーション,東京都 足立区六町四丁目1番,2F,車椅子使用者対応トイレ,"設備: 車椅子対応, オストメイト対応, 大型ベッド",#00cc00,139.821438,35.785205
足立区スイムスポーツセンター(うきうき館）,東京都 足立区西保木間四丁目10番1号,1階プール棟,バリアフリートイレ,"設備: 車椅子対応, オストメイト対応, おむつ交換台",#00cc00,139.797088,35.803466
足立区スイムスポーツセンター(うきうき館）,東京都 足立区西保木間四丁目10番1号,1階体育館棟,バリアフリートイレ,"設備: 車椅子対応, オストメイト対応",#00cc00,139.797233,35.803814
足立区スイムスポーツセンター(うきうき館）,東京都 足立区西保木間四丁目10番1号,2階プー ル棟,バリアフリートイレ,"設備: 車椅子対応, 大型ベッド",#00cc00,139.797088,35.803466