name,address,floor,toilet_name,note,color,lng,lat
板橋都税事務所,東京都 板橋区大山東町44番地8号,1F,車椅子使用者対応トイレ,"設備: 車椅子対応, オストメイト対応, おむつ交換台",#00cc00,139.706298,35.749488
地方独立行政法人東京都立病院機構　東京都立豊島病院,東京都 板橋区栄町33番1号,1F,1階外来車いす用トイレ,病院利用者・関係者（お見舞い等）のみ使用可能となり、一般の方の利用は不可能です。※一般の方がご利用の際には入口の警備員に病院への立入許可をお取りください。 | 設備: 車椅子対応,#00cc00,139.701144,35.75282
東京都立中央・城北職業能力開発センター板橋校,東京都 板橋区舟渡二丁目2番1号,1F,人材育成プラザ棟１階多目的トイレ,設備: 車椅子対応,#00cc00,139.691175,35.793465
東京都立中央・城北職業能力開発センター板橋校,東京都 板橋区舟渡二丁目2番1号,2F,人材育成プラザ棟２階多目的トイレ,設備: 車椅子対応,#00cc00,139.691175,35.793465
東京都立中央・城北職業能力開発センター板橋校,東京都 板橋区舟渡二丁目2番1号,3F,本館３階多目的トイレ,※休館日/年末年始 | 設備: 車椅子対応,#00cc00,139.69128,35.793645
赤塚公園,東京都 板橋区高島平三丁目1番地,1F,サービスセンタートイレ,"設備: 車椅子対応, オストメイト対応, おむつ交換台",#00cc00,139.657546,35.785485
赤塚公園,東京都 板橋区高島平三丁目1番地,1F,競技場前多目的トイレ,"設備: 車椅子対応, オストメイト対応, おむつ交換台",#00cc00,139.655738,35.784919
赤塚公園,東京都 板橋区徳丸七丁目4番地,1F,辻山多目的トイレ,設備: 車椅子対応,#00cc00,139.662961,35.780889
赤塚公園,東京都 板橋区徳丸八丁目23番地,1F,番場多目的トイレ,"設備: 車椅子対応, オストメイト対応, おむつ交換台",#00cc00,139.654381,35.783692
浮間公園,東京都 板橋区舟渡二丁目15番,1F,第5号多目的トイレ,"平成31年1月〜令和4年9月末まで改築工事（東京都）令和4年10月3日供用開始 | 設備: 車椅子対応, オストメイト対応, おむつ交換台",#00cc00,139.693107,35.795026
浮間公園,東京都 板橋区舟渡二丁目14番,1F,第4号多目的トイレ,"設備: 車椅子対応, オストメイト対応, おむつ交換台",#00cc00,139.692809,35.794044
城北中央公園,東京都 板橋区桜川一丁目,1F,いちょう多目的トイレ,"イベント時等のみ | 設備: 車椅子対応, おむつ交換台",#00cc00,139.673694,35.756339
城北中央公園,東京都 板橋区桜川一丁目,1F,つばき多目的トイレ,"設備: 車椅子対応, おむつ交換台",#00cc00,139.676194,35.75523
都営三田線駅新板橋駅,東京都 板橋区板橋一丁目53番17号,B2F,バリアフリートイレ旧,"設備: 車椅子対応, オストメイト対応, 大型ベッド, おむつ交換台",#00cc00,139.718899,35.748903
都営三田線駅新板橋駅,東京都 板橋区板橋一丁目53番17号,B2F,バリアフリートイレ新,"設備: 車椅子対応, オストメイト対応",#00cc00,139.718899,35.748903
都営三田線板橋区役所前駅,東京都 板橋区板橋二丁目66番17号,1F,だれでもトイレＡ,"設備: 車椅子対応, オストメイト対応, おむつ交換台",#00cc00,139.709611,35.751417
都営三田線板橋区役所前駅,東京都 板橋区板橋二丁目66番17号,B1F,だれでもトイレＢ,"設備: 車椅子対応, オストメイト対応, おむつ交換台",#00cc00,139.709692,35.751729
都営三田線板橋本町駅,東京都 板橋区大和町17番1号,B3F,だれでもトイレ,"設備: 車椅子対応, オストメイト対応, おむつ交換台",#00cc00,139.70557,35.760976
都営三田線本蓮沼駅,東京都 板橋区蓮沼町19番8号,B1F,だれでもトイレ,"設備: 車椅子対応, オストメイト対応, おむつ交換台",#00cc00,139.702566,35.768619
都営三田線志村坂上駅,東京都 板橋区志村一丁目14番13号,B2F,だれでもトイレ,"設備: 車椅子対応, オストメイト対応, おむつ交換台",#00cc00,139.694684,35.776491
都営三田線志村三丁目駅,東京都 板橋区志村三丁目23番1号,1F,だれでもトイレ,"設備: 車椅子対応, オストメイト対応, おむつ交換台",#00cc00,139.685926,35.777481
都営三田線蓮根駅,東京都 板橋区蓮根二丁目31番30号,1F,バリアフリートイレ,"設備: 車椅子対応, オストメイト対応, 大型ベッド, おむつ交換台",#00cc00,139.678967,35.784082
都営三田線西台駅,東京都 板橋区高島平九丁目1番1号,1F,だれでもトイレ,"設備: 車椅子対応, オストメイト対応, おむつ交換台",#00cc00,139.673632,35.786996
都営三田線高島平駅,東京都 板橋区高島平八丁目2番1号,1F,だれでもトイレ,"設備: 車椅子対応, オストメイト対応, おむつ交換台",#00cc00,139.661438,35.788993
都営三田線新高島平駅,東京都 板橋区高島平七丁目1番,1F,だれでもトイレ,"介助シート（大型ベッド・おむつ交換台兼用）あり | 設備: 車椅子対応, オストメイト対応, 大型ベッド",#00cc00,139.654559,35.790222
都営三田線西高島平駅,東京都 板橋区高島平六丁目1番,1F,だれでもトイレ,"介助シート（大型ベッド・おむつ交換台兼用）あり | 設備: 車椅子対応, オストメイト対応, 大型ベッド",#00cc00,139.645942,35.791914
東京都水道局板橋営業所,東京都 板橋区氷川町3番地6号,1F,だれでもトイレ,設備: 車椅子対応,#00cc00,139.707233,35.751704
志村消防署高島平出張所,東京都 板橋区高島平三丁目12番10号,1F,だれでもトイレ,"設備: 車椅子対応, おむつ交換台",#00cc00,139.658018,35.786199
板橋区役所本庁舎,東京都 板橋区板橋二丁目66番1号,1F,南館1階多目的トイレ,"設備: 車椅子対応, オストメイト対応, 大型ベッド, おむつ交換台",#00cc00,139.70904,35.751064
板橋区役所本庁舎,東京都 板橋区板橋二丁目66番1号,1F,南館1階多目的トイレ,"設備: 車椅子対応, オストメイト対応, 大型ベッド, おむつ交換台",#00cc00,139.709036,35.751026
板橋区役所本庁舎,東京都 板橋区板橋二丁目66番1号,2F,南館2階多目的トイレ,"設備: 車椅子対応, オストメイト対応, 大型ベッド, おむつ交換台",#00cc00,139.709041,35.751067
板橋区役所本庁舎,東京都 板橋区板橋二丁目66番1号,2F,南館2階多目的トイレ,"設備: 車椅子対応, オストメイト対応, 大型ベッド, おむつ交換台",#00cc00,139.709036,35.751026
板橋区役所本庁舎,東京都 板橋区板橋二丁目66番1号,3F,南館3階多目的トイレ,"設備: 車椅子対応, オストメイト対応",#00cc00,139.708988,35.750869
板橋区役所本庁舎,東京都 板橋区板橋二丁目66番1号,3F,北館3階多目的トイレ,設備: 車椅子対応,#00cc00,139.709061,35.751189
板橋区役所本庁舎,東京都 板橋区板橋二丁目66番1号,4F,南館4階多目的トイレ,"設備: 車椅子対応, オストメイト対応",#00cc00,139.708987,35.75087
板橋区役所本庁舎,東京都 板橋区板橋二丁目66番1号,4F,北館4階多目的トイレ,"設備: 車椅子対応, おむつ交換台",#00cc00,139.709061,35.751189
板橋区役所本庁舎,東京都 板橋区板橋二丁目66番1号,5F,南館5階多目的トイレ,"設備: 車椅子対応, オストメイト対応",#00cc00,139.708986,35.75087
板橋区役所本庁舎,東京都 板橋区板橋二丁目66番1号,5F,北館5階多目的トイレ,"設備: 車椅子対応, オストメイト対応",#00cc00,139.709059,35.75119
板橋区役所本庁舎,東京都 板橋区板橋二丁目66番1号,6F,南館6階多目的トイレ,"設備: 車椅子対応, オストメイト対応",#00cc00,139.708984,35.750869
板橋区役所本庁舎,東京都 板橋区板橋二丁目66番1号,6F,北館6階多目的トイレ,"設備: 車椅子対応, オストメイト対応",#00cc00,139.709058,35.751192
板橋区役所本庁舎,東京都 板橋区板橋二丁目66番1号,7F,北館7階多目的トイレ,"設備: 車椅子対応, オストメイト対応",#00cc00,139.709056,35.751189
板橋区役所本庁舎,東京都 板橋区板橋二丁目66番1号,8F,北館8階多目的トイレ,設備: 車椅子対応,#00cc00,139.709058,35.751187
板橋区役所本庁舎,東京都 板橋区板橋二丁目66番1号,9F,北館9階多目的トイレ,設備: 車椅子対応,#00cc00,139.709061,35.75119
板橋区役所本庁舎,東京都 板橋区板橋二丁目66番1号,10F,北館10階多目的トイレ,"設備: 車椅子対応, オストメイト対応",#00cc00,139.709059,35.751192
板橋区役所本庁舎,東京都 板橋区板橋二丁目66番1号,11F,北館11階多目的トイレ,設備: 車椅子対応,#00cc00,139.709058,35.751192
赤塚支所,東京都 板橋区赤塚六丁目38番1号,B1F,地下1階だれでもトイレ,"設備: 車椅子対応, オストメイト対応, 大型ベッド",#00cc00,139.644744,35.778633
赤塚支所,東京都 板橋区赤塚六丁目38番1号,1F,1階だれでもトイレ,"設備: 車椅子対応, オストメイト対応, 大型ベッド",#00cc00,139.644736,35.778629
赤塚支所,東京都 板橋区赤塚六丁目38番1号,2F,2階だれでもトイレ,"設備: 車椅子対応, オストメイト対応, 大型ベッド",#00cc00,139.644734,35.778628
赤塚支所,東京都 板橋区赤塚六丁目38番1号,3F,3階だれでもトイレ,"設備: 車椅子対応, オストメイト対応, 大型ベッド",#00cc00,139.644787,35.778715
常盤台区民事務所,東京都 板橋区常盤台三丁目27番1号,1F,1階多目的トイレ,"設備: 車椅子対応, おむつ交換台",#00cc00,139.682337,35.761329
志村福祉課,東京都 板橋区蓮根二丁目28番１号,1F,1階だれでもトイレ,"設備: 車椅子対応, オストメイト対応, おむつ交換台",#00cc00,139.675158,35.785305
情報処理センター (情報処理センター),東京都 板橋区板橋二丁目65番6号,1F,1階車いす使用者用トイレ,設備: 車椅子対応,#00cc00,139.708859,35.750018
情報処理センター (情報処理センター),東京都 板橋区板橋二丁目65番6号,2F,2階車いす使用者用トイレ,設備: 車椅子対応,#00cc00,139.708864,35.750018
情報処理センター (情報処理センター),東京都 板橋区板橋二丁目65番6号,3F,3階車いす使用者用トイレ,設備: 車椅子対応,#00cc00,139.70886,35.750021
情報処理センター (情報処理センター),東京都 板橋区板橋二丁目65番6号,4F,4階車いす使用者用トイレ,設備: 車椅子対応,#00cc00,139.708865,35.750022
情報処理センター (情報処理センター),東京都 板橋区板橋二丁目65番6号,5F,5階車いす使用者用トイレ,設備: 車椅子対応,#00cc00,139.708862,35.750017
情報処理センター (情報処理センター),東京都 板橋区板橋二丁目65番6号,6F,6階車いす使用者用トイレ,設備: 車椅子対応,#00cc00,139.708858,35.750021
情報処理センター (情報処理センター),東京都 板橋区板橋二丁目65番6号,7F,7階車いす使用者用トイレ,設備: 車椅子対応,#00cc00,139.708865,35.750018
四葉集会所,東京都 板橋区四葉二丁目9番16号,1F,1階誰でもトイレ（集会所利用者専用）,設備: 車椅子対応,#00cc00,139.651761,35.781021
見次公園内集会所,東京都 板橋区前野町四丁目59番1号,2F,2階誰でもトイレ（集会所利用者専用）,設備: 車椅子対応,#00cc00,139.693523,35.773371
中台二丁目集会所,東京都 板橋区中台二丁目43番20号,1F,1階誰でもトイレ（集会所利用者専用）,設備: 車椅子対応,#00cc00,139.682624,35.773533
清水町第二集会所,東京都 板橋区清水町72番7号,B1F,地下１階誰でもトイレ（集会所利用者専用）,設備: 車椅子対応,#00cc00,139.704702,35.765392
高島平地域センター,東京都 板橋区高島平三丁目12番28号,1F,1階誰でもトイレ,"設備: 車椅子対応, オストメイト対応, おむつ交換台",#00cc00,139.658956,35.786978
高島平地域センター (高島平区民館),東京都 板橋区高島平三丁目12番28号,3F,3階誰でもトイレ,"設備: 車椅子対応, おむつ交換台",#00cc00,139.658785,35.786958
桜川地域センター,東京都 板橋区東新町二丁目45番6号,1F,1階誰でもトイレ,"設備: 車椅子対応, おむつ交換台",#00cc00,139.681841,35.752421
志村坂上地域センター,東京都 板橋区小豆沢二丁目19番15号,1F,1階誰でもトイレ,設備: 車椅子対応,#00cc00,139.696011,35.776461
清水地域センター (清水地域センター),東京都 板橋区泉町16番16号,1F,１階清水地域センター誰でもトイレ,"設備: 車椅子対応, オストメイト対応, おむつ交換台",#00cc00,139.702103,35.766428
清水地域センター (清水おとしより相談センター),東京都 板橋区泉町16番16号,1F,1階清水いこいの家誰でもトイレ,"設備: 車椅子対応, オストメイト対応, おむつ交換台",#00cc00,139.702154,35.766457
清水地域センター (清水地域センター),東京都 板橋区泉町16番16号,2F,2階誰でもトイレ,"設備: 車椅子対応, おむつ交換台",#00cc00,139.702098,35.766381
清水地域センター (清水図書館),東京都 板橋区泉町16番16号,3F,3階清水図書館誰でもトイレ,"設備: 車椅子対応, オストメイト対応, おむつ交換台",#00cc00,139.702044,35.766421
仲宿地域センター,東京都 板橋区氷川町12番10号,1F,1階誰でもトイレ,"設備: 車椅子対応, オストメイト対応, 大型ベッド",#00cc00,139.707211,35.753891
仲宿地域センター,東京都 板橋区氷川町12番10号,2F,2階誰でもトイレ,"設備: 車椅子対応, おむつ交換台",#00cc00,139.707146,35.753978
仲宿地域センター,東京都 板橋区氷川町12番10号,3F,3階誰でもトイレ,"設備: 車椅子対応, おむつ交換台",#00cc00,139.707159,35.753901
富士見地域センター,東京都 板橋区富士見町3番1号,1F,1階誰でもトイレ,"設備: 車椅子対応, オストメイト対応, 大型ベッド, おむつ交換台",#00cc00,139.700398,35.760773
高島平七丁目公園内集会所,東京都 板橋区高島平七丁目9番1号,1F,1階誰でもトイレ（集会所利用者専用）,"設備: 車椅子対応, オストメイト対応, おむつ交換台",#00cc00,139.6558583,35.79076383
板橋区保健所,東京都 板橋区大山東町32番15号,B1F,地下1階だれでもトイレ,"設備: 車椅子対応, オストメイト対応, おむつ交換台",#00cc00,139.708152,35.750596
板橋区保健所,東京都 板橋区大山東町32番15号,1F,1階だれでもトイレ,"設備: 車椅子対応, オストメイト対応, 大型ベッド, おむつ交換台",#00cc00,139.707999,35.750549
板橋区保健所,東京都 板橋区大山東町32番15号,2F,2階だれでもトイレ,"設備: 車椅子対応, オストメイト対応, おむつ交換台",#00cc00,139.707999,35.750549
板橋区保健所,東京都 板橋区大山東町32番15号,5F,5階だれでもトイレ,"設備: 車椅子対応, オストメイト対応, おむつ交換台",#00cc00,139.707999,35.750549
高島平図書館,東京都 板橋区高島平三丁目13番1号,1F,1階西側通路多目的トイレ,"設備: 車椅子対応, おむつ交換台",#00cc00,139.658997,35.787531
高島平図書館,東京都 板橋区高島平三丁目13番1号,3F,3階事務所前多目的トイレ,設備: 車椅子対応,#00cc00,139.658982,35.787492
氷川図書館,東京都 板橋区氷川町28番9号,1F,1階多目的トイレ,"設備: 車椅子対応, おむつ交換台",#00cc00,139.704723,35.753112
蓮根図書館 (蓮根3丁目アパート1号棟1階),東京都 板橋区蓮根三丁目15番1号101,1F,1階多目的トイレ,外部におむつ交換台あり | 設備: 車椅子対応,#00cc00,139.676386,35.788556
東板橋図書館,東京都 板橋区加賀一丁目10番15号,1F,1階だれでもトイレ,"設備: 車椅子対応, おむつ交換台",#00cc00,139.715763,35.754382
東板橋図書館,東京都 板橋区加賀一丁目10番15号,3F,3階だれでもトイレ,"設備: 車椅子対応, おむつ交換台",#00cc00,139.71579,35.754401
成増図書館 (アリエス3階),東京都 板橋区成増三丁目13番1号,3F,3階トイレ,設備: 車椅子対応,#00cc00,139.632242,35.7786
志村図書館,東京都 板橋区小豆沢一丁目8番1号,B1F,地下1階だれでもトイレ,設備: 車椅子対応,#00cc00,139.700047,35.773182
西台図書館,東京都 板橋区西台三丁目13番2号,1F,1階多目的トイレ,設備: 車椅子対応,#00cc00,139.668893,35.773996
小茂根図書館,東京都 板橋区小茂根一丁目6番2号,1F,1階多目的トイレ,設備: 車椅子対応,#00cc00,139.680874,35.745575
中央図書館（いたばしボローニャ絵本館併設）,東京都 板橋区常盤台四丁目3番1号,1F,1階だれでもトイレ,"設備: 車椅子対応, オストメイト対応, 大型ベッド",#00cc00,139.681526,35.762884
教育科学館,東京都 板橋区常盤台四丁目14番1号,B1F,地下1階だれでもトイレ,設備: 車椅子対応,#00cc00,139.679604,35.763462
教育科学館,東京都 板橋区常盤台四丁目14番1号,1F,1階だれでもトイレ,"（注）乳幼児用椅子の付近で長椅子有。 | 設備: 車椅子対応, おむつ交換台",#00cc00,139.679425,35.763452
教育科学館,東京都 板橋区常盤台四丁目14番1号,2F,2階だれでもトイレ,設備: 車椅子対応,#00cc00,139.679604,35.763462
郷土資料館,東京都 板橋区赤塚五丁目35番25号,1F,1階多目的トイレ,"設備: 車椅子対応, おむつ交換台",#00cc00,139.6431,35.785487
熱帯環境植物館,東京都 板橋区高島平八丁目29番2号,B1F,地下1階だれでもトイレ,設備: 車椅子対応,#00cc00,139.663983,35.792046
熱帯環境植物館,東京都 板橋区高島平八丁目29番2号,2F,2階だれでもトイレ,"設備: 車椅子対応, おむつ交換台",#00cc00,139.663915,35.792012
美術館,東京都 板橋区赤塚五丁目34番27号,1F,1階多目的トイレ,"設備: 車椅子対応, オストメイト対応, おむつ交換台",#00cc00,139.644536,35.784219
前野ホール,東京都 板橋区前野町二丁目43番15号,1F,1階誰でもトイレ,設備: 車椅子対応,#00cc00,139.690257,35.766998
前野ホール,東京都 板橋区前野町二丁目43番15号,2F,2階誰でもトイレ,設備: 車椅子対応,#00cc00,139.690325,35.76699
舟渡ホール,東京都 板橋区舟渡一丁目14番5号,1F,1階誰でもトイレ,"設備: 車椅子対応, おむつ交換台",#00cc00,139.689964,35.792138
区立グリーンホール,東京都 板橋区栄町36番1号,1F,1階だれでもトイレ,"設備: 車椅子対応, おむつ交換台",#00cc00,139.705233,35.750811
区立グリーンホール,東京都 板橋区栄町36番1号,2F,2階だれでもトイレ,設備: 車椅子対応,#00cc00,139.705223,35.750806
区立グリーンホール,東京都 板橋区栄町36番1号,3F,3階だれでもトイレ,設備: 車椅子対応,#00cc00,139.705232,35.75081
区立グリーンホール,東京都 板橋区栄町36番1号,4F,4階だれでもトイレ,設備: 車椅子対応,#00cc00,139.705232,35.75081
区立グリーンホール,東京都 板橋区栄町36番1号,5F,5階だれでもトイレ,設備: 車椅子対応,#00cc00,139.705234,35.750811
区立グリーンホール,東京都 板橋区栄町36番1号,6F,6階だれでもトイレ,設備: 車椅子対応,#00cc00,139.705234,35.750812
区立グリーンホール,東京都 板橋区栄町36番1号,7F,7階だれでもトイレ,設備: 車椅子対応,#00cc00,139.705234,35.750812
区立文化会館,東京都 板橋区大山東町51番1号,1F,だれでもトイレ(1階受付窓口奥),"設備: 車椅子対応, 大型ベッド",#00cc00,139.704656,35.749485
区立文化会館,東京都 板橋区大山東町51番1号,1F,だれでもトイレ(1階大ホールホワイエ),設備: 車椅子対応,#00cc00,139.704656,35.749485
区立文化会館,東京都 板橋区大山東町51番1号,2F,だれでもトイレ(2階小ホールホワイエ),設備: 車椅子対応,#00cc00,139.704656,35.749485
三丁目青空公園,東京都 板橋区小茂根三丁目14番,1F,車いす使用者用トイレ,設備: 車椅子対応,#00cc00,139.679905,35.749942
四葉二丁目公園,東京都 板橋区四葉二丁目9番,1F,車いす使用者用トイレ,※手すり破損している | 設備: 車椅子対応,#00cc00,139.651715,35.781129
東原公園,東京都 板橋区小豆沢一丁目20番13号,1F,多目的トイレ,"設備: 車椅子対応, オストメイト対応, おむつ交換台",#00cc00,139.701842,35.77581
東坂下二丁目公園,東京都 板橋区東坂下二丁目9番2号,1F,多目的トイレ,"設備: 車椅子対応, オストメイト対応, おむつ交換台",#00cc00,139.687775,35.78481
東板橋公園,東京都 板橋区板橋三丁目50番1号,1F,車いす使用者用トイレ,"設備: 車椅子対応, オストメイト対応, おむつ交換台",#00cc00,139.712794,35.754505
親和児童遊園,東京都 板橋区志村三丁目20番24号,1F,車いす使用者用トイレ,設備: 車椅子対応,#00cc00,139.684461,35.77757
城北公園(管理棟併設),東京都 板橋区坂下二丁目19番1号,1F,車いす使用者用トイレ,"設備: 車椅子対応, 大型ベッド",#00cc00,139.68168,35.783655
志村第二公園,東京都 板橋区前野町五丁目56番1号,1F,多目的トイレ,"設備: 車椅子対応, オストメイト対応, おむつ交換台",#00cc00,139.683997,35.774543
志村第三公園,東京都 板橋区志村一丁目21番8号,1F,車いす使用者用トイレ,設備: 車椅子対応,#00cc00,139.692648,35.775219
富士見街道にぎわい広場,東京都 板橋区前野町一丁目7番,1F,車いす使用者用トイレ,設備: 車椅子対応,#00cc00,139.695277,35.76315
富士見西児童遊園,東京都 板橋区富士見町24番9号,1F,多目的トイレ,"設備: 車椅子対応, オストメイト対応",#00cc00,139.694988,35.758995
坂下三丁目緑地,東京都 板橋区坂下三丁目9番19号,1F,多目的トイレ,"設備: 車椅子対応, オストメイト対応, おむつ交換台",#00cc00,139.681978,35.785207
坂下一丁目公園,東京都 板橋区坂下一丁目36番27号,1F,多目的トイレ,"設備: 車椅子対応, オストメイト対応, おむつ交換台",#00cc00,139.683119,35.780184
小茂根四丁目公園,東京都 板橋区小茂根四丁目16番,1F,多目的トイレ,"設備: 車椅子対応, オストメイト対応, おむつ交換台",#00cc00,139.676218,35.748948
紅梅公園,東京都 板橋区徳丸八丁目5番,1F,車いす使用者用トイレ,"設備: 車椅子対応, おむつ交換台",#00cc00,139.654664,35.78079
けやきの公園,東京都 板橋区前野町一丁目48番,1F,車いす使用者用トイレ,設備: 車椅子対応,#00cc00,139.692354,35.764473
熊野町公園,東京都 板橋区熊野町23番5号,1F,車いす使用者用トイレ,設備: 車椅子対応,#00cc00,139.706867,35.74385
志村城山公園,東京都 板橋区志村二丁目17番1号,1F,車いす使用者用トイレ,設備: 車椅子対応,#00cc00,139.687455,35.776905
若木公園,東京都 板橋区若木二丁目31番16号,1F,多目的トイレ,"設備: 車椅子対応, オストメイト対応, おむつ交換台",#00cc00,139.669772,35.770275
ゆりの木公衆便所,東京都 板橋区赤塚新町三丁目32番13号,1F,多目的トイレ,"設備: 車椅子対応, オストメイト対応, おむつ交換台",#00cc00,139.639117,35.76996
成増公園,東京都 板橋区成増三丁目4番9号,1F,多目的トイレ,"設備: 車椅子対応, オストメイト対応, おむつ交換台",#00cc00,139.633962,35.777907
本蓮沼駅前いずみ公園,東京都 板橋区泉町5番,1F,車いす使用者用トイレ,"設備: 車椅子対応, オストメイト対応, おむつ交換台",#00cc00,139.702229,35.768028
向原公園,東京都 板橋区向原二丁目29番1号,1F,多目的トイレ,"設備: 車椅子対応, オストメイト対応, おむつ交換台",#00cc00,139.681331,35.74006
向口公園,東京都 板橋区四葉二丁目29番5号,1F,車いす使用者用トイレ,設備: 車椅子対応,#00cc00,139.653746,35.782215
宮本公園,東京都 板橋区宮本町38番12号,1F,車いす使用者用トイレ,設備: 車椅子対応,#00cc00,139.697577,35.763607
南ときわ台公園,東京都 板橋区南常盤台二丁目8番6号,1F,多目的トイレ,"設備: 車椅子対応, オストメイト対応, おむつ交換台",#00cc00,139.68635,35.756639
緑ケ丘第三公園,東京都 板橋区桜川三丁目9番1号,1F,多目的トイレ,"設備: 車椅子対応, オストメイト対応, おむつ交換台",#00cc00,139.672869,35.760834
見次公園,東京都 板橋区前野町四丁目59番1号,1F,集会所下車いす使用者用トイレ,設備: 車椅子対応,#00cc00,139.693563,35.773411
溝下公園,東京都 板橋区三園一丁目41番,1F,車いす使用者用トイレ,設備: 車椅子対応,#00cc00,139.639722,35.790893
前野公園,東京都 板橋区前野町五丁目1番1号,1F,多目的トイレ,"設備: 車椅子対応, オストメイト対応, おむつ交換台",#00cc00,139.687294,35.768889
舟渡水辺公園,東京都 板橋区舟渡四丁目4番,1F,車いす使用者用トイレ,設備: 車椅子対応,#00cc00,139.673076,35.792686
双葉町ひだまり公園,東京都 板橋区双葉町18番23号,1F,車いす使用者用トイレ,,#00cc00,139.699196,35.757376
宮前公園,東京都 板橋区赤塚四丁目16番2号,1F,多目的トイレ,"設備: 車椅子対応, オストメイト対応, おむつ交換台",#00cc00,139.639006,35.783541
水車公園,東京都 板橋区四葉一丁目17番12号,1F,車いす使用者用トイレ,設備: 車椅子対応,#00cc00,139.65246,35.777658
小豆沢公園(環八沿線南側),東京都 板橋区小豆沢四丁目20番5号,1F,車いす使用者用トイレ,設備: 車椅子対応,#00cc00,139.698682,35.78087
小豆沢公園(河岸広場),東京都 板橋区小豆沢三丁目1番他,1F,車いす使用者用トイレ,"ユニバーサルシートあり | 設備: 大型ベッド, おむつ交換台",#00cc00,139.698645,35.781582
小豆沢公園(グランド南),東京都 板橋区小豆沢三丁目1番他,1F,スタンド1階車いす使用者用トイレ,設備: 車椅子対応,#00cc00,139.69639,35.778347
赤塚四丁目公園,東京都 板橋区赤塚四丁目31番8号,1F,車いす使用者用トイレ,設備: 車椅子対応,#00cc00,139.640669,35.785751
赤塚溜池公園,東京都 板橋区赤塚五丁目35番27号,1F,車いす使用者用トイレ,設備: 車椅子対応,#00cc00,139.643929,35.785746
赤塚新町公園,東京都 板橋区赤塚新町三丁目35番1号,1F,多目的トイレ,"設備: 車椅子対応, オストメイト対応, おむつ交換台",#00cc00,139.637986,35.770259
赤塚しのがやと公園,東京都 板橋区赤塚六丁目30番7号,1F,車いす使用者用トイレ,設備: 車椅子対応,#00cc00,139.644134,35.77694
西台公園,東京都 板橋区西台一丁目23番1号,1F,多目的トイレ,"設備: 車椅子対応, オストメイト対応, おむつ交換台",#00cc00,139.672523,35.774163
高島平五丁目第二公園,東京都 板橋区高島平五丁目24番1号,1F,多目的トイレ,"設備: 車椅子対応, オストメイト対応, おむつ交換台",#00cc00,139.645084,35.78979
蓮根川緑道,東京都 板橋区蓮根三丁目3番地先,1F,多目的トイレ,"設備: 車椅子対応, オストメイト対応, おむつ交換台",#00cc00,139.678303,35.786627
大門みはらし台公園,東京都 板橋区大門6番先,1F,車いす使用者用トイレ,設備: 車椅子対応,#00cc00,139.647057,35.783583
成増児童遊園,東京都 板橋区成増二丁目24番8号,1F,多目的トイレ,"設備: 車椅子対応, オストメイト対応, おむつ交換台",#00cc00,139.629567,35.779255
上赤塚公園,東京都 板橋区赤塚三丁目40番10号,1F,多目的トイレ,"設備: 車椅子対応, オストメイト対応, おむつ交換台",#00cc00,139.637174,35.781494
西台三丁目公園,東京都 板橋区西台三丁目19番3号,1F,車いす使用者用トイレ,,#00cc00,139.669354,35.774011
西徳第二公園,東京都 板橋区西台三丁目42番1号,1F,多目的トイレ,"設備: 車椅子対応, オストメイト対応, おむつ交換台",#00cc00,139.667019,35.776188
成増うめの里公園,東京都 板橋区成増五丁目4番,1F,車いす使用者用トイレ,設備: 車椅子対応,#00cc00,139.630919,35.783526
蓮根三丁目公園,東京都 板橋区蓮根三丁目15番4号,1F,多目的トイレ,"設備: 車椅子対応, オストメイト対応, おむつ交換台",#00cc00,139.678405,35.788933
西台中央通り公園,東京都 板橋区西台四丁目4番15号,1F,車いす使用者用トイレ,設備: 車椅子対応,#00cc00,139.667413,35.770334
常盤台公園(身障者用付き),東京都 板橋区常盤台一丁目13番1号,1F,車いす使用者用トイレ,"設備: 車椅子対応, おむつ交換台",#00cc00,139.691567,35.760604
高島平七丁目第二公園,東京都 板橋区高島平七丁目33番1号,1F,多目的トイレ,"設備: 車椅子対応, オストメイト対応, おむつ交換台",#00cc00,139.655146,35.792143
高島平緑地(西台駅寄り),東京都 板橋区高島平九丁目1番先,1F,車いす使用者用トイレ,設備: 車椅子対応,#00cc00,139.670358,35.787121
高島平緑地(前谷津川側),東京都 板橋区高島平二丁目34番先,1F,車いす使用者用トイレ,設備: 車椅子対応,#00cc00,139.661882,35.788144
成増北第一公園,東京都 板橋区成増五丁目19番1号,1F,多目的トイレ,"設備: 車椅子対応, オストメイト対応, おむつ交換台",#00cc00,139.635839,35.788764
高島平五丁目公園,東京都 板橋区高島平五丁目4番1号,1F,多目的トイレ,"設備: 車椅子対応, オストメイト対応, おむつ交換台",#00cc00,139.646162,35.787084
徳石公園,東京都 板橋区徳丸五丁目10番16号,1F,多目的トイレ,"設備: 車椅子対応, オストメイト対応, おむつ交換台",#00cc00,139.659002,35.776531
徳丸ケ丘公園,東京都 板橋区徳丸六丁目27番11号,1F,多目的トイレ,"設備: 車椅子対応, オストメイト対応, おむつ交換台",#00cc00,139.661782,35.778758
徳丸ケ原公園,東京都 板橋区高島平八丁目24番1号,1F,車いす使用者用トイレ,設備: 車椅子対応,#00cc00,139.661341,35.791506
徳丸橋公園,東京都 板橋区新河岸一丁目3番7号,1F,車いす使用者用トイレ,設備: 車椅子対応,#00cc00,139.664143,35.794845
どんぐり山公園,東京都 板橋区中台一丁目19番8号,1F,多目的トイレ,"設備: 車椅子対応, オストメイト対応, おむつ交換台",#00cc00,139.680622,35.767923
中台公園,東京都 板橋区中台三丁目9番3号,1F,多目的トイレ,"設備: 車椅子対応, オストメイト対応, おむつ交換台",#00cc00,139.678346,35.769455
高島平緑地(高島平駅前),東京都 板橋区高島平二丁目34番1号,1F,車いす使用者用トイレ,設備: 車椅子対応,#00cc00,139.664238,35.787556
加賀第二公園,東京都 板橋区加賀一丁目16番1号,1F,車いす使用者用トイレ,設備: 車椅子対応,#00cc00,139.718159,35.755279
大谷口北町宮ノ下公園,東京都 板橋区大谷口北町79番,1F,車いす使用者用トイレ,"設備: 車椅子対応, おむつ交換台",#00cc00,139.686387,35.749053
大谷口北町公園,東京都 板橋区大谷口北町87番6号,1F,車いす使用者用トイレ,設備: 車椅子対応,#00cc00,139.685938,35.751076
大谷口児童遊園,東京都 板橋区大谷口北町21番2号,1F,多目的トイレ,"設備: 車椅子対応, おむつ交換台",#00cc00,139.691077,35.750581
加賀公園,東京都 板橋区加賀一丁目8番1号,1F,多目的トイレ,"設備: 車椅子対応, オストメイト対応, おむつ交換台",#00cc00,139.720517,35.752659
大原第二公園,東京都 板橋区大原町27番1号,1F,多目的トイレ,"設備: 車椅子対応, オストメイト対応, おむつ交換台",#00cc00,139.698019,35.768231
板谷公園,東京都 板橋区板橋四丁目55番21号,1F,車いす使用者用トイレ,"設備: 車椅子対応, オストメイト対応, おむつ交換台",#00cc00,139.718136,35.752986
板橋公園(公園中央),東京都 板橋区大山西町21番1号,1F,車いす使用者用トイレ,設備: 車椅子対応,#00cc00,139.695341,35.745896
板橋駅前公園,東京都 板橋区板橋一丁目23番1号,1F,車いす使用者用トイレ,※２４時間利用可 | 設備: 車椅子対応,#00cc00,139.718164,35.747402
板橋区平和公園,東京都 板橋区常盤台四丁目3番1号,1F,車いす使用者用トイレ,設備: 車椅子対応,#00cc00,139.681436,35.763397
大谷口一丁目4番遊び場,東京都 板橋区大谷口一丁目4番7号,1F,多目的トイレ,"設備: 車椅子対応, オストメイト対応, おむつ交換台",#00cc00,139.691146,35.74605
石成公園,東京都 板橋区赤塚四丁目7番13号,1F,多目的トイレ,"設備: 車椅子対応, オストメイト対応, おむつ交換台",#00cc00,139.639655,35.781701
徳丸三ツ和公園,東京都 板橋区徳丸五丁目32番9号,1F,多目的トイレ,"設備: 車椅子対応, オストメイト対応, おむつ交換台",#00cc00,139.656396,35.778953
日暮台公園,東京都 板橋区前野町五丁目20番15号,1F,多目的トイレ,"設備: 車椅子対応, オストメイト対応, おむつ交換台",#00cc00,139.684519,35.770804
板橋東いこいの森,東京都 板橋区板橋四丁目45番6号,1F,車いす使用者用トイレ,設備: 車椅子対応,#00cc00,139.722384,35.751274
えび山広場,東京都 板橋区大谷口上町4番,1F,車いす使用者用トイレ,"設備: 車椅子対応, おむつ交換台",#00cc00,139.694941,35.750021
大谷口上町公園,東京都 板橋区大谷口上町50番3号,1F,多目的トイレ,"設備: 車椅子対応, オストメイト対応, おむつ交換台",#00cc00,139.691524,35.747357
さくらづつみ児童遊園,東京都 板橋区大谷口北町14番1号,1F,多目的トイレ,"設備: 車椅子対応, オストメイト対応, おむつ交換台",#00cc00,139.690068,35.752386
緑ケ丘第一公園,東京都 板橋区東新町一丁目27番8号,1F,車いす使用者用トイレ,設備: 車椅子対応,#00cc00,139.681182,35.756972
南板橋公園,東京都 板橋区板橋一丁目39番1号,1F,車いす使用者用トイレ,設備: 車椅子対応,#00cc00,139.714583,35.74821
赤塚植物園,東京都 板橋区赤塚五丁目17番14号,1F,多目的トイレ,"設備: 車椅子対応, オストメイト対応, 大型ベッド",#00cc00,139.644397,35.780894
赤塚六丁目公園,東京都 板橋区赤塚六丁目4番28号,1F,多目的トイレ,"設備: 車椅子対応, オストメイト対応, おむつ交換台",#00cc00,139.645338,35.773624
徳丸二丁目第二児童遊園,東京都 板橋区徳丸二丁目16番6号,1F,多目的トイレ,"設備: 車椅子対応, オストメイト対応, おむつ交換台",#00cc00,139.660567,35.773075
溝下東公園,東京都 板橋区三園一丁目49番26号,1F,だれでもトイレ,"設備: 車椅子対応, オストメイト対応, おむつ交換台",#00cc00,139.641856,35.791733
高島平一丁目公園,東京都 板橋区高島平一丁目23番１号,1F,だれでもトイレ,"設備: 車椅子対応, オストメイト対応, おむつ交換台",#00cc00,139.671617,35.782557
坂下二丁目公園,東京都 板橋区坂下二丁目1番4号,1F,バリアフリートイレ,"設備: 車椅子対応, オストメイト対応, おむつ交換台",#00cc00,139.687418,35.782485
真畔公園,東京都 板橋区蓮根三丁目9番26号,1F,バリアフリートイレ,"設備: 車椅子対応, オストメイト対応, おむつ交換台",#00cc00,139.675619,35.787271
三葉児童遊園,東京都 板橋区弥生町16番１号,1F,バリアフリートイレ,"設備: 車椅子対応, オストメイト対応, おむつ交換台",#00cc00,139.695132,35.752937
赤塚七丁目児童遊園,東京都 板橋区赤塚七丁目16番16号,1F,バリアフリートイレ,"設備: 車椅子対応, オストメイト対応, おむつ交換台",#00cc00,139.6486179,35.7761035
高島平九丁目第二公園,東京都 板橋区高島平九丁目30番1号,1F,多機能トイレ,"設備: 車椅子対応, オストメイト対応, おむつ交換台",#00cc00,139.6716475,35.79029243
高島平七丁目公園,東京都 板橋区高島平七丁目9番1号,1F,男女共用公衆トイレ,"設備: 車椅子対応, オストメイト対応, おむつ交換台",#00cc00,139.6558977,35.79077326
西台二丁目児童遊園,東京都 板橋区西台二丁目28番25号,1F,バリアフリートイレ,"設備: 車椅子対応, オストメイト対応, おむつ交換台",#00cc00,139.6674942,35.77991311
二塚公園,東京都 板橋区赤塚三丁目10番11号,1F,バリアフリートイレ,"設備: 車椅子対応, オストメイト対応, おむつ交換台",#00cc00,139.6383531,35.77736762
志村坂上公衆便所,東京都 板橋区志村二丁目3番2号,1F,多目的トイレ,"設備: 車椅子対応, オストメイト対応, おむつ交換台",#00cc00,139.694346,35.776598
本町公衆便所,東京都 板橋区本町18番5号,1F,多目的トイレ,"設備: 車椅子対応, オストメイト対応, おむつ交換台",#00cc00,139.707794,35.759605
成増駅南口公衆便所,東京都 板橋区成増二丁目14番7号,1F,車いす使用者用トイレ,設備: 車椅子対応,#00cc00,139.632541,35.777128
蓮根三丁目公衆便所,東京都 板橋区蓮根三丁目15番7号,1F,車いす使用者用トイレ,"設備: 車椅子対応, おむつ交換台",#00cc00,139.6772,35.788835
高島平西口公衆便所,東京都 板橋区高島平八丁目2番2号,1F,車いす使用者用トイレ,設備: 車椅子対応,#00cc00,139.66035,35.789045
常盤台駅前公衆便所,東京都 板橋区常盤台一丁目1番1号,1F,車いす使用者用トイレ,"設備: 車椅子対応, おむつ交換台",#00cc00,139.690015,35.758833
板橋区役所前公衆便所,東京都 板橋区板橋二丁目66番1号,1F,多目的トイレ,"設備: 車椅子対応, オストメイト対応, おむつ交換台",#00cc00,139.709541,35.75143
やよい防災ひろば,東京都 板橋区弥生町82番5号,1F,車いす使用者用トイレ,設備: 車椅子対応,#00cc00,139.690281,35.753819
大原生涯学習センター,東京都 板橋区大原町5番18号,2F,2階だれでもトイレ,年末年始（12/29〜1/3）および第三月曜日は休館日のため使用不可。 | 設備: 車椅子対応,#00cc00,139.70018,35.769664
成増生涯学習センター,東京都 板橋区成増一丁目12番4号,1F,1階多目的トイレ,第三月曜は休館のため１階のみ利用可能。（第三月曜日が祝日にあたる場合を除く。）その他休館日（年末年始）は利用不可。 | 設備: 車椅子対応,#00cc00,139.632777,35.774622
成増生涯学習センター,東京都 板橋区成増一丁目12番4号,2F,2階多目的トイレ,第三月曜は休館のため１階のみ利用可能。（第三月曜日が祝日にあたる場合を除く。）その他休館日（年末年始）は利用不可。 | 設備: 車椅子対応,#00cc00,139.632777,35.774622
成増生涯学習センター,東京都 板橋区成増一丁目12番4号,3F,3階多目的トイレ,第三月曜は休館のため１階のみ利用可能。（第三月曜日が祝日にあたる場合を除く。）その他休館日（年末年始）は利用不可。 | 設備: 車椅子対応,#00cc00,139.632777,35.774622
板橋区立リサイクルプラザ,東京都 板橋区舟渡四丁目16番6号,B1F,地下1階みんなのトイレ,"設備: 車椅子対応, 大型ベッド",#00cc00,139.676159,35.795662
板橋区立リサイクルプラザ,東京都 板橋区舟渡四丁目16番6号,1F,1階みんなのトイレ,"設備: 車椅子対応, オストメイト対応, 大型ベッド",#00cc00,139.676175,35.79567
板橋区立リサイクルプラザ,東京都 板橋区舟渡四丁目16番6号,2F,2階みんなのトイレ,"設備: 車椅子対応, 大型ベッド",#00cc00,139.676165,35.795673
板橋区立リサイクルプラザ,東京都 板橋区舟渡四丁目16番6号,3F,3階みんなのトイレ,"設備: 車椅子対応, 大型ベッド",#00cc00,139.675954,35.795639
エコポリスセンター (エコポリスセンター),東京都 板橋区前野町四丁目6番1号,1F,1階多目的トイレ,R6.〜故障中。（注）戸の形式は、押しボタン式自動回転扉。 | 設備: 車椅子対応,#00cc00,139.688758,35.769224
エコポリスセンター (エコポリスセンター),東京都 板橋区前野町四丁目6番1号,2F,2階多目的トイレ,設備: 車椅子対応,#00cc00,139.688661,35.769163
西徳児童館,東京都 板橋区西台四丁目4番37号,1F,1階多目的トイレ,"設備: 車椅子対応, オストメイト対応, おむつ交換台",#00cc00,139.668142,35.770158
しらさぎ児童館,東京都 板橋区成増五丁目19番41号,1F,1階多目的トイレ,"設備: 車椅子対応, オストメイト対応, おむつ交換台",#00cc00,139.636762,35.788527
上板橋健康福祉センター,東京都 板橋区桜川三丁目18番6号,1F,1階だれでもトイレ(通称),"設備: 車椅子対応, おむつ交換台",#00cc00,139.675503,35.760162
志村児童館,東京都 板橋区志村二丁目16番11号,1F,1階多目的トイレ,設備: 車椅子対応,#00cc00,139.685925,35.774855
赤塚健康福祉センター,東京都 板橋区赤塚一丁目10番13号,1F,1階だれでもトイレ,"設備: 車椅子対応, オストメイト対応, おむつ交換台",#00cc00,139.647109,35.772102
赤塚健康福祉センター,東京都 板橋区赤塚一丁目10番13号,3F,3階身障者用トイレ,設備: 車椅子対応,#00cc00,139.647109,35.772102
志村健康福祉センター,東京都 板橋区蓮根二丁目5番5号,1F,1階多目的トイレ,設備: 車椅子対応,#00cc00,139.677279,35.781214
志村健康福祉センター,東京都 板橋区蓮根二丁目5番5号,2F,2階多目的トイレ,設備: 車椅子対応,#00cc00,139.677316,35.781152
志村健康福祉センター,東京都 板橋区蓮根二丁目5番5号,3F,3階多目的トイレ,設備: 車椅子対応,#00cc00,139.677218,35.781104
高島平健康福祉センター,東京都 板橋区高島平三丁目13番28号,1F,1階だれでもトイレ,"設備: 車椅子対応, オストメイト対応, 大型ベッド, おむつ交換台",#00cc00,139.659392,35.788037
おとしより保健福祉センター,東京都 板橋区前野町四丁目16番1号,1F,1階車いす使用者用便所,設備: 車椅子対応,#00cc00,139.689851,35.771598
おとしより保健福祉センター,東京都 板橋区前野町四丁目16番1号,2F,2階福祉園前車いす使用者用便所,設備: 車椅子対応,#00cc00,139.689851,35.771598
おとしより保健福祉センター,東京都 板橋区前野町四丁目16番1号,2F,2階高齢者車いす使用者用便所,設備: 車椅子対応,#00cc00,139.689851,35.771598
おとしより保健福祉センター,東京都 板橋区前野町四丁目16番1号,3F,3階廊下車いす使用者用便所,設備: 車椅子対応,#00cc00,139.689851,35.771598
おとしより保健福祉センター,東京都 板橋区前野町四丁目16番1号,3F,3階高齢者用車いす使用者用便所,設備: 車椅子対応,#00cc00,139.689851,35.771598
おとしより保健福祉センター,東京都 板橋区前野町四丁目16番1号,3F,3階高齢者用車いす使用者用便所,設備: 車椅子対応,#00cc00,139.689851,35.771598
障がい者福祉センター,東京都 板橋区高島平九丁目25番12号,3F,3階車いす使用者用トイレ,"設備: 車椅子対応, オストメイト対応",#00cc00,139.668168,35.790458
障がい者福祉センター,東京都 板橋区高島平九丁目25番12号,4F,4階車いす使用者用トイレ,設備: 車椅子対応,#00cc00,139.66817,35.790462
上板橋体育館,東京都 板橋区桜川一丁目3番1号,1F,1階ロビー,設備: 車椅子対応,#00cc00,139.675679,35.757088
上板橋体育館,東京都 板橋区桜川一丁目3番1号,1F,1階プール入口,設備: 車椅子対応,#00cc00,139.675679,35.757088
上板橋体育館,東京都 板橋区桜川一丁目3番1号,2F,2階トレーニングルーム,設備: 車椅子対応,#00cc00,139.6758,35.757271
上板橋体育館,東京都 板橋区桜川一丁目3番1号,B1F,地下1階共用部廊下,設備: 車椅子対応,#00cc00,139.675679,35.757088
小豆沢体育館,東京都 板橋区小豆沢三丁目1番1号,1F,管理棟　1階ロビー,"設備: 車椅子対応, おむつ交換台",#00cc00,139.698012,35.778776
小豆沢体育館,東京都 板橋区小豆沢三丁目1番1号,2F,管理棟　2階廊下,"設備: 車椅子対応, オストメイト対応",#00cc00,139.698009,35.778808
小豆沢体育館,東京都 板橋区小豆沢三丁目1番1号,3F,管理棟　3階廊下,設備: 車椅子対応,#00cc00,139.698005,35.778808
小豆沢体育館,東京都 板橋区小豆沢三丁目1番1号,1F,プール棟　1階廊下,"設備: 車椅子対応, オストメイト対応, おむつ交換台",#00cc00,139.697617,35.778936
小豆沢体育館,東京都 板橋区小豆沢三丁目1番1号,B1F,プール棟　地下1階ロビー,"設備: 車椅子対応, おむつ交換台",#00cc00,139.697861,35.779083
小豆沢体育館,東京都 板橋区小豆沢三丁目1番1号,B1F,プール棟　地下1階だれでも更衣室横,"設備: 車椅子対応, 大型ベッド, おむつ交換台",#00cc00,139.697722,35.77916
赤塚体育館,東京都 板橋区赤塚五丁目6番1号,1F,体育館棟　1階だれでもトイレ,設備: 車椅子対応,#00cc00,139.641691,35.778017
赤塚体育館,東京都 板橋区赤塚五丁目6番1号,2F,体育館棟　2階だれでもトイレ,設備: 車椅子対応,#00cc00,139.641691,35.778018
赤塚体育館,東京都 板橋区赤塚五丁目6番1号,B2F,プール棟　地下2階だれでもトイレ,設備: 車椅子対応,#00cc00,139.641871,35.778271
高島平温水プール,東京都 板橋区高島平八丁目28番1号,1F,1階だれでもトイレ,"設備: 車椅子対応, オストメイト対応, おむつ交換台",#00cc00,139.664073,35.791519
高島平ふれあい館,東京都 板橋区高島平八丁目29番1号,1F,だれでもトイレ,"設備: 車椅子対応, オストメイト対応, おむつ交換台",#00cc00,139.664519,35.791854
中台ふれあい館,東京都 板橋区中台二丁目14番1号,1F,1階多目的トイレ,設備: 車椅子対応,#00cc00,139.68008,35.769949
中台ふれあい館,東京都 板橋区中台二丁目14番1号,2F,2階多目的トイレ,設備: 車椅子対応,#00cc00,139.6802014,35.769895
仲町ふれあい館,東京都 板橋区仲町20番5号,1F,1階多目的トイレ,"設備: 車椅子対応, オストメイト対応",#00cc00,139.69643,35.751091
仲町ふれあい館,東京都 板橋区仲町20番5号,1F,1階多目的トイレ,設備: 車椅子対応,#00cc00,139.696441,35.751068
仲町ふれあい館,東京都 板橋区仲町20番5号,2F,2階多目的トイレ,設備: 車椅子対応,#00cc00,139.696411,35.751209
仲町ふれあい館,東京都 板橋区仲町20番5号,3F,3階多目的トイレ,設備: 車椅子対応,#00cc00,139.696195,35.751164
仲町ふれあい館,東京都 板橋区仲町20番5号,4F,4階多目的トイレ,設備: 車椅子対応,#00cc00,139.696195,35.751164
仲町ふれあい館,東京都 板橋区仲町20番5号,B1F,地下1階多目的トイレ,設備: 車椅子対応,#00cc00,139.696299,35.751142
企業活性化センター,東京都 板橋区舟渡一丁目13番10号,2F,2階トイレ,設備: 車椅子対応,#00cc00,139.690984,35.792223
旧中丸いこいの家（熊野地域包括支援センター及び中丸集会所）,東京都 板橋区中丸町27番11号,1F,1階トイレ,設備: 車椅子対応,#00cc00,139.703291,35.741066
旧中丸いこいの家（熊野地域包括支援センター及び中丸集会所）,東京都 板橋区中丸町27番11号,2F,2階トイレ,設備: 車椅子対応,#00cc00,139.703307,35.741077
仲宿集会所,東京都 板橋区仲宿3番１号,1F,1階トイレ,設備: 車椅子対応,#00cc00,139.712438,35.756279
仲宿集会所,東京都 板橋区仲宿3番１号,2F,2階トイレ,設備: 車椅子対応,#00cc00,139.712479,35.756259
旧板橋いこいの家（ベルネススペース板橋）,東京都 板橋区板橋三丁目26番4号,1F,1階トイレ,設備: 車椅子対応,#00cc00,139.71358,35.750453
旧板橋いこいの家（ベルネススペース板橋）,東京都 板橋区板橋三丁目26番4号,2F,2階トイレ,設備: 車椅子対応,#00cc00,139.713682,35.750422
植村記念加賀スポーツセンター,東京都 板橋区加賀一丁目10番5号,1F,1階だれでもトイレ,"設備: 車椅子対応, オストメイト対応, 大型ベッド",#00cc00,139.715627,35.753766
植村記念加賀スポーツセンター,東京都 板橋区加賀一丁目10番5号,1F,バリアフリートイレ,"設備: 車椅子対応, オストメイト対応",#00cc00,139.715627,35.753766
植村記念加賀スポーツセンター,東京都 板橋区加賀一丁目10番5号,2F,2階だれでもトイレ,"設備: 車椅子対応, オストメイト対応, おむつ交換台",#00cc00,139.715627,35.753766
大山東児童館,東京都 板橋区大山東町8番7号,3F,3階多目的トイレ,設備: 車椅子対応,#00cc00,139.706258,35.747574
弥生児童館,東京都 板橋区弥生町16番2号,1F,1階多目的トイレ,"設備: 車椅子対応, オストメイト対応, おむつ交換台",#00cc00,139.694831,35.753122
徳丸ふれあい館,東京都 板橋区徳丸2-12-12,2F,２階多目的トイレ,店子施設であるきたのホール（徳丸地域センター管内）に設置 | 設備: 車椅子対応,#00cc00,139.66014,35.772004
板橋区立ハイライフ プラザ,東京都 板橋区板橋一丁目55番16号,1F,1階だれでもトイレ,設備: 車椅子対応,#00cc00,139.720417,35.747255
板橋区立ハイライフ プラザ,東京都 板橋区板橋一丁目55番16号,2F,2階だれでもトイレ,"設備: 車椅子対応, おむつ交換台",#00cc00,139.720417,35.747255
富士見地域包括支援センター,東京都 板橋区大和町26番3号,1F,１階トイレ,"設備: 車椅子対応, オストメイト対応, おむつ交換台",#00cc00,139.703257,35.763577
ウェルネススペース桜川及び桜川地域包括支援センター,東京都 板橋区東新町二丁目36番5号,1F,１階トイレ,"設備: 車椅子対応, オストメイト対応, おむつ交換台",#00cc00,139.680298,35.753798
板橋区立志村ふれあい館 (板橋区立志村ふれあい館・グリーンカレッジホール),東京都 板橋区志村三丁目32番6号,1F,1階だれでもトイレ（エントランス）,"設備: 車椅子対応, オストメイト対応, おむつ交換台",#00cc00,139.690282,35.778877
板橋区立志村ふれあい館 (板橋区立志村ふれあい館・グリーンカレッジホール),東京都 板橋区志村三丁目32番6号,1F,1階だれでもトイレ,設備: 車椅子対応,#00cc00,139.690282,35.778877
板橋区立志村ふれあい館 (板橋区立志村ふれあい館・グリーンカレッジホール),東京都 板橋区志村三丁目32番6号,2F,2階だれでもトイレ,"設備: 車椅子対応, おむつ交換台",#00cc00,139.690282,35.778877
板橋区立グリーンカレッジホール (板橋区立グリーンカレッジホール),東京都 板橋区志村三丁目32番6号,3F,３階多目的トイレ,"設備: 車椅子対応, おむつ交換台",#00cc00,139.690305,35.778973
板橋区立グリーンカレッジホール (板橋区立グリーンカレッジホール),東京都 板橋区志村三丁目32番6号,4F,４階多目的トイレ,"設備: 車椅子対応, おむつ交換台",#00cc00,139.690305,35.778973