name,address,floor,toilet_name,note,color,lng,lat
江東都税事務所 (江東合同庁舎),東京都 江東区大島三丁目1番3号,1F,車椅子使用者対応トイレ,"設備: 車椅子対応, オストメイト対応, おむつ交換台",#00cc00,139.827642,35.689993
東京都計量検定所,東京都 江東区新砂三丁目3番41号,1F,１階多目的トイレ,"設備: 車椅子対応, オストメイト対応, おむつ交換台",#00cc00,139.830941,35.665178
東京都計量検定所,東京都 江東区新砂三丁目3番41号,2F,２階多目的トイレ,"設備: 車椅子対応, おむつ交換台",#00cc00,139.830941,35.665178
東京都計量検定所,東京都 江東区新砂三丁目3番41号,3F,３階多目的トイレ,"設備: 車椅子対応, おむつ交換台",#00cc00,139.830941,35.665178
東京都計量検定所,東京都 江東区新砂三丁目3番41号,4F,４階多目的トイレ,"設備: 車椅子対応, おむつ交換台",#00cc00,139.83101,35.665397
東京都現代美術館,東京都 江東区三好4丁目1番地1号,B2F,多目的トイレ[B2-企画],"※休館日/月曜日、月曜が祝日の場合はその翌日（ただし、2020/5/4は開館） | 設備: 車椅子対応, オストメイト対応, おむつ交換台",#00cc00,139.808457,35.679556
東京都現代美術館,東京都 江東区三好4丁目1番地1号,B2F,多目的トイレ[B2-講堂],"※休館日/月曜日、月曜が祝日の場合はその翌日（ただし、2020/5/4は開館） | 設備: 車椅子対応, オストメイト対応",#00cc00,139.808202,35.679491
東京都現代美術館,東京都 江東区三好4丁目1番地1号,B1F,多目的トイレ[B1-図書室前],"※休館日/月曜日、月曜が祝日の場合はその翌日（ただし、2020/5/4は開館） | 設備: 車椅子対応, オストメイト対応",#00cc00,139.808832,35.67955
東京都現代美術館,東京都 江東区三好4丁目1番地1号,1F,多目的トイレ[1-ホワイエ],"※休館日/月曜日、月曜が祝日の場合はその翌日（ただし、2020/5/4は開館） | 設備: 車椅子対応, オストメイト対応",#00cc00,139.808619,35.679814
東京都現代美術館,東京都 江東区三好4丁目1番地1号,1F,多目的トイレ[1-常設],"※休館日/月曜日、月曜が祝日の場合はその翌日（ただし、2020/5/4は開館） | 設備: 車椅子対応, オストメイト対応",#00cc00,139.808713,35.679605
東京都現代美術館,東京都 江東区三好4丁目1番地1号,2F,多目的トイレ[2-企画],"※休館日/月曜日、月曜が祝日の場合はその翌日（ただし、2020/5/4は開館） | 設備: 車椅子対応, オストメイト対応, おむつ交換台",#00cc00,139.808286,35.679579
東京都現代美術館,東京都 江東区三好4丁目1番地1号,3F,多目的トイレ[3-常設],"※休館日/月曜日、月曜が祝日の場合はその翌日（ただし、2020/5/4は開館） | 設備: 車椅子対応, オストメイト対応",#00cc00,139.808652,35.679595
東京都現代美術館,東京都 江東区三好4丁目1番地1号,1F,多目的トイレ[1-事務棟],"※休館日/月曜日、月曜が祝日の場合はその翌日（ただし、2020/5/4は開館） | 設備: 車椅子対応, オストメイト対応",#00cc00,139.808583,35.679991
東京都現代美術館,東京都 江東区三好4丁目1番地1号,2F,多目的トイレ[2-事務棟],"※休館日/月曜日、月曜が祝日の場合はその翌日（ただし、2020/5/4は開館） | 設備: 車椅子対応, オストメイト対応",#00cc00,139.808524,35.680043
若洲海浜公園ヨット訓練所 (２号艇庫),東京都 江東区若洲三丁目1番1号,1F,新艇庫オスメイトトイレ,"設備: 車椅子対応, オストメイト対応",#00cc00,139.837849,35.630643
有明テニスの森公園テニス施設 (有明テニスの森公園),東京都 江東区有明二丁目二番22号,1F,クラブハウス１階男女共用トイレ１,手すりは△片方水平なし。 | 設備: 車椅子対応,#00cc00,139.787202,35.63585
有明テニスの森公園テニス施設 (有明テニスの森公園),東京都 江東区有明二丁目二番22号,1F,クラブハウス１階男子トイレ１,"設備: 車椅子対応, オストメイト対応",#00cc00,139.787239,35.635844
有明テニスの森公園テニス施設 (有明テニスの森公園),東京都 江東区有明二丁目二番22号,1F,クラブハウス１階女子トイレ１,"設備: 車椅子対応, オストメイト対応",#00cc00,139.787175,35.635921
有明テニスの森公園テニス施設 (有明テニスの森公園),東京都 江東区有明二丁目二番22号,1F,クラブハウス１階車いす対応トイレ１,"設備: 車椅子対応, オストメイト対応, 大型ベッド, おむつ交換台",#00cc00,139.787578,35.635494
有明テニスの森公園テニス施設 (有明テニスの森公園),東京都 江東区有明二丁目二番22号,1F,クラブハウス１階男子トイレ２,"設備: 車椅子対応, おむつ交換台",#00cc00,139.78764,35.635466
有明テニスの森公園テニス施設 (有明テニスの森公園),東京都 江東区有明二丁目二番22号,1F,クラブハウス１階女子トイレ２,"設備: 車椅子対応, おむつ交換台",#00cc00,139.787664,35.635437
有明テニスの森公園テニス施設 (有明テニスの森公園),東京都 江東区有明二丁目二番22号,2F,クラブハウス２階車いす対応トイレ,"設備: 車椅子対応, オストメイト対応",#00cc00,139.787418,35.63565
有明テニスの森公園テニス施設 (有明テニスの森公園),東京都 江東区有明二丁目二番22号,2F,クラブハウス２階男子トイレ,"設備: 車椅子対応, おむつ交換台",#00cc00,139.787393,35.635688
有明テニスの森公園テニス施設 (有明テニスの森公園),東京都 江東区有明二丁目二番22号,2F,クラブハウス２階女子トイレ,"設備: 車椅子対応, おむつ交換台",#00cc00,139.787363,35.635718
有明テニスの森公園テニス施設 (有明テニスの森公園),東京都 江東区有明二丁目二番22号,1F,コロシアム１階車いす対応トイレE１,イベント開催時のみ使用できます。 | 設備: 車椅子対応,#00cc00,139.790399,35.636639
有明テニスの森公園テニス施設 (有明テニスの森公園),東京都 江東区有明二丁目二番22号,1F,コロシアム１階男女共用トイレE,イベント開催時のみ使用できます。 | 設備: 車椅子対応,#00cc00,139.790561,35.636404
有明テニスの森公園テニス施設 (有明テニスの森公園),東京都 江東区有明二丁目二番22号,1F,コロシアム１階車いす対応トイレE２,"イベント開催時のみ使用できます。 | 設備: 車椅子対応, オストメイト対応, おむつ交換台",#00cc00,139.790572,35.636193
有明テニスの森公園テニス施設 (有明テニスの森公園),東京都 江東区有明二丁目二番22号,1F,コロシアム１階多車いす対応トイレW２,"イベント開催時のみ使用できます。 | 設備: 車椅子対応, おむつ交換台",#00cc00,139.789842,35.635984
有明テニスの森公園テニス施設 (有明テニスの森公園),東京都 江東区有明二丁目二番22号,1F,コロシアム１階男女共用トイレW,イベント開催時のみ使用できます。 | 設備: 車椅子対応,#00cc00,139.78971,35.636138
有明テニスの森公園テニス施設 (有明テニスの森公園),東京都 江東区有明二丁目二番22号,1F,コロシアム１階車いす対応トイレW１,"イベント開催時のみ使用できます。 | 設備: 車椅子対応, オストメイト対応, 大型ベッド, おむつ交換台",#00cc00,139.789657,35.636409
有明テニスの森公園テニス施設 (有明テニスの森公園),東京都 江東区有明二丁目二番22号,2F,コロシアム２階車いす対応トイレE,"イベント開催時のみ使用できます。 | 設備: 車椅子対応, オストメイト対応, 大型ベッド, おむつ交換台",#00cc00,139.790662,35.636535
有明テニスの森公園テニス施設 (有明テニスの森公園),東京都 江東区有明二丁目二番22号,2F,コロシアム２階男女共用トイレE,イベント開催時のみ使用できます。 | 設備: 車椅子対応,#00cc00,139.79069,35.636466
有明テニスの森公園テニス施設 (有明テニスの森公園),東京都 江東区有明二丁目二番22号,2F,コロシアム２階車いす対応トイレS,イベント開催時のみ使用できます。 | 設備: 車椅子対応,#00cc00,139.790359,35.635694
有明テニスの森公園テニス施設 (有明テニスの森公園),東京都 江東区有明二丁目二番22号,2F,コロシアム２階車いす対応トイレW,"イベント開催時のみ使用できます。 | 設備: 車椅子対応, オストメイト対応, 大型ベッド, おむつ交換台",#00cc00,139.789627,35.636146
有明テニスの森公園テニス施設 (有明テニスの森公園),東京都 江東区有明二丁目二番22号,3F,コロシアム3階女子トイレE,イベント開催時のみ使用できます。手すりは△水平片方のみ | 設備: オストメイト対応,#00cc00,139.790727,35.636542
有明テニスの森公園テニス施設 (有明テニスの森公園),東京都 江東区有明二丁目二番22号,3F,コロシアム3階男子トイレE,"イベント開催時のみ使用できます。手すりは△水平片方のみ | 設備: オストメイト対応, おむつ交換台",#00cc00,139.790766,35.63643
有明テニスの森公園テニス施設 (有明テニスの森公園),東京都 江東区有明二丁目二番22号,3F,コロシアム3階男女共用トイレW,イベント開催時のみ使用できます。 | 設備: 車椅子対応,#00cc00,139.789564,35.636049
有明テニスの森公園テニス施設 (有明テニスの森公園),東京都 江東区有明二丁目二番22号,3F,コロシアム3階女子トイレW,イベント開催時のみ使用できます。手すりは△水平片方のみ | 設備: オストメイト対応,#00cc00,139.789541,35.636116
有明テニスの森公園テニス施設 (有明テニスの森公園),東京都 江東区有明二丁目二番22号,3F,コロシアム3階男子トイレW,"イベント開催時のみ使用できます。手すりは△水平片方のみ | 設備: オストメイト対応, おむつ交換台",#00cc00,139.789508,35.636183
有明テニスの森公園テニス施設 (有明テニスの森公園),東京都 江東区有明二丁目二番22号,2F,ショーコート２階車いす対応トイレ１,イベント開催時のみ使用できます。 | 設備: 車椅子対応,#00cc00,139.789263,35.634871
有明テニスの森公園テニス施設 (有明テニスの森公園),東京都 江東区有明二丁目二番22号,2F,ショーコート２階女子トイレ,"※手洗い場におむつ交換台あり。イベント開催時のみ使用できます。 | 設備: 車椅子対応, おむつ交換台",#00cc00,139.789219,35.634849
有明テニスの森公園テニス施設 (有明テニスの森公園),東京都 江東区有明二丁目二番22号,2F,ショーコート２階男女共用トイレ,"イベント開催時のみ使用できます。 | 設備: 車椅子対応, 大型ベッド, おむつ交換台",#00cc00,139.788946,35.634782
有明テニスの森公園テニス施設 (有明テニスの森公園),東京都 江東区有明二丁目二番22号,2F,ショーコート２階男子トイレ,"イベント開催時のみ使用できます。 | 設備: 車椅子対応, おむつ交換台",#00cc00,139.789022,35.634794
有明テニスの森公園テニス施設 (有明テニスの森公園),東京都 江東区有明二丁目二番22号,2F,ショーコート２階女子トイレ,イベント開催時のみ使用できます。 | 設備: 車椅子対応,#00cc00,139.788658,35.635025
有明テニスの森公園テニス施設 (有明テニスの森公園),東京都 江東区有明二丁目二番22号,2F,ショーコート２階男子トイレ,"イベント開催時のみ使用できます。 | 設備: 車椅子対応, おむつ交換台",#00cc00,139.788579,35.635214
有明テニスの森公園テニス施設 (有明テニスの森公園),東京都 江東区有明二丁目二番22号,2F,ショーコート２階車いす対応トイレ２,イベント開催時のみ使用できます。 | 設備: 車椅子対応,#00cc00,139.788638,35.635541
有明テニスの森公園テニス施設 (有明テニスの森公園),東京都 江東区有明二丁目二番22号,2F,ショーコート２階女子トイレ,"※手洗い場におむつ交換台あり。イベント開催時のみ使用できます。 | 設備: 車椅子対応, オストメイト対応, おむつ交換台",#00cc00,139.788703,35.635562
有明テニスの森公園テニス施設 (有明テニスの森公園),東京都 江東区有明二丁目二番22号,2F,ショーコート２階男子トイレ,"※手洗い場におむつ交換台あり。イベント開催時のみ使用できます。 | 設備: 車椅子対応, オストメイト対応, おむつ交換台",#00cc00,139.788885,35.635597
有明テニスの森公園テニス施設 (有明テニスの森公園),東京都 江東区有明二丁目二番22号,2F,ショーコート２階女子トイレ,"イベント開催時のみ使用できます。 | 設備: 車椅子対応, おむつ交換台",#00cc00,139.789281,35.635376
有明テニスの森公園テニス施設 (有明テニスの森公園),東京都 江東区有明二丁目二番22号,2F,ショーコート２階男子トイレ,イベント開催時のみ使用できます。 | 設備: 車椅子対応,#00cc00,139.789333,35.635178
有明テニスの森公園テニス施設 (有明テニスの森公園),東京都 江東区有明二丁目二番22号,屋外,外構コロシアム近く車いす対応トイレ,"設備: 車椅子対応, オストメイト対応, 大型ベッド, おむつ交換台",#00cc00,139.789031,35.636453
有明テニスの森公園テニス施設 (有明テニスの森公園),東京都 江東区有明二丁目二番22号,屋外,外構屋外コート1・2近くWC棟男子トイレ１,"設備: 車椅子対応, おむつ交換台",#00cc00,139.78759,35.634909
有明テニスの森公園テニス施設 (有明テニスの森公園),東京都 江東区有明二丁目二番22号,屋外,外構屋外コート1・2近くWC棟女子トイレ１,"設備: 車椅子対応, おむつ交換台",#00cc00,139.787467,35.634832
有明テニスの森公園テニス施設 (有明テニスの森公園),東京都 江東区有明二丁目二番22号,屋外,外構屋外コート1・2近くWC棟車いす対応トイレ１,"設備: 車椅子対応, オストメイト対応",#00cc00,139.787262,35.63471
有明テニスの森公園テニス施設 (有明テニスの森公園),東京都 江東区有明二丁目二番22号,屋外,A４コート外側WC棟男子トイレ２,"設備: 車椅子対応, おむつ交換台",#00cc00,139.788362,35.634882
有明テニスの森公園テニス施設 (有明テニスの森公園),東京都 江東区有明二丁目二番22号,屋外,A４コート外側WC棟女子トイレ２,"設備: 車椅子対応, おむつ交換台",#00cc00,139.788287,35.63476
有明テニスの森公園テニス施設 (有明テニスの森公園),東京都 江東区有明二丁目二番22号,屋外,A４コート外側WC棟車いす対応トイレ２,"設備: 車椅子対応, オストメイト対応",#00cc00,139.788362,35.634698
有明テニスの森公園テニス施設 (有明テニスの森公園),東京都 江東区有明二丁目二番22号,2F,コロシアム２階車いす対応トイレN,"イベント開催時のみ使用できます。 | 設備: 車椅子対応, オストメイト対応",#00cc00,139.789811,35.636831
有明テニスの森公園テニス施設 (有明テニスの森公園),東京都 江東区有明二丁目二番22号,屋外,A８コート脇男子便所,"設備: 車椅子対応, おむつ交換台",#00cc00,139.786435,35.634225
有明テニスの森公園テニス施設 (有明テニスの森公園),東京都 江東区有明二丁目二番22号,屋外,A８コート脇女子便所,"設備: 車椅子対応, おむつ交換台",#00cc00,139.786435,35.634225
有明テニスの森公園テニス施設 (有明テニスの森公園),東京都 江東区有明二丁目二番22号,屋外,A８コート脇多目的トイレ,"設備: 車椅子対応, オストメイト対応",#00cc00,139.786435,35.634225
有明テニスの森公園テニス施設 (有明テニスの森公園),東京都 江東区有明二丁目二番22号,屋外,A19コート脇男子便所,"設備: 車椅子対応, おむつ交換台",#00cc00,139.787499,35.63485
有明テニスの森公園テニス施設 (有明テニスの森公園),東京都 江東区有明二丁目二番22号,屋外,A19コート脇屋女子便所,"設備: 車椅子対応, おむつ交換台",#00cc00,139.787467,35.634832
有明テニスの森公園テニス施設 (有明テニスの森公園),東京都 江東区有明二丁目二番22号,屋外,A19コート脇多目的トイレ,"設備: 車椅子対応, オストメイト対応",#00cc00,139.787442,35.634821
有明テニスの森公園テニス施設 (有明テニスの森公園),東京都 江東区有明二丁目二番22号,屋外,Cコート内車いす対応トイレ,コートの利用時間が季節変動あり | 設備: 車椅子対応,#00cc00,139.785611,35.635035
有明アリーナ (メディア・会議),東京都 江東区有明１丁目１１番１号,1F,車いすトイレ1-37,"供用開始の時期は現在調整中です。 | 設備: 車椅子対応, オストメイト対応, 大型ベッド",#00cc00,139.79555,35.642986
有明アリーナ (大会運営),東京都 江東区有明１丁目１１番１号,1F,車いすトイレ1-30,"供用開始の時期は現在調整中です。 | 設備: 車椅子対応, オストメイト対応, 大型ベッド",#00cc00,139.795196,35.642961
有明アリーナ (選手),東京都 江東区有明１丁目１１番１号,1F,車いすトイレ（西２）1-27,供用開始の時期は現在調整中です。 | 設備: 車椅子対応,#00cc00,139.794893,35.643074
有明アリーナ (選手),東京都 江東区有明１丁目１１番１号,1F,車いすトイレ（西２）1-26,供用開始の時期は現在調整中です。 | 設備: 車椅子対応,#00cc00,139.794868,35.643064
有明アリーナ (観客),東京都 江東区有明１丁目１１番１号,1F,車いすトイレ1-23,"供用開始の時期は現在調整中です。 | 設備: 車椅子対応, オストメイト対応",#00cc00,139.794533,35.642888
有明アリーナ (観客),東京都 江東区有明１丁目１１番１号,1F,車いすトイレ1-22,供用開始の時期は現在調整中です。 | 設備: 車椅子対応,#00cc00,139.794506,35.642873
有明アリーナ (観客),東京都 江東区有明１丁目１１番１号,1F,車いすトイレ1-20,"供用開始の時期は現在調整中です。 | 設備: 車椅子対応, オストメイト対応",#00cc00,139.794487,35.642622
有明アリーナ (観客),東京都 江東区有明１丁目１１番１号,1F,車いすトイレ1-21,供用開始の時期は現在調整中です。 | 設備: 車椅子対応,#00cc00,139.794506,35.642595
有明アリーナ (複合用途),東京都 江東区有明１丁目１１番１号,1F,車いすトイレ・WC（東1-7）,供用開始の時期は現在調整中です。 | 設備: 車椅子対応,#00cc00,139.793619,35.643572
有明アリーナ (外部),東京都 江東区有明１丁目１１番１号,1F,車いすトイレ1-1,"供用開始の時期は現在調整中です。 | 設備: 車椅子対応, オストメイト対応, 大型ベッド",#00cc00,139.793494,35.643788
有明アリーナ (観客),東京都 江東区有明１丁目１１番１号,2F,車いすトイレ（北）2-14,供用開始の時期は現在調整中です。 | 設備: 車椅子対応,#00cc00,139.794421,35.642821
有明アリーナ (観客),東京都 江東区有明１丁目１１番１号,2F,車いすトイレ（西）2-26,"供用開始の時期は現在調整中です。 | 設備: 車椅子対応, オストメイト対応",#00cc00,139.794538,35.642628
有明アリーナ (観客),東京都 江東区有明１丁目１１番１号,2F,車いすトイレ（西）2-12,"供用開始の時期は現在調整中です。 | 設備: 車椅子対応, オストメイト対応, 大型ベッド",#00cc00,139.794176,35.642781
有明アリーナ (観客),東京都 江東区有明１丁目１１番１号,2F,車いすトイレ（南西）2-11,供用開始の時期は現在調整中です。 | 設備: 車椅子対応,#00cc00,139.794018,35.642946
有明アリーナ (観客),東京都 江東区有明１丁目１１番１号,2F,車いすトイレ（南）2-8,供用開始の時期は現在調整中です。 | 設備: 車椅子対応,#00cc00,139.793648,35.643379
有明アリーナ (観客),東京都 江東区有明１丁目１１番１号,2F,車いすトイレ（東）2-4,供用開始の時期は現在調整中です。 | 設備: 車椅子対応,#00cc00,139.794076,35.64395
有明アリーナ (観客),東京都 江東区有明１丁目１１番１号,2F,車いすトイレ（東）2-1,"供用開始の時期は現在調整中です。 | 設備: 車椅子対応, オストメイト対応, 大型ベッド",#00cc00,139.794366,35.644007
有明アリーナ (観客),東京都 江東区有明１丁目１１番１号,2F,車いすトイレ（北東）2-22,供用開始の時期は現在調整中です。 | 設備: 車椅子対応,#00cc00,139.79453,35.643841
有明アリーナ (管理運営),東京都 江東区有明１丁目１１番１号,2F,車いすトイレ　2-19,供用開始の時期は現在調整中です。 | 設備: 車椅子対応,#00cc00,139.794894,35.643399
有明アリーナ (VIP),東京都 江東区有明１丁目１１番１号,3F,車いすトイレ（VIP）3-16,供用開始の時期は現在調整中です。 | 設備: 車椅子対応,#00cc00,139.794531,35.643675
有明アリーナ (観客),東京都 江東区有明１丁目１１番１号,3F,車いすトイレ（南西）3-1-3,"供用開始の時期は現在調整中です。 | 設備: 車椅子対応, オストメイト対応, 大型ベッド",#00cc00,139.794148,35.644078
有明アリーナ (観客),東京都 江東区有明１丁目１１番１号,3F,車いすトイレ　3-6-5,"供用開始の時期は現在調整中です。 | 設備: 車椅子対応, オストメイト対応, 大型ベッド",#00cc00,139.793705,35.643063
有明アリーナ (観客),東京都 江東区有明１丁目１１番１号,3F,車いすトイレ（北東）3-8-3,"供用開始の時期は現在調整中です。 | 設備: 車椅子対応, オストメイト対応, 大型ベッド",#00cc00,139.79401,35.642877
有明アリーナ (観客),東京都 江東区有明１丁目１１番１号,4F,車いすトイレ（南西）4-1,供用開始の時期は現在調整中です。 | 設備: 車椅子対応,#00cc00,139.793908,35.642755
有明アリーナ (観客),東京都 江東区有明１丁目１１番１号,4F,車いすトイレ（北東）4-2,供用開始の時期は現在調整中です。 | 設備: 車椅子対応,#00cc00,139.794201,35.644203
東京アクアティクスセンター (東京アクアティクスセンター),東京都 江東区辰巳２丁目２番１号,1F,車いす対応トイレ１,"西側南 | 設備: 車椅子対応, オストメイト対応, 大型ベッド",#00cc00,139.8146,35.650681
東京アクアティクスセンター (東京アクアティクスセンター),東京都 江東区辰巳２丁目２番１号,1F,車いす対応トイレ２,"関係者トイレ | 設備: 車椅子対応, おむつ交換台",#00cc00,139.814456,35.651464
東京アクアティクスセンター (東京アクアティクスセンター),東京都 江東区辰巳２丁目２番１号,1F,車いす対応トイレ３,"サブプール | 設備: 車椅子対応, 大型ベッド",#00cc00,139.815815,35.650683
東京アクアティクスセンター (東京アクアティクスセンター),東京都 江東区辰巳２丁目２番１号,1F,車いす対応トイレ４,"サブプール | 設備: 車椅子対応, 大型ベッド",#00cc00,139.815726,35.650818
東京アクアティクスセンター (東京アクアティクスセンター),東京都 江東区辰巳２丁目２番１号,1F,車いす対応トイレ５,"メインプール | 設備: 車椅子対応, 大型ベッド",#00cc00,139.81559,35.651377
東京アクアティクスセンター (東京アクアティクスセンター),東京都 江東区辰巳２丁目２番１号,1F,車いす対応トイレ６,"メインプール | 設備: 車椅子対応, おむつ交換台",#00cc00,139.815626,35.651379
東京アクアティクスセンター (東京アクアティクスセンター),東京都 江東区辰巳２丁目２番１号,1F,車いす対応トイレ７,"東側関係者内 | 設備: 車椅子対応, 大型ベッド",#00cc00,139.815581,35.651746
東京アクアティクスセンター (東京アクアティクスセンター),東京都 江東区辰巳２丁目２番１号,1F,車いす対応トイレ８,東側関係者外 | 設備: 車椅子対応,#00cc00,139.815622,35.651747
東京アクアティクスセンター (東京アクアティクスセンター),東京都 江東区辰巳２丁目２番１号,2階,車いす対応トイレ９,西側内 | 設備: 車椅子対応,#00cc00,139.814526,35.650906
東京アクアティクスセンター (東京アクアティクスセンター),東京都 江東区辰巳２丁目２番１号,2階,車いす対応トイレ１０,"西側外 | 設備: 車椅子対応, 大型ベッド",#00cc00,139.814462,35.650907
東京アクアティクスセンター (東京アクアティクスセンター),東京都 江東区辰巳２丁目２番１号,2階,車いす対応トイレ１１,東側内 | 設備: 車椅子対応,#00cc00,139.815585,35.651025
東京アクアティクスセンター (東京アクアティクスセンター),東京都 江東区辰巳２丁目２番１号,2階,車いす対応トイレ１２,"東側外 | 設備: 車椅子対応, オストメイト対応, 大型ベッド",#00cc00,139.815645,35.651041
東京アクアティクスセンター (東京アクアティクスセンター),東京都 江東区辰巳２丁目２番１号,3階,車いす対応トイレ１３,"西側左 | 設備: 車椅子対応, 大型ベッド",#00cc00,139.814355,35.650799
東京アクアティクスセンター (東京アクアティクスセンター),東京都 江東区辰巳２丁目２番１号,3階,車いす対応トイレ１４,西側右 | 設備: 車椅子対応,#00cc00,139.814346,35.650826
東京アクアティクスセンター (東京アクアティクスセンター),東京都 江東区辰巳２丁目２番１号,3階,車いす対応トイレ１５,"東側左 | 設備: 車椅子対応, 大型ベッド",#00cc00,139.815559,35.650894
東京アクアティクスセンター (東京アクアティクスセンター),東京都 江東区辰巳２丁目２番１号,3階,車いす対応トイレ１６,"東側右 | 設備: 車椅子対応, オストメイト対応",#00cc00,139.815555,35.650918
東京アクアティクスセンター (東京アクアティクスセンター),東京都 江東区辰巳２丁目２番１号,1F,車いす対応トイレ１９,"西側オーエンス入口 | 設備: 車椅子対応, おむつ交換台",#00cc00,139.814494,35.651253
海の森水上競技場 (グランドスタンド棟),東京都 江東区海の森３丁目６番44号,1F,車いす対応トイレ,"イベント開催時のみ使用できます。 | 設備: 車椅子対応, オストメイト対応, 大型ベッド",#00cc00,139.816382,35.607815
海の森水上競技場 (グランドスタンド棟),東京都 江東区海の森３丁目６番44号,1F,車いす対応トイレ,"イベント開催時のみ使用できます。 | 設備: 車椅子対応, オストメイト対応, 大型ベッド",#00cc00,139.816573,35.607914
海の森水上競技場 (グランドスタンド棟),東京都 江東区海の森３丁目６番44号,2F,車いす対応トイレ,"イベント開催時のみ使用できます。 | 設備: 車椅子対応, オストメイト対応, 大型ベッド",#00cc00,139.816517,35.607976
海の森水上競技場 (艇庫棟),東京都 江東区海の森３丁目６番44号,1F,車いす対応トイレ,"介助用シート | 設備: 車椅子対応, オストメイト対応, 大型ベッド",#00cc00,139.817108,35.608452
海の森水上競技場 (艇庫棟),東京都 江東区海の森３丁目６番44号,2F,車いす対応トイレ,"介助用シート | 設備: 車椅子対応, オストメイト対応, 大型ベッド",#00cc00,139.817042,35.608536
海の森水上競技場 (艇庫棟),東京都 江東区海の森３丁目６番44号,2F,車いす対応トイレ,"介助用シート | 設備: 車椅子対応, オストメイト対応, 大型ベッド",#00cc00,139.817697,35.608812
海の森水上競技場 (フィニッシュタワー棟),東京都 江東区海の森３丁目６番44号,1F,車いす対応トイレ,"設備: 車椅子対応, オストメイト対応, 大型ベッド, おむつ交換台",#00cc00,139.8164151,35.60774551
海の森水上競技場 (第二艇庫棟),東京都 江東区海の森３丁目６番44号,1F,車いす対応トイレ,"設備: 車椅子対応, オストメイト対応, おむつ交換台",#00cc00,139.8169147,35.60834685
海の森水上競技場 (中央トイレ(屋外)),東京都 江東区海の森３丁目６番44号,1F,屋外トイレ,"設備: 車椅子対応, オストメイト対応, おむつ交換台",#00cc00,139.8140882,35.60679441
海の森水上競技場 (西側トイレ(屋外)),東京都 江東区海の森３丁目６番44号,1F,屋外トイレ,"設備: 車椅子対応, オストメイト対応, おむつ交換台",#00cc00,139.8084656,35.60351587
環境局中防合同庁舎,東京都 江東区海の森二丁目4番76号,1F,だれでもトイレ,"設備: 車椅子対応, オストメイト対応, 大型ベッド, おむつ交換台",#00cc00,139.799966,35.599313
環境局中防合同庁舎,東京都 江東区海の森二丁目4番76号,1F,身障者用便所,設備: 車椅子対応,#00cc00,139.799962,35.599316
環境局中防合同庁舎,東京都 江東区海の森二丁目4番76号,10F,身障者用便所,設備: 車椅子対応,#00cc00,139.799966,35.599316
東京都環境科学研究所,東京都 江東区新砂一丁目7番5号,1F,バリアフリートイレ,"設備: 車椅子対応, オストメイト対応",#00cc00,139.824254,35.668263
水素情報館　東京スイソミル,東京都 江東区潮見一丁目3番2号,1F,多目的トイレ,"設備: 車椅子対応, オストメイト対応, おむつ交換台",#00cc00,139.811489,35.656626
第三排水処理場,東京都 江東区海の森三丁目5番25号,1F,身障者用便所,施設の出入口は段差あり、スロープなし | 設備: 車椅子対応,#00cc00,139.806527,35.602991
東京ビッグサイト (東京ビッグサイト東棟),東京都 江東区有明三丁目10番1号,1F,東京ビッグサイト東棟1階だれでもトイレ　7ホール内（女性用）,"設備: 車椅子対応, オストメイト対応, おむつ交換台",#00cc00,139.798662,35.633601
東京ビッグサイト (東京ビッグサイト東棟),東京都 江東区有明三丁目10番1号,1F,東京ビッグサイト東棟1階だれでもトイレ　7ホール内（男性用）,"設備: 車椅子対応, オストメイト対応, おむつ交換台",#00cc00,139.798754,35.633486
東京ビッグサイト (東京ビッグサイト東棟),東京都 江東区有明三丁目10番1号,1F,東京ビッグサイト東棟1階だれでもトイレ　8ホール内,"設備: 車椅子対応, オストメイト対応, おむつ交換台",#00cc00,139.799871,35.632555
東京ビッグサイト (東京ビッグサイト東棟),東京都 江東区有明三丁目10番1号,1F,東京ビッグサイト東棟1階だれでもトイレ　西エントランス1,"設備: 車椅子対応, オストメイト対応, 大型ベッド, おむつ交換台",#00cc00,139.796595,35.631348
東京ビッグサイト (東京ビッグサイト東棟),東京都 江東区有明三丁目10番1号,1F,東京ビッグサイト東棟1階だれでもトイレ　西エントランス2,"設備: 車椅子対応, オストメイト対応, 大型ベッド, おむつ交換台",#00cc00,139.796639,35.631367
東京ビッグサイト (東京ビッグサイト東棟),東京都 江東区有明三丁目10番1号,1F,東京ビッグサイト東棟1階だれでもトイレ　リンクスペース（女性用）,"設備: 車椅子対応, オストメイト対応, おむつ交換台",#00cc00,139.799866,35.632777
東京ビッグサイト (東京ビッグサイト東棟),東京都 江東区有明三丁目10番1号,1F,東京ビッグサイト東棟1階だれでもトイレ　リンクスペース（男性用）,"設備: 車椅子対応, オストメイト対応, おむつ交換台",#00cc00,139.799322,35.632699
東京ビッグサイト (東京ビッグサイト会議棟),東京都 江東区有明三丁目11番1号,2F,東京ビッグサイト会議棟2階だれでもトイレ　エントランスホール1,"設備: 車椅子対応, オストメイト対応, 大型ベッド, おむつ交換台",#00cc00,139.795237,35.630194
東京ビッグサイト (東京ビッグサイト会議棟),東京都 江東区有明三丁目11番1号,2F,東京ビッグサイト会議棟2階だれでもトイレ　エントランスホール2,"設備: 車椅子対応, オストメイト対応, 大型ベッド, おむつ交換台",#00cc00,139.795267,35.630208
東京ビッグサイト (東京ビッグサイト東棟),東京都 江東区有明三丁目10番1号,2F,東京ビッグサイト東棟2階だれでもトイレ　西側1,"設備: 車椅子対応, オストメイト対応",#00cc00,139.7965,35.630904
東京ビッグサイト (東京ビッグサイト東棟),東京都 江東区有明三丁目10番1号,2F,東京ビッグサイト東棟2階だれでもトイレ　西側2,"設備: 車椅子対応, オストメイト対応",#00cc00,139.796536,35.63092
東京ビッグサイト (東京ビッグサイト南棟),東京都 江東区有明三丁目11番1号,1F,東京ビッグサイト南棟1階だれでもトイレ　インフォツリー,"「利用時間その他」欄に""催事開催状況により変動あり""を追加 | 設備: 車椅子対応, オストメイト対応, 大型ベッド",#00cc00,139.79503,35.627532
東京ビッグサイト (東京ビッグサイト南棟),東京都 江東区有明三丁目11番1号,4F,東京ビッグサイト南棟4階だれでもトイレ　インフォツリー,"「利用時間その他」欄に""催事開催状況により変動あり""を追加 | 設備: 車椅子対応, オストメイト対応, 大型ベッド, おむつ交換台",#00cc00,139.795035,35.627528
東京ビッグサイト (東京ビッグサイト立体駐車場),東京都 江東区有明三丁目11番1号,1F,東京ビッグサイト南棟立体駐車場1階だれでもトイレ,"「利用時間その他」欄に""催事開催状況により変動あり""を追加 | 設備: 車椅子対応, オストメイト対応, 大型ベッド",#00cc00,139.79559,35.626086
東京ビッグサイト (東京ビッグサイト立体駐車場),東京都 江東区有明三丁目11番1号,2F,東京ビッグサイト南棟立体駐車場2階だれでもトイレ,"「利用時間その他」欄に""催事開催状況により変動あり""を追加 | 設備: 車椅子対応, オストメイト対応, 大型ベッド",#00cc00,139.79559,35.626085
東京ビッグサイト (東京ビッグサイト立体駐車場),東京都 江東区有明三丁目11番1号,3F,東京ビッグサイト南棟立体駐車場3階だれでもトイレ,"「利用時間その他」欄に""催事開催状況により変動あり""を追加 | 設備: 車椅子対応, オストメイト対応, 大型ベッド",#00cc00,139.795589,35.626085
東京ビッグサイト (東京ビッグサイト立体駐車場),東京都 江東区有明三丁目11番1号,4F,東京ビッグサイト南棟立体駐車場4階だれでもトイレ,"「利用時間その他」欄に""催事開催状況により変動あり""を追加 | 設備: 車椅子対応, オストメイト対応, 大型ベッド",#00cc00,139.795589,35.626085
東京ビッグサイト (東京ビッグサイト立体駐車場),東京都 江東区有明三丁目11番1号,5F,東京ビッグサイト南棟立体駐車場5階だれでもトイレ,"「利用時間その他」欄に""催事開催状況により変動あり""を追加 | 設備: 車椅子対応, オストメイト対応, 大型ベッド",#00cc00,139.795589,35.626085
東京ビッグサイト (東京ビッグサイト立体駐車場),東京都 江東区有明三丁目11番1号,6F,東京ビッグサイト南棟立体駐車場6階だれでもトイレ,"「利用時間その他」欄に""催事開催状況により変動あり""を追加 | 設備: 車椅子対応, オストメイト対応, 大型ベッド",#00cc00,139.795589,35.626085
東京ビッグサイト (東京ビッグサイト立体駐車場),東京都 江東区有明三丁目11番1号,7F,東京ビッグサイト南棟立体駐車場7階だれでもトイレ,"「利用時間その他」欄に""催事開催状況により変動あり""を追加 | 設備: 車椅子対応, オストメイト対応, 大型ベッド",#00cc00,139.795588,35.626085
東京都中央卸売市場豊洲市場（管理施設棟） (管理施設棟),東京都 江東区豊洲六丁目6番1号,1F,T101,"※開市日は市場公式サイト（https://www.shijou.metro.tokyo.lg.jp/）に記載　※来場者は公共交通機関を利用すること | 設備: 車椅子対応, オストメイト対応, おむつ交換台",#00cc00,139.784078,35.643938
東京都中央卸売市場豊洲市場（管理施設棟） (管理施設棟),東京都 江東区豊洲六丁目6番1号,3F,T301,"※開市日は市場公式サイト（https://www.shijou.metro.tokyo.lg.jp/）に記載　※来場者は公共交通機関を利用すること | 設備: 車椅子対応, オストメイト対応, おむつ交換台",#00cc00,139.783784,35.643894
東京都中央卸売市場豊洲市場（水産卸売場棟） (水産卸売場棟),東京都 江東区豊洲六丁目6番2号,2F,7-206U,"※開市日は市場公式サイト（https://www.shijou.metro.tokyo.lg.jp/）に記載　※来場者は公共交通機関を利用すること | 設備: 車椅子対応, オストメイト対応, おむつ交換台",#00cc00,139.782714,35.643066
東京都中央卸売市場豊洲市場（水産卸売場棟） (水産卸売場棟),東京都 江東区豊洲六丁目6番2号,2F,7-206B,"※開市日は市場公式サイト（https://www.shijou.metro.tokyo.lg.jp/）に記載　※来場者は公共交通機関を利用すること | 設備: 車椅子対応, オストメイト対応, おむつ交換台",#00cc00,139.78268,35.642987
東京都中央卸売市場豊洲市場（水産仲卸売場棟） (水産仲卸売場棟),東京都 江東区豊洲六丁目5番1号,3F,6-302U,"※開市日は市場公式サイト（https://www.shijou.metro.tokyo.lg.jp/）に記載　※来場者は公共交通機関を利用すること | 設備: 車椅子対応, オストメイト対応, おむつ交換台",#00cc00,139.782299,35.644122
東京都中央卸売市場豊洲市場（水産仲卸売場棟） (水産仲卸売場棟),東京都 江東区豊洲六丁目5番1号,3F,6-303U,"※開市日は市場公式サイト（https://www.shijou.metro.tokyo.lg.jp/）に記載　※来場者は公共交通機関を利用すること | 設備: 車椅子対応, オストメイト対応, おむつ交換台",#00cc00,139.781169,35.643368
東京都中央卸売市場豊洲市場（水産仲卸売場棟） (水産仲卸売場棟),東京都 江東区豊洲六丁目5番1号,4F,6-406U,"※開市日は市場公式サイト（https://www.shijou.metro.tokyo.lg.jp/）に記載　※来場者は公共交通機関を利用すること | 設備: 車椅子対応, オストメイト対応, おむつ交換台",#00cc00,139.7811,35.643543
東京都中央卸売市場豊洲市場（水産仲卸売場棟） (水産仲卸売場棟),東京都 江東区豊洲六丁目5番1号,4F,6-409U,"※開市日は市場公式サイト（https://www.shijou.metro.tokyo.lg.jp/）に記載　※来場者は公共交通機関を利用すること | 設備: 車椅子対応, オストメイト対応, おむつ交換台",#00cc00,139.780664,35.643931
東京都中央卸売市場豊洲市場（青果棟） (青果棟),東京都 江東区豊洲六丁目3番1号,1F,5-111U,"※開市日は市場公式サイト（https://www.shijou.metro.tokyo.lg.jp/）に記載　※来場者は公共交通機関を利用すること | 設備: 車椅子対応, オストメイト対応, おむつ交換台",#00cc00,139.785847,35.644744
東京都中央卸売市場豊洲市場（青果棟） (青果棟),東京都 江東区豊洲六丁目3番1号,2F,5-201U,"※開市日は市場公式サイト（https://www.shijou.metro.tokyo.lg.jp/）に記載　※来場者は公共交通機関を利用すること | 設備: 車椅子対応, オストメイト対応, おむつ交換台",#00cc00,139.78705,35.645038
木場公園,東京都 江東区平野四丁目6番1号,1F,1号多目的トイレ,設備: 車椅子対応,#00cc00,139.80723,35.67194
木場公園,東京都 江東区平野四丁目6番1号,1F,2号多目的トイレ,"設備: 車椅子対応, オストメイト対応, おむつ交換台",#00cc00,139.807254,35.674414
木場公園,東京都 江東区平野四丁目6番1号,1F,3号多目的トイレ,設備: 車椅子対応,#00cc00,139.807094,35.679038
木場公園,東京都 江東区平野四丁目6番1号,1F,5号多目的トイレ,"設備: 車椅子対応, オストメイト対応, 大型ベッド, おむつ交換台",#00cc00,139.809522,35.676799
木場公園,東京都 江東区平野四丁目6番1号,1F,6号多目的トイレ,"設備: 車椅子対応, おむつ交換台",#00cc00,139.808856,35.678278
木場公園,東京都 江東区平野四丁目6番1号,1F,7号多目的トイレ,"設備: 車椅子対応, おむつ交換台",#00cc00,139.809255,35.673125
木場公園,東京都 江東区平野四丁目6番1号,1F,木場ミドリアム内,"※休館日／月曜日（月曜日が祝日の場合、翌平日）・年末年始。 | 設備: 車椅子対応, オストメイト対応, おむつ交換台",#00cc00,139.808104,35.67383
猿江恩賜公園,東京都 江東区毛利二丁目13番7号,1F,1多目的トイレ,設備: 車椅子対応,#00cc00,139.818966,35.69062
猿江恩賜公園,東京都 江東区毛利二丁目13番7号,1F,2多目的トイレ,"設備: 車椅子対応, オストメイト対応, おむつ交換台",#00cc00,139.817391,35.691832
猿江恩賜公園,東京都 江東区毛利二丁目13番7号,1F,3多目的トイレ,"設備: 車椅子対応, オストメイト対応, おむつ交換台",#00cc00,139.817676,35.689528
亀戸中央公園,東京都 江東区亀戸八丁目2番,1F,A地区トイレ,開園時間　9:30〜17:00のみ利用可 | 設備: 車椅子対応,#00cc00,139.834269,35.699634
亀戸中央公園,東京都 江東区亀戸八丁目22番,1F,B地区トイレ,"開園時間　9:30〜17:00のみ利用可　女子トイレ側の一角 | 設備: 車椅子対応, オストメイト対応, おむつ交換台",#00cc00,139.837002,35.701434
亀戸中央公園,東京都 江東区亀戸九丁目37番,1F,C地区トイレ,"開園時間　9:30〜17:00のみ利用可 | 設備: 車椅子対応, オストメイト対応, おむつ交換台",#00cc00,139.838492,35.699913
大島小松川公園,東京都 江東区大島九丁目9番,1F,4多目的トイレ,設備: 車椅子対応,#00cc00,139.84706,35.691508
大島小松川公園,東京都 江東区大島九丁目2番,1F,5多目的トイレ,設備: 車椅子対応,#00cc00,139.846284,35.689307
大島小松川公園,東京都 江東区大島九丁目9番地,1F,8多目的トイレ,"設備: 車椅子対応, オストメイト対応, おむつ交換台",#00cc00,139.846547,35.69277
夢の島公園,東京都 江東区夢の島二丁目,1F,BumB前だれでもトイレ,"設備: 車椅子対応, オストメイト対応, おむつ交換台",#00cc00,139.82953,35.648816
夢の島公園,東京都 江東区夢の島二丁目,1F,植物館前だれでもトイレ,"設備: 車椅子対応, おむつ交換台",#00cc00,139.829259,35.650657
夢の島公園,東京都 江東区夢の島一丁目、二丁目,1F,第二（北）駐車場だれでもトイレ,"設備: 車椅子対応, オストメイト対応, おむつ交換台",#00cc00,139.82525,35.652111
夢の島公園,東京都 江東区夢の島二丁目,1F,陸上競技場脇多目的トイレ,"設備: 車椅子対応, オストメイト対応, おむつ交換台",#00cc00,139.827409,35.648541
夢の島公園,東京都 江東区夢の島一丁目、二丁目,1F,第五福竜丸展示館横トイレ,"設備: 車椅子対応, オストメイト対応, おむつ交換台",#00cc00,139.826729,35.650992
夢の島公園,東京都 江東区夢の島二丁目,1F,第五福竜丸展示館館内トイレ,"月曜日休館日（月曜日が祝日・都民の日に当たる場合はその翌日が休館日） | 設備: 車椅子対応, オストメイト対応, おむつ交換台",#00cc00,139.827713,35.651224
夢の島熱帯植物館,東京都 江東区夢の島二丁目1番2号,1F,植物館内トイレ,現在、リニューアル工事中　月曜日休館日（月曜日が祝日・都民の日に当たる場合はその翌日が休館日） | 設備: 車椅子対応,#00cc00,139.829784,35.651242
東京臨海広域防災公園,東京都 江東区有明三丁目8番35号,1F,南口入口横多目的トイレ,"12/31〜1/1は閉園日のため、屋外トイレは使用できません。 | 設備: 車椅子対応, オストメイト対応, おむつ交換台",#00cc00,139.796527,35.633692
清澄庭園,東京都 江東区清澄二丁目2番,1F,公園ゴミ集積地横多目的トイレ,"設備: 車椅子対応, オストメイト対応, おむつ交換台",#00cc00,139.796494,35.68006
清澄庭園,東京都 江東区清澄三丁目3番33号,1F,児童公園入口多目的トイレ,"設備: 車椅子対応, オストメイト対応, おむつ交換台",#00cc00,139.79785,35.678581
清澄庭園,東京都 江東区清澄三丁目3番,1F,大正記念館内多目的トイレ,"有料施設利用者が利用する | 設備: 車椅子対応, オストメイト対応, おむつ交換台",#00cc00,139.797618,35.681148
清澄庭園,東京都 江東区清澄三丁目3番,1F,大正記念館横多目的トイレ,"設備: 車椅子対応, オストメイト対応",#00cc00,139.797471,35.681016
清澄庭園,東京都 江東区清澄三丁目3番,1F,涼亭近く多目的トイレ,"設備: 車椅子対応, オストメイト対応, おむつ交換台",#00cc00,139.797351,35.679746
シンボルプロムナード公園,東京都 江東区有明二丁目･三丁目,1F,TFT,"設備: 車椅子対応, おむつ交換台",#00cc00,139.789448,35.632049
シンボルプロムナード公園,東京都 江東区有明二丁目･三丁目,1F,つどい橋西,"設備: 車椅子対応, おむつ交換台",#00cc00,139.787366,35.630072
シンボルプロムナード公園,東京都 江東区有明二丁目･三丁目,1F,つどい橋東,"設備: 車椅子対応, おむつ交換台",#00cc00,139.788332,35.630574
シンボルプロムナード公園,東京都 江東区有明二丁目･三丁目,1F,やぐら橋,"設備: 車椅子対応, おむつ交換台",#00cc00,139.791444,35.633496
シンボルプロムナード公園,東京都 江東区有明二丁目･三丁目,1F,国際展示場駅,"設備: 車椅子対応, おむつ交換台",#00cc00,139.792675,35.631855
シンボルプロムナード公園,東京都 江東区青梅一丁目･二丁目,1F,噴水の家,"設備: 車椅子対応, おむつ交換台",#00cc00,139.779203,35.618223
青海北ふ頭公園,東京都 江東区青海二丁目,1F,青海北ふ頭公園,設備: 車椅子対応,#00cc00,139.774456,35.619278
青海南ふ頭公園,東京都 江東区青海二丁目,1F,Ａ,設備: 車椅子対応,#00cc00,139.777999,35.614362
青海南ふ頭公園,東京都 江東区青海二丁目,1F,Ｃ,設備: 車椅子対応,#00cc00,139.776299,35.615548
水の広場公園,東京都 江東区青海一丁目,1F,中央南,"設備: 車椅子対応, おむつ交換台",#00cc00,139.783435,35.627784
水の広場公園,東京都 江東区青海一丁目、二丁目,1F,東,設備: 車椅子対応,#00cc00,139.791579,35.629991
有明西ふ頭公園,東京都 江東区有明三丁目,1F,有明西ふ頭公園,設備: 車椅子対応,#00cc00,139.793715,35.628209
新木場公園,東京都 江東区新木場二丁目,1F,新木場公園,"設備: 車椅子対応, オストメイト対応, おむつ交換台",#00cc00,139.823823,35.641847
新木場緑道公園,東京都 江東区新木場四丁目,1F,新木場緑道公園,設備: 車椅子対応,#00cc00,139.840439,35.640035
辰巳の森海浜公園,東京都 江東区辰巳二丁目,1F,２号棟,設備: 車椅子対応,#00cc00,139.813014,35.64957
辰巳の森海浜公園,東京都 江東区辰巳二丁目1番地35号,1F,４号棟,"設備: 車椅子対応, おむつ交換台",#00cc00,139.816855,35.650679
辰巳の森海浜公園,東京都 江東区辰巳二丁目,1F,マレットゴルフ,"設備: 車椅子対応, オストメイト対応, おむつ交換台",#00cc00,139.812797,35.652141
辰巳の森海浜公園,東京都 江東区辰巳二丁目,1F,入口広場,"設備: 車椅子対応, オストメイト対応, おむつ交換台",#00cc00,139.813383,35.648104
辰巳の森海浜公園,東京都 江東区辰巳二丁目1番地35号,1F,（新）管理事務所　多目的トイレ,"設備: 車椅子対応, オストメイト対応, 大型ベッド, おむつ交換台",#00cc00,139.813288,35.648024
若洲海浜公園,東京都 江東区若洲三丁目,1F,サイクリング,設備: 車椅子対応,#00cc00,139.835362,35.61358
若洲海浜公園,東京都 江東区若洲三丁目,1F,人工磯,設備: 車椅子対応,#00cc00,139.838623,35.620708
若洲海浜公園,東京都 江東区若洲三丁目,1F,総合管理センター,設備: 車椅子対応,#00cc00,139.837615,35.628808
辰巳の森緑道公園,東京都 江東区辰巳一丁目・二丁目,1F,西,"設備: 車椅子対応, オストメイト対応, おむつ交換台",#00cc00,139.809867,35.645511
辰巳の森緑道公園,東京都 江東区辰巳一丁目・二丁目,1F,さくら（便房１）,"設備: 車椅子対応, オストメイト対応, おむつ交換台",#00cc00,139.816289,35.646237
辰巳の森緑道公園,東京都 江東区辰巳一丁目・二丁目,1F,さくら（便房２）,"設備: 車椅子対応, オストメイト対応, おむつ交換台",#00cc00,139.816269,35.646269
青海北ふ頭,東京都 江東区青海二丁目,1F,青海北ふ頭公園,設備: 車椅子対応,#00cc00,139.774488,35.619208
ﾃﾚｺﾑｾﾝﾀｰﾋﾞﾙ (ﾃﾚｺﾑｾﾝﾀｰﾋﾞﾙ),東京都 江東区青海二丁目5番10号,1F,1階西側だれでもﾄｲﾚ,設備: 車椅子対応,#00cc00,139.779737,35.616947
ﾃﾚｺﾑｾﾝﾀｰﾋﾞﾙ (ﾃﾚｺﾑｾﾝﾀｰﾋﾞﾙ),東京都 江東区青海二丁目5番10号,1F,1階東側だれでもﾄｲﾚ,設備: 車椅子対応,#00cc00,139.780529,35.616996
ﾃﾚｺﾑｾﾝﾀｰﾋﾞﾙ (ﾃﾚｺﾑｾﾝﾀｰﾋﾞﾙ),東京都 江東区青海二丁目5番10号,2F,2階東側だれでもﾄｲﾚ,設備: 車椅子対応,#00cc00,139.780251,35.617382
ﾃﾚｺﾑｾﾝﾀｰﾋﾞﾙ (ﾃﾚｺﾑｾﾝﾀｰﾋﾞﾙ),東京都 江東区青海二丁目5番10号,3F,3階西側だれでもﾄｲﾚ,設備: 車椅子対応,#00cc00,139.779587,35.616992
ﾃﾚｺﾑｾﾝﾀｰﾋﾞﾙ (ﾃﾚｺﾑｾﾝﾀｰﾋﾞﾙ),東京都 江東区青海二丁目5番10号,4F,4階西側だれでもﾄｲﾚ,設備: 車椅子対応,#00cc00,139.779587,35.616992
ﾃﾚｺﾑｾﾝﾀｰﾋﾞﾙ (ﾃﾚｺﾑｾﾝﾀｰﾋﾞﾙ),東京都 江東区青海二丁目5番10号,5F,5階西側だれでもﾄｲﾚ,設備: 車椅子対応,#00cc00,139.779587,35.616992
ﾃﾚｺﾑｾﾝﾀｰﾋﾞﾙ (ﾃﾚｺﾑｾﾝﾀｰﾋﾞﾙ),東京都 江東区青海二丁目5番10号,20F,20階西側だれでもﾄｲﾚ,設備: 車椅子対応,#00cc00,139.779587,35.616992
ﾃﾚｺﾑｾﾝﾀｰﾋﾞﾙ (ﾃﾚｺﾑｾﾝﾀｰﾋﾞﾙ),東京都 江東区青海二丁目5番10号,20F,20階東側だれでもﾄｲﾚ,"設備: 車椅子対応, おむつ交換台",#00cc00,139.780251,35.617382
ﾃﾚｺﾑｾﾝﾀｰﾋﾞﾙ (ﾃﾚｺﾑｾﾝﾀｰﾋﾞﾙ),東京都 江東区青海二丁目5番10号,B1F,B1階東側だれでもﾄｲﾚ,設備: 車椅子対応,#00cc00,139.780251,35.617382
有明ﾌﾛﾝﾃｨｱﾋﾞﾙ (有明ﾌﾛﾝﾃｨｱﾋﾞﾙ),東京都 江東区有明三丁目7番26号,1F,B棟1階だれでもﾄｲﾚ,"設備: 車椅子対応, オストメイト対応",#00cc00,139.792228,35.631127
有明ﾌﾛﾝﾃｨｱﾋﾞﾙ (有明ﾌﾛﾝﾃｨｱﾋﾞﾙ),東京都 江東区有明三丁目7番26号,2F,B棟2階だれでもﾄｲﾚ,"設備: 車椅子対応, おむつ交換台",#00cc00,139.792177,35.631134
有明ﾌﾛﾝﾃｨｱﾋﾞﾙ (有明ﾌﾛﾝﾃｨｱﾋﾞﾙ),東京都 江東区有明三丁目7番26号,B1F,B棟地下1階だれでもﾄｲﾚ,設備: 車椅子対応,#00cc00,139.792177,35.631134
有明ﾌﾛﾝﾃｨｱﾋﾞﾙ (有明ﾌﾛﾝﾃｨｱﾋﾞﾙ),東京都 江東区有明三丁目7番26号,3F,A棟3階だれでもﾄｲﾚ,"設備: 車椅子対応, おむつ交換台",#00cc00,139.791608,35.631626
有明ﾌﾛﾝﾃｨｱﾋﾞﾙ (有明ﾌﾛﾝﾃｨｱﾋﾞﾙ),東京都 江東区有明三丁目7番26号,2F,A棟2階だれでもﾄｲﾚ,"設備: 車椅子対応, おむつ交換台",#00cc00,139.791608,35.631626
青海ﾌﾛﾝﾃｨｱﾋﾞﾙ (青海ﾌﾛﾝﾃｨｱﾋﾞﾙ),東京都 江東区青海二丁目4番24号,1F,1階だれでもﾄｲﾚ,"設備: 車椅子対応, オストメイト対応",#00cc00,139.778368,35.617826
青海ﾌﾛﾝﾃｨｱﾋﾞﾙ (青海ﾌﾛﾝﾃｨｱﾋﾞﾙ),東京都 江東区青海二丁目4番24号,2F,2階だれでもﾄｲﾚ,"設備: 車椅子対応, オストメイト対応",#00cc00,139.778324,35.617835
有明客船ターミナル,東京都 江東区有明3-12-13,1F,1F誰でもトイレ,"設備: 車椅子対応, おむつ交換台",#00cc00,139.79248,35.629517
有明客船ターミナル,東京都 江東区有明3-12-13,2F,2F男子トイレ,天井の損傷により一時閉鎖中 | 設備: 車椅子対応,#00cc00,139.792428,35.62975
有明客船ターミナル,東京都 江東区有明3-12-13,2F,2F女子トイレ,天井の損傷により一時閉鎖中 | 設備: 車椅子対応,#00cc00,139.792428,35.62975
東京国際クルーズふ頭,東京都 江東区青海二丁目地先,1F,１階,"設備: 車椅子対応, オストメイト対応, おむつ交換台",#00cc00,139.771149,35.617521
東京国際クルーズふ頭,東京都 江東区青海二丁目地先,2F,２階北側,"設備: 車椅子対応, オストメイト対応, おむつ交換台",#00cc00,139.771149,35.617521
東京国際クルーズふ頭,東京都 江東区青海二丁目地先,2F,２階南側,"着船時のみ使用 | 設備: 車椅子対応, オストメイト対応, おむつ交換台",#00cc00,139.771149,35.617521
東京国際クルーズふ頭,東京都 江東区青海二丁目地先,3F,３階北側,"設備: 車椅子対応, オストメイト対応, おむつ交換台",#00cc00,139.771149,35.617521
東京国際クルーズふ頭,東京都 江東区青海二丁目地先,3F,３階南側,"着船時のみ使用 | 設備: 車椅子対応, オストメイト対応, おむつ交換台",#00cc00,139.771149,35.617521
東京国際クルーズふ頭,東京都 江東区青海二丁目地先,4F,４階,"設備: 車椅子対応, オストメイト対応, おむつ交換台",#00cc00,139.771149,35.617521
東京国際クルーズふ頭,東京都 江東区青海二丁目地先,1F,１階南側,"管理用エリア | 設備: 車椅子対応, オストメイト対応, おむつ交換台",#00cc00,139.771035,35.617349
東京国際クルーズふ頭,東京都 江東区青海二丁目地先,2F,２階南側,"着船時のみ使用（検疫） | 設備: 車椅子対応, オストメイト対応, おむつ交換台",#00cc00,139.771505,35.617282
東京国際クルーズふ頭,東京都 江東区青海二丁目地先,2F,3階南側,"着船時のみ使用（検疫） | 設備: 車椅子対応, オストメイト対応, おむつ交換台",#00cc00,139.771505,35.617282
都営新宿線森下駅,東京都 江東区森下一丁目13番10号,B1F,新宿線だれでもトイレ,"設備: 車椅子対応, オストメイト対応, おむつ交換台",#00cc00,139.797119,35.688024
都営新宿線住吉駅,東京都 江東区住吉二丁目23番12号,B2F,だれでもトイレＡ,"設備: 車椅子対応, オストメイト対応, おむつ交換台",#00cc00,139.815962,35.689077
都営新宿線住吉駅,東京都 江東区住吉二丁目23番12号,B2F,だれでもトイレＢ,"設備: 車椅子対応, オストメイト対応, おむつ交換台",#00cc00,139.816124,35.688971
都営新宿線西大島駅,東京都 江東区大島二丁目41番19号,B1F,だれでもトイレ,"設備: 車椅子対応, オストメイト対応, 大型ベッド",#00cc00,139.826544,35.689379
都営新宿線大島駅,東京都 江東区大島五丁目10番8号,B1F,だれでもトイレ,"設備: 車椅子対応, オストメイト対応, 大型ベッド",#00cc00,139.834364,35.689773
都営新宿線東大島駅,東京都 江東区大島九丁目3番14号,1F,だれでもトイレＢ,"設備: 車椅子対応, オストメイト対応, 大型ベッド",#00cc00,139.848723,35.689368
都営大江戸線森下駅,東京都 江東区森下二丁目17番17号,B1F,だれでもトイレ,"設備: 車椅子対応, オストメイト対応, おむつ交換台",#00cc00,139.798189,35.688403
都営大江戸線清澄白河駅,東京都 江東区白河一丁目7番14号,B1F,だれでもトイレ,"設備: 車椅子対応, オストメイト対応, おむつ交換台",#00cc00,139.798639,35.682712
都営大江戸線門前仲町駅,東京都 江東区門前仲町二丁目5番2号先,B2F,だれでもトイレ,"設備: 車椅子対応, オストメイト対応, おむつ交換台",#00cc00,139.795117,35.672917
東京都水道局江東営業所 (東京都水道局東部第一支所庁舎),東京都 江東区新砂一丁目7番2号,1F,多目的トイレ１,"設備: 車椅子対応, オストメイト対応",#00cc00,139.824713,35.669016
東京都水道局江東営業所 (東京都水道局東部第一支所庁舎),東京都 江東区新砂一丁目7番2号,1F,多目的トイレ２,"設備: 車椅子対応, おむつ交換台",#00cc00,139.824758,35.669017
東京都虹の下水道館 (有明水再生センター5階),東京都 江東区有明二丁目3番5号,5F,虹の下水道館・多目的トイレ,休館日：月曜日（月曜日が祝休日の場合は開館し、その翌日が休館日）、年末年始　※夏休み期間については、無休　※下水道の日（9月10日）、都民の日（10月1日）は開館 | 設備: 車椅子対応,#00cc00,139.783833,35.633183
東京スポーツ文化館,東京都 江東区夢の島二丁目1番3号,1F,プール１階女子車いす使用者用トイレ,設備: 車椅子対応,#00cc00,139.830228,35.649792
東京スポーツ文化館,東京都 江東区夢の島二丁目1番3号,1F,プール１階男子車いす使用者用トイレ,設備: 車椅子対応,#00cc00,139.830228,35.649792
東京スポーツ文化館,東京都 江東区夢の島二丁目1番3号,1F,メインアリーナ１階女子車いす使用者用トイレ,設備: 車椅子対応,#00cc00,139.830228,35.649792
東京スポーツ文化館,東京都 江東区夢の島二丁目1番3号,1F,メインアリーナ１階男子車いす使用者用トイレ,設備: 車椅子対応,#00cc00,139.830228,35.649792
東京スポーツ文化館,東京都 江東区夢の島二丁目1番3号,1F,宿泊棟１階多機能トイレ,"設備: 車椅子対応, おむつ交換台",#00cc00,139.829985,35.649304
東京スポーツ文化館,東京都 江東区夢の島二丁目1番3号,2F,E棟２階女子車いす使用者用トイレ,設備: 車椅子対応,#00cc00,139.830228,35.649792
東京スポーツ文化館,東京都 江東区夢の島二丁目1番3号,2F,E棟２階男子車いす使用者用トイレ,設備: 車椅子対応,#00cc00,139.830228,35.649792
東京スポーツ文化館,東京都 江東区夢の島二丁目1番3号,2F,宿泊棟２階多機能トイレ,設備: 車椅子対応,#00cc00,139.830228,35.649792
東京スポーツ文化館,東京都 江東区夢の島二丁目1番3号,1F,D棟1階多機能トイレ,"※４、６、９、１２月の１０日のみ休館日 | 設備: 車椅子対応, オストメイト対応, おむつ交換台",#00cc00,139.829887,35.64989
東京スポーツ文化館,東京都 江東区夢の島二丁目1番3号,1F,C棟1階多機能トイレ,"※４、６、９、１２月の１０日のみ休館日 | 設備: 車椅子対応, オストメイト対応, おむつ交換台",#00cc00,139.829734,35.650314
深川消防署枝川出張所,東京都 江東区枝川三丁目2番1号,1F,だれでもトイレ,"設備: 車椅子対応, おむつ交換台",#00cc00,139.807868,35.659461
深川消防署豊洲出張所,東京都 江東区豊洲二丁目2番23号,1F,だれでもトイレ,"設備: 車椅子対応, オストメイト対応, おむつ交換台",#00cc00,139.794686,35.653633
深川消防署有明分署,東京都 江東区有明三丁目4番2号,1F,だれでもトイレ,"設備: 車椅子対応, オストメイト対応, おむつ交換台",#00cc00,139.792152,35.640545
城東消防署砂町出張所,東京都 江東区新砂二丁目1番1号,1F,多機能トイレ,"設備: 車椅子対応, オストメイト対応, おむつ交換台",#00cc00,139.828733,35.669263
江東区役所本庁舎,東京都 江東区東陽四丁目11番28号,2F,庁舎２階バリアフリートイレ,"開庁日を除く土日祝日、年末年始(通常12/29〜1/3)は閉庁日のため利用不可 | 設備: 車椅子対応, オストメイト対応, おむつ交換台",#00cc00,139.816964,35.6729
江東区役所本庁舎,東京都 江東区東陽四丁目11番28号,9F,庁舎９階バリアフリートイレ,"土日祝日、年末年始(通常12/29〜1/3)は閉庁日のため利用不可 | 設備: 車椅子対応, オストメイト対応",#00cc00,139.816989,35.672778
江東区役所本庁舎,東京都 江東区東陽四丁目11番28号,9F,庁舎９階バリアフリートイレ,"土日祝日、年末年始(通常12/29〜1/3)は閉庁日のため利用不可 | 設備: 車椅子対応, オストメイト対応",#00cc00,139.816961,35.672776
豊洲シビックセンター,東京都 江東区豊洲二丁目2番18号,10F,10階女子トイレ,設備: 車椅子対応,#00cc00,139.795434,35.65409
豊洲シビックセンター,東京都 江東区豊洲二丁目2番18号,10F,10階男子トイレ,設備: 車椅子対応,#00cc00,139.795443,35.654098
豊洲シビックセンター,東京都 江東区豊洲二丁目2番18号,11F,11階ピクトグラムのみの表記,"「だれでもご利用いただけます」の表記を削除し、ピクトグラムのみの表記とした。 | 設備: 車椅子対応, おむつ交換台",#00cc00,139.795434,35.65409
豊洲シビックセンター,東京都 江東区豊洲二丁目2番18号,3F,３階ピクトグラムのみの表記,"「だれでもご利用いただけます」の表記を削除し、ピクトグラムのみの表記とした。 | 設備: 車椅子対応, オストメイト対応, おむつ交換台",#00cc00,139.795443,35.654098
豊洲シビックセンター,東京都 江東区豊洲二丁目2番18号,6F,６階女子トイレ,設備: 車椅子対応,#00cc00,139.795434,35.65409
豊洲シビックセンター,東京都 江東区豊洲二丁目2番18号,6F,6階男子トイレ,設備: 車椅子対応,#00cc00,139.795443,35.654098
豊洲シビックセンター,東京都 江東区豊洲二丁目2番18号,7F,7階ピクトグラムのみの表記,"「だれでもご利用いただけます」の表記を削除し、ピクトグラムのみの表記とした。 | 設備: 車椅子対応, おむつ交換台",#00cc00,139.795434,35.65409
豊洲シビックセンター,東京都 江東区豊洲二丁目2番18号,8F,8階ピクトグラムのみの表記,"「だれでもご利用いただけます」の表記を削除し、ピクトグラムのみの表記とした。 | 設備: 車椅子対応, オストメイト対応, おむつ交換台",#00cc00,139.795434,35.65409
豊洲シビックセンター,東京都 江東区豊洲二丁目2番18号,9F,9階女子トイレ,設備: 車椅子対応,#00cc00,139.795434,35.65409
豊洲シビックセンター,東京都 江東区豊洲二丁目2番18号,9F,9階男子トイレ,設備: 車椅子対応,#00cc00,139.795443,35.654098
江東区防災センター,東京都 江東区東陽四丁目11番28号,4F,防災センター４階バリアフリートイレ,土日祝日、年末年始(通常12/29〜1/3)は閉庁日のため利用不可 | 設備: 車椅子対応,#00cc00,139.817531,35.67228
江東区防災センター,東京都 江東区東陽四丁目11番28号,4F,防災センター４階バリアフリートイレ,"土日祝日、年末年始(通常12/29〜1/3)は閉庁日のため利用不可 | 設備: 車椅子対応, オストメイト対応, 大型ベッド",#00cc00,139.817528,35.672296
男女共同参画推進センター（パルシティ江東） (パルシティ江東),東京都 江東区扇橋三丁目22番2号,1F,1階だれでもトイレ,"設備: 車椅子対応, オストメイト対応, おむつ交換台",#00cc00,139.820188,35.68413
男女共同参画推進センター（パルシティ江東） (パルシティ江東),東京都 江東区扇橋三丁目22番2号,2F,2階だれでもトイレ,"設備: 車椅子対応, おむつ交換台",#00cc00,139.820254,35.684092
男女共同参画推進センター（パルシティ江東） (パルシティ江東),東京都 江東区扇橋三丁目22番2号,3F,3階だれでもトイレ,"設備: 車椅子対応, おむつ交換台",#00cc00,139.820254,35.684092
江東区産業会館 (メトロハイツ東陽),東京都 江東区東陽四丁目5番18号,2F,だれでもトイレ,"設備: 車椅子対応, オストメイト対応, おむつ交換台",#00cc00,139.818218,35.670027
江東区総合区民センター,東京都 江東区大島四丁目5番1号,1F,１階南側だれでもトイレ,"設備: 車椅子対応, 大型ベッド",#00cc00,139.827068,35.688991
江東区総合区民センター,東京都 江東区大島四丁目5番1号,2F,２階南側だれでもトイレ,"設備: 車椅子対応, オストメイト対応, 大型ベッド",#00cc00,139.827068,35.688991
江東区役所富岡出張所,東京都 江東区富岡一丁目16番12号,1F,1階南側だれでもトイレ,"設備: 車椅子対応, おむつ交換台",#00cc00,139.798476,35.67178
江東区役所小松橋出張所,東京都 江東区扇橋二丁目1番5号,2F,2階西側だれでもトイレ,"設備: 車椅子対応, オストメイト対応, おむつ交換台",#00cc00,139.814221,35.682672
江東区役所砂町出張所,東京都 江東区北砂四丁目7番3号,1F,1階南側多目的トイレ,"設備: 車椅子対応, オストメイト対応, おむつ交換台",#00cc00,139.828454,35.677375
江東区役所南砂出張所,東京都 江東区南砂六丁目8番3号,1F,1階東側だれでもトイレ,"設備: 車椅子対応, オストメイト対応, おむつ交換台",#00cc00,139.83486,35.671206
江東区教育センター,東京都 江東区東陽二丁目3番6号,1F,研修棟１階だれでもトイレ,"年末年始(１２月２８日から１月４日)は休館。また、研修等の利用が無い日は１７：００に閉館する場合がある。 | 設備: 車椅子対応, オストメイト対応, おむつ交換台",#00cc00,139.816888,35.667398
江東区教育センター,東京都 江東区東陽二丁目3番6号,1F,東陽図書館だれでもトイレ,"毎月第３金曜日（祝・休日の場合は第３木曜日）、年末年始（１２月２９日から１月４日）は休館。１２月２８日は１９：００まで。他に特別整理期間や施設設備点検のため休館する場合あり。 | 設備: 車椅子対応, おむつ交換台",#00cc00,139.817175,35.667127
江東区教育センター,東京都 江東区東陽二丁目3番6号,2F,本館棟２階だれでもトイレ,"土日祝日、年末年始（通常１２月２９日から１月３日まで）は休館。 | 設備: 車椅子対応, おむつ交換台",#00cc00,139.817174,35.667148
江東区教育センター,東京都 江東区東陽二丁目3番6号,3F,本館棟３階だれでもトイレ,"土日祝日、年末年始（通常１２月２９日から１月３日まで）は休館。 | 設備: 車椅子対応, おむつ交換台",#00cc00,139.817433,35.667164
亀戸東地区集会所,東京都 江東区亀戸九丁目34番1号,1F,１階だれでもトイレ,設備: 車椅子対応,#00cc00,139.840953,35.699839
江東区東陽区民館,東京都 江東区東陽三丁目1番2号,1F,1階西側だれでもトイレ,"設備: 車椅子対応, オストメイト対応",#00cc00,139.808375,35.668572
江東区枝川区民館,東京都 江東区枝川三丁目6番16号,1F,1階北側だれでもトイレ,"設備: 車椅子対応, オストメイト対応, おむつ交換台",#00cc00,139.810324,35.65853
江東区健康センター,東京都 江東区東陽二丁目1番1号,1F,１階だれでもトイレ,"設備: 車椅子対応, オストメイト対応, 大型ベッド, おむつ交換台",#00cc00,139.814233,35.665795
江東区深川保健相談所 (イーストコモンズ清澄白河フロントタワー301号),東京都 江東区白河三丁目4番3号,3F,西側だれでもトイレ,"オスメイトはパウチ等用簡易水栓取り付けタイプ | 設備: 車椅子対応, オストメイト対応",#00cc00,139.805715,35.682172
江東区深川保健相談所 (イーストコモンズ清澄白河フロントタワー301号),東京都 江東区白河三丁目4番3号,3F,東側だれでもトイレ,設備: 車椅子対応,#00cc00,139.805715,35.682172
江東区深川南部保健相談所 (都営枝川一丁目第2アパート),東京都 江東区枝川一丁目8番15号102,1F,だれでもトイレ,"設備: 車椅子対応, オストメイト対応",#00cc00,139.801884,35.657402
江東区城東南部保健相談所,東京都 江東区南砂四丁目3番10号,1F,１階身障者用便所,設備: 車椅子対応,#00cc00,139.827708,35.674304
江東区城東南部保健相談所,東京都 江東区南砂四丁目3番10号,3F,3階身障者用便所,"設備: 車椅子対応, オストメイト対応",#00cc00,139.827708,35.674304
江東区立江東図書館,東京都 江東区南砂六丁目7番52号,1F,だれでもトイレ,"毎月第３金曜日（祝日に当たる場合は前日の木曜日）と毎年１月４日は館内整理日のため休館。　年末年始（１２月２９日〜１月３日）は休館、１２月２８日は９：００〜１９：００。　　※このほか、特別整理期間や施設設備点検のため休館する場合あり。 | 設備: 車椅子対応, オストメイト対応, おむつ交換台",#00cc00,139.833875,35.671953
江東区立深川図書館,東京都 江東区清澄三丁目3番39号,1F,多目的トイレ,"毎月第３金曜日（祝日に当たる場合は前日の木曜日）と毎年１月４日は館内整理日のため休館。　年末年始（１２月２９日〜１月３日）は休館、１２月２８日は９：００〜１９：００。　　※このほか、特別整理期間や施設設備点検のため休館する場合あり。 | 設備: 車椅子対応, オストメイト対応, 大型ベッド, おむつ交換台",#00cc00,139.796658,35.679094
江東区立東雲図書館 (トミンタワー東雲),東京都 江東区東雲二丁目7番5号201,2F,だれでもトイレ,"毎月第３金曜日（祝日に当たる場合は前日の木曜日）と毎年１月４日は館内整理日のため休館。　年末年始（１２月２９日〜１月３日）は休館、１２月２８日は９：００〜１９：００。　　※このほか、特別整理期間や施設設備点検のため休館する場合あり。 | 設備: 車椅子対応, オストメイト対応",#00cc00,139.805377,35.643638
江東区立古石場図書館 (古石場文化センター),東京都 江東区古石場二丁目13番2号,4F,４階だれでもトイレ,"第１・第３月曜日は休館日（祝日・休日の場合は開館）毎月第３金曜日（祝日に当たる場合は前日の木曜日）と毎年１月４日は館内整理日のため休館。　年末年始（１２月２９日〜１月３日）は休館、１２月２８日は９：００〜１９：００。　　※このほか、特別整理期間や施設設備点検のため休館する場合あり。 | 設備: 車椅子対応, おむつ交換台",#00cc00,139.798987,35.666944
江東区立亀戸図書館,東京都 江東区亀戸七丁目39番9号,1F,１階だれでもトイレ,"毎月第３金曜日（祝日に当たる場合は前日の木曜日）と毎年１月４日は館内整理日のため休館。　年末年始（１２月２９日〜１月３日）は休館、１２月２８日は９：００〜１９：００。　　※このほか、特別整理期間や施設設備点検のため休館する場合あり。 | 設備: 車椅子対応, オストメイト対応, おむつ交換台",#00cc00,139.839342,35.696972
江東区立亀戸図書館,東京都 江東区亀戸七丁目39番9号,2F,２階だれでもトイレ,"毎月第３金曜日（祝日に当たる場合は前日の木曜日）と毎年１月４日は館内整理日のため休館。　年末年始（１２月２９日〜１月３日）は休館、１２月２８日は９：００〜１９：００。　　※このほか、特別整理期間や施設設備点検のため休館する場合あり。 | 設備: 車椅子対応, オストメイト対応, おむつ交換台",#00cc00,139.839342,35.696972
江東区立砂町図書館 (砂町文化センター),東京都 江東区北砂五丁目1番7号,1F,だれでもトイレ,"第１・第３月曜日は休館日（祝日・休日の場合は開館）毎月第３金曜日（祝日に当たる場合は前日の木曜日）と毎年１月４日は館内整理日のため休館。　年末年始（１２月２９日〜１月３日）は休館、１２月２８日は９：００〜１９：００。　　※このほか、特別整理期間や施設設備点検のため休館する場合あり。 | 設備: 車椅子対応, おむつ交換台",#00cc00,139.831847,35.6805
江東区立東大島図書館 (東大島ファミールハイツ),東京都 江東区大島九丁目4番2号101,1F,だれでもトイレ,"毎月第３金曜日（祝日に当たる場合は前日の木曜日）と毎年１月４日は館内整理日のため休館。　年末年始（１２月２９日〜１月３日）は休館、１２月２８日は９：００〜１９：００。　　※このほか、特別整理期間や施設設備点検のため休館する場合あり。 | 設備: 車椅子対応, オストメイト対応",#00cc00,139.845783,35.691077
江東区文化センター,東京都 江東区東陽四丁目11番3号,1F,1階　東側　コンコースだれでもトイレ,"設備: 車椅子対応, おむつ交換台",#00cc00,139.818823,35.672535
江東区文化センター,東京都 江東区東陽四丁目11番3号,2F,2階　　ホールホワイエ　だれでもトイレ,"設備: 車椅子対応, オストメイト対応, 大型ベッド, おむつ交換台",#00cc00,139.818495,35.673016
江東区文化センター,東京都 江東区東陽四丁目11番3号,2F,2階　展示室横　だれでもトイレ,"設備: 車椅子対応, おむつ交換台",#00cc00,139.818808,35.672515
江東区文化センター,東京都 江東区東陽四丁目11番3号,2F,2階　東側　だれでもトイレ,"設備: 車椅子対応, オストメイト対応, おむつ交換台",#00cc00,139.818486,35.672445
江東区文化センター,東京都 江東区東陽四丁目11番3号,3F,3階　東側　だれでもトイレ,"設備: 車椅子対応, おむつ交換台",#00cc00,139.818486,35.672445
江東区文化センター,東京都 江東区東陽四丁目11番3号,4F,4階　西側　だれでもトイレ,設備: 車椅子対応,#00cc00,139.817971,35.672372
江東区森下文化センター,東京都 江東区森下三丁目12番17号,1F,1階多目的トイレ,"利用時間は休館日を除く：平日の第1･3月曜日、年末年始（12/29‾1/3） | 設備: 車椅子対応, オストメイト対応",#00cc00,139.801873,35.685132
江東区森下文化センター,東京都 江東区森下三丁目12番17号,2F,2階多目的トイレ,"設備: 車椅子対応, おむつ交換台",#00cc00,139.801891,35.685157
江東区森下文化センター,東京都 江東区森下三丁目12番17号,3F,3階多目的トイレ,"設備: 車椅子対応, おむつ交換台",#00cc00,139.801891,35.685157
江東区森下文化センター,東京都 江東区森下三丁目12番17号,4F,4階多目的トイレ,"設備: 車椅子対応, おむつ交換台",#00cc00,139.801891,35.685157
江東区古石場文化センター,東京都 江東区古石場二丁目13番2号,1F,1階だれでもトイレ,"設備: 車椅子対応, おむつ交換台",#00cc00,139.799178,35.666922
江東区古石場文化センター,東京都 江東区古石場二丁目13番2号,2F,2階だれでもトイレ,"設備: 車椅子対応, おむつ交換台",#00cc00,139.799178,35.666922
江東区古石場文化センター,東京都 江東区古石場二丁目13番2号,3F,3階だれでもトイレ,設備: 車椅子対応,#00cc00,139.799178,35.666922
カメリアプラザ (カメリアプラザ),東京都 江東区亀戸二丁目19番1号,1F,1Ｆだれでもトイレ,"設備: 車椅子対応, オストメイト対応, 大型ベッド",#00cc00,139.824384,35.697604
カメリアプラザ (カメリアプラザ),東京都 江東区亀戸二丁目19番1号,2F,2Ｆだれでもトイレ,"設備: 車椅子対応, オストメイト対応, おむつ交換台",#00cc00,139.824384,35.697604
カメリアプラザ (カメリアプラザ),東京都 江東区亀戸二丁目19番1号,3F,3Ｆだれでもトイレ,"設備: 車椅子対応, オストメイト対応, おむつ交換台",#00cc00,139.82476,35.697566
カメリアプラザ (カメリアプラザ),東京都 江東区亀戸二丁目19番1号,5F,5Ｆだれでもトイレ,"設備: 車椅子対応, オストメイト対応, おむつ交換台",#00cc00,139.824399,35.697502
カメリアプラザ (カメリアプラザ),東京都 江東区亀戸二丁目19番1号,6F,6Ｆだれでもトイレ,"設備: 車椅子対応, オストメイト対応, おむつ交換台",#00cc00,139.824398,35.697524
カメリアプラザ (カメリアプラザ),東京都 江東区亀戸二丁目19番1号,7F,7Ｆだれでもトイレ,"設備: 車椅子対応, オストメイト対応",#00cc00,139.824388,35.697512
カメリアプラザ (カメリアプラザ),東京都 江東区亀戸二丁目19番1号,8F,8Ｆだれでもトイレ,"設備: 車椅子対応, オストメイト対応",#00cc00,139.824388,35.697512
カメリアプラザ (カメリアプラザ),東京都 江東区亀戸二丁目19番1号,9F,9Ｆだれでもトイレ,"設備: 車椅子対応, オストメイト対応, おむつ交換台",#00cc00,139.824398,35.697524
江東区東大島文化センター (江東区東大島文化センター),東京都 江東区大島八丁目33番9号,1F,1階だれでもトイレ,"設備: 車椅子対応, オストメイト対応, 大型ベッド, おむつ交換台",#00cc00,139.84233,35.689876
江東区東大島文化センター (江東区東大島文化センター),東京都 江東区大島八丁目33番9号,2F,2階だれでもトイレ,"設備: 車椅子対応, おむつ交換台",#00cc00,139.842315,35.689889
江東区東大島文化センター (江東区東大島文化センター),東京都 江東区大島八丁目33番9号,3F,3階だれでもトイレ,"設備: 車椅子対応, おむつ交換台",#00cc00,139.842315,35.689889
江東区東大島文化センター (江東区東大島文化センター),東京都 江東区大島八丁目33番9号,4F,4階だれでもトイレ,"設備: 車椅子対応, おむつ交換台",#00cc00,139.842315,35.689889
江東区砂町文化センター,東京都 江東区北砂五丁目1番7号,1F,1階南側だれでもトイレ,"設備: 車椅子対応, オストメイト対応, おむつ交換台",#00cc00,139.831806,35.680141
江東区砂町文化センター,東京都 江東区北砂五丁目1番7号,2F,2階西側だれでもトイレ,"設備: 車椅子対応, おむつ交換台",#00cc00,139.831886,35.680436
江東区砂町文化センター,東京都 江東区北砂五丁目1番7号,3F,3階西側だれでもトイレ,"設備: 車椅子対応, おむつ交換台",#00cc00,139.831886,35.680436
江東区芭蕉記念館 (江東区芭蕉記念館),東京都 江東区常盤一丁目6番3号,1F,１階だれでもトイレ,設備: 車椅子対応,#00cc00,139.79411,35.686129
江東区中川船番所資料館,東京都 江東区大島九丁目1番15号,1F,１階だれでもトイレ,"設備: 車椅子対応, おむつ交換台",#00cc00,139.846292,35.687581
深川江戸資料館 (深川江戸資料館),東京都 江東区白河一丁目3番28号,1F,１階だれでもトイレ,"設備: 車椅子対応, オストメイト対応",#00cc00,139.800582,35.681212
深川江戸資料館 (深川江戸資料館),東京都 江東区白河一丁目3番28号,2F,２階だれでもトイレ,"設備: 車椅子対応, おむつ交換台",#00cc00,139.800582,35.681212
深川江戸資料館 (深川江戸資料館),東京都 江東区白河一丁目3番28号,B1F,地下階だれでもトイレ,"設備: 車椅子対応, おむつ交換台",#00cc00,139.800582,35.681212
江東区スポーツ会館,東京都 江東区北砂一丁目2番9号,1F,1階だれでもトイレ,"設備: 車椅子対応, オストメイト対応, おむつ交換台",#00cc00,139.821536,35.684161
江東区スポーツ会館,東京都 江東区北砂一丁目2番9号,1F,１階プールだれでもトイレ,"設備: 車椅子対応, オストメイト対応, おむつ交換台",#00cc00,139.821324,35.684248
深川スポーツセンター,東京都 江東区越中島一丁目2番18号,1F,１階だれでもトイレ,"設備: 車椅子対応, オストメイト対応, 大型ベッド, おむつ交換台",#00cc00,139.791486,35.670382
深川スポーツセンター,東京都 江東区越中島一丁目2番18号,2F,２階だれでもトイレ,"設備: 車椅子対応, 大型ベッド, おむつ交換台",#00cc00,139.791672,35.670297
深川スポーツセンター,東京都 江東区越中島一丁目2番18号,3F,３階だれでもトイレ,"設備: 車椅子対応, おむつ交換台",#00cc00,139.791672,35.670297
深川スポーツセンター,東京都 江東区越中島一丁目2番18号,4F,４階だれでもトイレ,"設備: 車椅子対応, おむつ交換台",#00cc00,139.791672,35.670297
亀戸スポーツセンター,東京都 江東区亀戸8-22-1,1F,1階東側だれでもトイレ,"設備: 車椅子対応, オストメイト対応",#00cc00,139.83626,35.700074
亀戸スポーツセンター,東京都 江東区亀戸8-22-1,2F,2階東側トイレ,"設備: 車椅子対応, 大型ベッド, おむつ交換台",#00cc00,139.83626,35.700074
亀戸スポーツセンター,東京都 江東区亀戸8-22-1,3F,3階西側トイレ,"設備: 車椅子対応, 大型ベッド, おむつ交換台",#00cc00,139.836533,35.70044
江東区東砂スポーツセンター,東京都 江東区東砂四丁目24番1号,1F,だれでもトイレ,"設備: 車椅子対応, おむつ交換台",#00cc00,139.839472,35.679178
江東区東砂スポーツセンター,東京都 江東区東砂四丁目24番1号,2F,障害者用更衣室内トイレ,設備: 車椅子対応,#00cc00,139.839472,35.679178
江東区東砂スポーツセンター,東京都 江東区東砂四丁目24番1号,B1F,障害者用更衣室内トイレ,"設備: 車椅子対応, オストメイト対応, おむつ交換台",#00cc00,139.839472,35.679178
深川北スポーツセンター,東京都 江東区平野三丁目2番20号,1F,1Fだれでもトイレ,設備: 車椅子対応,#00cc00,139.805247,35.676911
深川北スポーツセンター,東京都 江東区平野三丁目2番20号,2F,2Fだれでもトイレ,設備: 車椅子対応,#00cc00,139.805249,35.676892
有明スポーツセンター,東京都 江東区有明二丁目3番5号,3F,プール棟3階だれでもトイレ（女性用）,設備: 車椅子対応,#00cc00,139.783486,35.633693
有明スポーツセンター,東京都 江東区有明二丁目3番5号,3F,プール棟3階だれでもトイレ（男性用）,設備: 車椅子対応,#00cc00,139.783535,35.633726
有明スポーツセンター,東京都 江東区有明二丁目3番5号,4F,プール棟4階障害者トイレ,設備: 車椅子対応,#00cc00,139.78372,35.633391
有明スポーツセンター,東京都 江東区有明二丁目3番5号,6F,体育館棟6階障害者トイレ,設備: 車椅子対応,#00cc00,139.783713,35.633331
有明スポーツセンター,東京都 江東区有明二丁目3番5号,7F,体育館棟7階障害者トイレ,"設備: 車椅子対応, オストメイト対応",#00cc00,139.784166,35.63328
江東区新砂運動場 (東京都砂町再生センター内),東京都 江東区新砂三丁目9番1号,1F,だれでもトイレ,"第2、第4月曜日は休場日のため、ご利用はできません。（祝日の場合、翌日火曜日）12月30日〜1月2日は年末年始休場日のため、ご利用はできません。 | 設備: 車椅子対応, オストメイト対応, おむつ交換台",#00cc00,139.833763,35.656974
江東区新砂運動場 (東京都砂町再生センター内),東京都 江東区新砂三丁目9番1号,1F,多目的トイレ（女性用）,第2、第4月曜日は休場日のため、ご利用はできません。（祝日の場合、翌日火曜日）12月30日〜1月3日は年末年始休場日のため、ご利用はできません。 | 設備: 車椅子対応,#00cc00,139.835318,35.656982
江東区新砂運動場 (東京都砂町再生センター内),東京都 江東区新砂三丁目9番1号,1F,多目的トイレ（男性用）,第2、第4月曜日は休場日のため、ご利用はできません。（祝日の場合、翌日火曜日）12月30日〜1月3日は年末年始休場日のため、ご利用はできません。 | 設備: 車椅子対応,#00cc00,139.835318,35.656982
江東区青少年交流プラザ,東京都 江東区亀戸七丁目41番16号,1F,1階だれでもトイレ,"設備: 車椅子対応, オストメイト対応, おむつ交換台",#00cc00,139.837385,35.6968
江東区環境学習情報館 (江東区環境学習情報館),東京都 江東区潮見一丁目29番7号,1F,1階多機能トイレ,"設備: 車椅子対応, オストメイト対応, おむつ交換台",#00cc00,139.811515,35.655727
江東区環境学習情報館 (江東区環境学習情報館),東京都 江東区潮見一丁目29番7号,2F,2階多機能トイレ,"設備: 車椅子対応, おむつ交換台",#00cc00,139.811515,35.655727
江東区こどもプラザ,東京都 江東区住吉一丁目9番8号,1F,多機能トイレ,"トイレ名なし・ピクトグラムのみ）（事務上の呼称は”多機能トイレ” | 設備: 車椅子対応, オストメイト対応, おむつ交換台",#00cc00,139.812322,35.687572
江東区江東公会堂（ティアラこうとう）,東京都 江東区住吉二丁目28番36号,1F,1階 だれでもトイレ,"1階トイレは大ホール内ロビーに設置されているため、大ホール利用時でないとお使いいただけません。 | 設備: 車椅子対応, 大型ベッド, おむつ交換台",#00cc00,139.819704,35.688324
江東区江東公会堂（ティアラこうとう）,東京都 江東区住吉二丁目28番36号,B1F,地下1階 だれでもトイレ,"設備: 車椅子対応, オストメイト対応",#00cc00,139.819671,35.688527
江東区江東公会堂（ティアラこうとう）,東京都 江東区住吉二丁目28番36号,B2F,地下2階 だれでもトイレ,設備: 車椅子対応,#00cc00,139.819235,35.68852
万年橋際,東京都 江東区清澄二丁目14番9号,1F,万年橋際だれでもトイレ,"設備: 車椅子対応, オストメイト対応, おむつ交換台",#00cc00,139.794834,35.683182
八名川公園,東京都 江東区新大橋三丁目1番18号,1F,八名川公園内だれでもトイレ,設備: 車椅子対応,#00cc00,139.795879,35.686211
森下公園,東京都 江東区森下二丁目5番16号,1F,森下公園内だれでもトイレ,"設備: 車椅子対応, オストメイト対応",#00cc00,139.799463,35.686259
高森公園,東京都 江東区森下三丁目13番9号,1F,高森公園内だれでもトイレ,"設備: 車椅子対応, オストメイト対応, おむつ交換台",#00cc00,139.802969,35.685151
森下四丁目児童遊園,東京都 江東区森下四丁目16番2号,1F,森下四丁目児童遊園内だれでもトイレ,"設備: 車椅子対応, オストメイト対応, おむつ交換台",#00cc00,139.803663,35.686039
三好三丁目児童遊園,東京都 江東区三好三丁目1番10号,1F,三好三丁目児童遊園内だれでもトイレ,"設備: 車椅子対応, オストメイト対応",#00cc00,139.804515,35.680086
白河一丁目公園,東京都 江東区白河一丁目5番4号,1F,白河一丁目公園内だれでもトイレ,"設備: 車椅子対応, オストメイト対応",#00cc00,139.800763,35.683189
元加賀公園,東京都 江東区白河四丁目3番27号,1F,元加賀公園内だれでもトイレ,"設備: 車椅子対応, オストメイト対応, おむつ交換台",#00cc00,139.809014,35.681773
黒亀橋,東京都 江東区深川一丁目3番10号先,1F,黒亀橋際だれでもトイレ,"設備: 車椅子対応, オストメイト対応, おむつ交換台",#00cc00,139.79595,35.675448
油堀川公園,東京都 江東区門前仲町一丁目20番1号,1F,油堀川公園内だれでもトイレ,"設備: 車椅子対応, オストメイト対応",#00cc00,139.795662,35.674038
深川公園,東京都 江東区富岡一丁目14番10号,1F,深川公園内だれでもトイレ,"設備: 車椅子対応, オストメイト対応, おむつ交換台",#00cc00,139.797481,35.672371
牡丹町公園内,東京都 江東区牡丹二丁目1番2号,1F,牡丹町公園内だれでもトイレ,"設備: 車椅子対応, オストメイト対応, おむつ交換台",#00cc00,139.795287,35.66988
越中島公園,東京都 江東区越中島一丁目3番23号,1F,越中島公園内だれでもトイレ,設備: 車椅子対応,#00cc00,139.790017,35.66866
江東区営越中島プール,東京都 江東区越中島一丁目3番23号,1F,多目的トイレ,夏季期間のみの営業となります。 | 設備: 車椅子対応,#00cc00,139.789484,35.669024
仙台堀川公園,東京都 江東区北砂七丁目6番先,1F,仙台堀川親水公園内だれでもトイレ,"設備: 車椅子対応, オストメイト対応",#00cc00,139.838504,35.680081
仙台堀川公園,東京都 江東区北砂六丁目19番21号先から江東区東陽六丁目6番6号先,1F,弾正橋際だれでもトイレ,設備: 車椅子対応,#00cc00,139.826697,35.675319
仙台堀川公園,東京都 江東区北砂六丁目20番19号,1F,北砂六丁目バリアフリートイレ,"設備: 車椅子対応, おむつ交換台",#00cc00,139.8389501,35.68442684
扇橋公園,東京都 江東区石島18番地23号,1F,扇橋公園内だれでもトイレ,"設備: 車椅子対応, オストメイト対応",#00cc00,139.811848,35.680602
ボート場内第二,東京都 江東区海辺8番地16号先,1F,ボート場内第二だれでもトイレ,設備: 車椅子対応,#00cc00,139.820406,35.680947
三島橋公園内,東京都 江東区扇橋三丁目7番16号,1F,三島橋公園内だれでもトイレ,設備: 車椅子対応,#00cc00,139.820528,35.683165
扇橋三丁目公園内,東京都 江東区扇橋三丁目20番11号,1F,扇橋三丁目公園内だれでもトイレ,"設備: 車椅子対応, オストメイト対応",#00cc00,139.818672,35.68401
小松橋際児童遊園,東京都 江東区猿江一丁目5番18号,1F,小松橋児童遊園内トイレ,"設備: 車椅子対応, オストメイト対応, おむつ交換台",#00cc00,139.812408,35.684878
猿江一丁目公園,東京都 江東区猿江一丁目11番5号,1F,猿江一丁目公園内だれでもトイレ,"設備: 車椅子対応, オストメイト対応",#00cc00,139.812772,35.686463
住利公園,東京都 江東区住吉一丁目19番20号,1F,住利公園内だれでもトイレ,設備: 車椅子対応,#00cc00,139.812671,35.690052
木場二丁目公園,東京都 江東区木場二丁目11番9号,1F,木場二丁目公園内だれでもトイレ,"設備: 車椅子対応, おむつ交換台",#00cc00,139.804419,35.670324
舟木橋第二児童遊園,東京都 江東区木場二丁目18番14号,1F,舟木橋第二児童遊園だれでもトイレトイレ,"設備: 車椅子対応, オストメイト対応",#00cc00,139.804807,35.669701
木場親水公園　亀居橋際,東京都 江東区木場三丁目17番6号,1F,亀居橋際だれでもトイレ,"設備: 車椅子対応, オストメイト対応, おむつ交換台",#00cc00,139.806578,35.674559
東陽一丁目第二公園,東京都 江東区東陽一丁目39番8号,1F,東陽一丁目第二公園内だれでもトイレ,"設備: 車椅子対応, オストメイト対応",#00cc00,139.812548,35.665891
東陽三丁目公園,東京都 江東区東陽三丁目20番1号,1F,東陽三丁目公園内だれでもトイレ,設備: 車椅子対応,#00cc00,139.810915,35.668752
東陽公園,東京都 江東区東陽三丁目27番27号,1F,東陽公園内だれでもトイレ,"設備: 車椅子対応, オストメイト対応",#00cc00,139.815631,35.669768
横十間川親水公園,東京都 江東区東陽四丁目12番16号,1F,横十間川親水公園内生物の楽園際,設備: 車椅子対応,#00cc00,139.81926,35.674413
東陽五丁目公園,東京都 江東区東陽五丁目29番39号,1F,東陽五丁目公園内だれでもトイレ,"設備: 車椅子対応, オストメイト対応",#00cc00,139.813617,35.6727
豊住公園,東京都 江東区東陽六丁目1番13号,1F,豊住公園内だれでもトイレ,設備: 車椅子対応,#00cc00,139.811242,35.673682
東陽六丁目公園,東京都 江東区東陽六丁目5番18号,1F,東陽六丁目公園内だれでもトイレ,"設備: 車椅子対応, オストメイト対応",#00cc00,139.812345,35.675916
浜園公園,東京都 江東区塩浜一丁目4番4号,1F,浜園公園内だれでもトイレ1,"設備: 車椅子対応, おむつ交換台",#00cc00,139.802132,35.66187
塩浜公園,東京都 江東区塩浜二丁目10番14号,1F,塩浜公園内1,"設備: 車椅子対応, オストメイト対応",#00cc00,139.808885,35.664017
塩浜二丁目第二公園,東京都 江東区塩浜二丁目17番8号,1F,塩浜二丁目第二公園内だれでもトイレ,"設備: 車椅子対応, オストメイト対応, おむつ交換台",#00cc00,139.810207,35.66234
塩浜二丁目公園内,東京都 江東区塩浜二丁目25番16号,1F,塩浜二丁目公園内だれでもトイレ,"設備: 車椅子対応, オストメイト対応",#00cc00,139.814966,35.664629
枝川一丁目公園内,東京都 江東区枝川一丁目6番19号,1F,枝川一丁目公園内だれでもトイレ,"設備: 車椅子対応, オストメイト対応",#00cc00,139.803434,35.657352
朝凪公園内,東京都 江東区枝川一丁目8番5号,1F,朝凪公園内だれでもトイレ,設備: 車椅子対応,#00cc00,139.801962,35.657958
枝川三丁目公園内,東京都 江東区枝川三丁目3番5号,1F,枝川三丁目公園内だれでもトイレ,"設備: 車椅子対応, オストメイト対応",#00cc00,139.808334,35.658912
豊洲一丁目第二公園,東京都 江東区豊洲一丁目2番1号,1F,豊洲一丁目第二公園内だれでもトイレ,"設備: 車椅子対応, オストメイト対応",#00cc00,139.79214,35.659798
豊洲公園,東京都 江東区豊洲二丁目3番6号,1F,豊洲公園内だれでもトイレ,"設備: 車椅子対応, オストメイト対応",#00cc00,139.793704,35.6532
豊洲三丁目公園,東京都 江東区豊洲三丁目5番11号,1F,豊洲三丁目公園内だれでもトイレ,設備: 車椅子対応,#00cc00,139.796999,35.658069
豊洲四丁目公園,東京都 江東区豊洲四丁目5番30号先,1F,豊洲四丁目公園内だれでもトイレ,"設備: 車椅子対応, オストメイト対応, おむつ交換台",#00cc00,139.798397,35.654921
豊洲六丁目公園,東京都 江東区豊洲六丁目2番35号,1F,豊洲六丁目公園内だれでもトイレ,"設備: 車椅子対応, オストメイト対応, おむつ交換台",#00cc00,139.790929,35.646624
豊洲六丁目第二公園,東京都 江東区豊洲六丁目2番1号,1F,豊洲六丁目第二公園内だれでもトイレ,"設備: 車椅子対応, オストメイト対応, おむつ交換台",#00cc00,139.792804,35.650709
豊洲ぐるり公園,東京都 江東区豊洲六丁目5番33号,1F,豊洲ぐるり公園内だれでもトイレ1,"設備: 車椅子対応, オストメイト対応, おむつ交換台",#00cc00,139.779248,35.640726
豊洲ぐるり公園,東京都 江東区豊洲六丁目5番付近,1F,豊洲ぐるり公園内だれでもトイレ2,"設備: 車椅子対応, オストメイト対応, おむつ交換台",#00cc00,139.788082,35.644635
豊洲ぐるり公園,東京都 江東区豊洲六丁目3番付近,1F,豊洲ぐるり公園内だれでもトイレ3,"設備: 車椅子対応, オストメイト対応, おむつ交換台",#00cc00,139.782379,35.641065
豊洲ぐるり公園,東京都 江東区豊洲六丁目6番付近,1F,豊洲ぐるり公園内だれでもトイレ4,"設備: 車椅子対応, オストメイト対応, おむつ交換台",#00cc00,139.779415,35.644223
東雲水辺公園,東京都 江東区東雲一丁目9番58号,1F,東雲水辺公園内第一だれでもトイレ,設備: 車椅子対応,#00cc00,139.805691,35.645541
東雲水辺公園内,東京都 江東区東雲一丁目9番58号,1F,東雲水辺公園内第一だれでもトイレ,設備: 車椅子対応,#00cc00,139.805691,35.645541
東雲水辺公園内,東京都 江東区東雲一丁目9番58号,1F,東雲水辺公園内第二だれでもトイレ,設備: 車椅子対応,#00cc00,139.805202,35.648762
東雲二丁目公園,東京都 江東区東雲二丁目7番6号,1F,東雲二丁目公園,設備: 車椅子対応,#00cc00,139.803966,35.642872
東雲公園,東京都 江東区東雲二丁目4番17号,1F,東雲公園内だれでもトイレ,設備: 車椅子対応,#00cc00,139.79836,35.642789
潮見さざなみ公園,東京都 江東区潮見一丁目29番24号,1F,潮見さざなみ公園内だれでもトイレ,設備: 車椅子対応,#00cc00,139.816042,35.655209
文泉公園,東京都 江東区亀戸二丁目4番13号,1F,文泉公園内だれでもトイレ,設備: 車椅子対応,#00cc00,139.821994,35.69812
亀戸駅前公園,東京都 江東区亀戸二丁目21番9号,1F,亀戸駅前公園内だれでもトイレ,"設備: 車椅子対応, オストメイト対応",#00cc00,139.824968,35.698057
亀戸三丁目,東京都 江東区亀戸三丁目57番22号,1F,亀戸三丁目だれでもトイレ,"設備: 車椅子対応, オストメイト対応, おむつ交換台",#00cc00,139.825054,35.703491
亀島小学校記念公園,東京都 江東区亀戸三丁目36番20号,1F,亀戸三丁目第二だれでもトイレ,設備: 車椅子対応,#00cc00,139.819353,35.706779
亀戸五丁目公園,東京都 江東区亀戸五丁目24番4号,1F,亀戸五丁目公園内だれでもトイレ,設備: 車椅子対応,#00cc00,139.8288,35.700176
亀戸五丁目第二公園,東京都 江東区亀戸五丁目33番4号,1F,亀戸五丁目第二公園内だれでもトイレ,"設備: 車椅子対応, オストメイト対応",#00cc00,139.830167,35.698335
亀戸南公園,東京都 江東区亀戸六丁目18番1号,1F,亀戸南公園内だれでもトイレ,"設備: 車椅子対応, オストメイト対応, おむつ交換台",#00cc00,139.827855,35.695182
亀戸東公園,東京都 江東区亀戸七丁目8番13号,1F,亀戸東公園内だれでもトイレ,設備: 車椅子対応,#00cc00,139.833888,35.696591
亀戸七丁目,東京都 江東区亀戸七丁目52番17号,1F,亀戸七丁目だれでもトイレ,設備: 車椅子対応,#00cc00,139.837147,35.694349
亀戸七丁目北公園,東京都 江東区亀戸七丁目15番5号,1F,亀戸七丁目北公園内だれでもトイレ,"設備: 車椅子対応, オストメイト対応",#00cc00,139.835452,35.697919
亀戸七丁目南公園,東京都 江東区亀戸七丁目40番2号,1F,亀戸七丁目南公園内だれでもトイレ,"設備: 車椅子対応, オストメイト対応, おむつ交換台",#00cc00,139.837875,35.696148
八千代児童遊園,東京都 江東区亀戸八丁目6番6号,1F,八千代児童遊園内だれでもトイレ,"設備: 車椅子対応, オストメイト対応",#00cc00,139.83374,35.699538
亀戸浅間公園,東京都 江東区亀戸九丁目15番1号,1F,亀戸浅間公園内だれでもトイレ,設備: 車椅子対応,#00cc00,139.84403,35.695982
亀戸九丁目公園,東京都 江東区亀戸九丁目20番4号,1F,亀戸九丁目公園内だれでもトイレ,"設備: 車椅子対応, オストメイト対応",#00cc00,139.842725,35.698296
大島防災公園,東京都 江東区大島二丁目27番19号,1F,大島防災公園内だれでもトイレ,"設備: 車椅子対応, オストメイト対応",#00cc00,139.824116,35.691868
大島三丁目児童遊園,東京都 江東区大島三丁目31番15号,1F,大島三丁目児童遊園内だれでもトイレ,設備: 車椅子対応,#00cc00,139.831254,35.689573
大島四丁目公園,東京都 江東区大島四丁目17番9号,1F,大島四丁目公園内だれでもトイレ,"設備: 車椅子対応, オストメイト対応",#00cc00,139.831961,35.688027
大島五丁目公園,東京都 江東区大島五丁目27番16号,1F,大島五丁目公園内だれでもトイレ,"設備: 車椅子対応, オストメイト対応",#00cc00,139.836015,35.686601
竪川河川敷公園,東京都 江東区大島六丁目2番3号,1F,竪川河川敷公園内だれでもトイレ,"設備: 車椅子対応, オストメイト対応, おむつ交換台",#00cc00,139.833612,35.693804
大島六丁目第二児童遊園,東京都 江東区大島六丁目15番5号,1F,大島六丁目第二児童遊園内だれでもトイレ,設備: 車椅子対応,#00cc00,139.835565,35.691051
大島七丁目公園,東京都 江東区大島七丁目27番17号,1F,大島七丁目公園内だれでもトイレ,"設備: 車椅子対応, オストメイト対応",#00cc00,139.840555,35.692764
大島八丁目第二公園,東京都 江東区大島八丁目21番25号,1F,大島八丁目第二公園内だれでもトイレ,設備: 車椅子対応,#00cc00,139.840295,35.688839
旧中川・川の駅,東京都 江東区大島九丁目10番先,1F,旧中川・川の駅だれでもトイレ,"設備: 車椅子対応, オストメイト対応, おむつ交換台",#00cc00,139.846611,35.687558
北砂第二公園,東京都 江東区北砂一丁目3番25号,1F,北砂第二公園内だれでもトイレ,"設備: 車椅子対応, おむつ交換台",#00cc00,139.823724,35.684468
北砂二丁目公園,東京都 江東区北砂二丁目9番14号,1F,北砂二丁目公園内だれでもトイレ,設備: 車椅子対応,#00cc00,139.826269,35.679145
亀高児童遊園,東京都 江東区北砂四丁目22番30号,1F,亀高児童遊園内だれでもトイレ,"設備: 車椅子対応, おむつ交換台",#00cc00,139.831781,35.678232
亀高公園,東京都 江東区北砂六丁目26番8号,1F,亀高公園内だれでもトイレ,"設備: 車椅子対応, おむつ交換台",#00cc00,139.838572,35.68144
仙台堀川親水公園内第二,東京都 江東区千石三丁目1番12号先,1F,バリアフリートイレ,,#00cc00,139.818082,35.676538
南砂一丁目公園,東京都 江東区南砂一丁目1番5号,1F,南砂一丁目公園内だれでもトイレ,設備: 車椅子対応,#00cc00,139.821097,35.676763
南砂一丁目第二公園,東京都 江東区南砂一丁目3番18号,1F,南砂一丁目第二公園内だれでもトイレ,設備: 車椅子対応,#00cc00,139.821829,35.678742
松島橋児童遊園,東京都 江東区南砂一丁目21番12号,1F,松島橋際だれでもトイレ,"設備: 車椅子対応, オストメイト対応",#00cc00,139.824391,35.676206
南砂緑道公園,東京都 江東区南砂二丁目3番1号　江東区南砂二丁目35番6号先,1F,南砂緑道公園内だれでもトイレ,設備: 車椅子対応,#00cc00,139.820988,35.674146
南砂緑道公園,東京都 江東区南砂二丁目3番1号　江東区南砂二丁目35番6号先,1F,南砂緑道公園内第二だれでもトイレ,"設備: 車椅子対応, オストメイト対応",#00cc00,139.825242,35.673548
日曹橋公園,東京都 江東区南砂三丁目1番1号,1F,日曹橋公園内だれでもトイレ,設備: 車椅子対応,#00cc00,139.827934,35.669885
南砂三丁目公園,東京都 江東区南砂三丁目14番21号,1F,南砂三丁目公園内だれでもトイレ,"設備: 車椅子対応, オストメイト対応, おむつ交換台",#00cc00,139.833407,35.669659
南砂三丁目公園,東京都 江東区南砂三丁目14番21号,1F,南砂三丁目公園内第二だれでもトイレ,"設備: 車椅子対応, オストメイト対応",#00cc00,139.833027,35.670974
砂町橋公園,東京都 江東区南砂四丁目12番1号,1F,砂町橋公園内だれでもトイレ,"設備: 車椅子対応, オストメイト対応, おむつ交換台",#00cc00,139.832657,35.673614
境川公園,東京都 江東区南砂五丁目6番1号,1F,境川公園内だれでもトイレ,"設備: 車椅子対応, オストメイト対応",#00cc00,139.828365,35.676301
金森公園,東京都 江東区南砂五丁目19番13号,1F,金森公園内だれでもトイレ,"設備: 車椅子対応, オストメイト対応",#00cc00,139.832358,35.674795
東砂一丁目公園,東京都 江東区東砂一丁目2番13号,1F,東砂一丁目公園内だれでもトイレ,設備: 車椅子対応,#00cc00,139.839715,35.683709
舟入川公園,東京都 江東区東砂七丁目12番4号,1F,舟入川だれでもトイレ,"設備: 車椅子対応, オストメイト対応",#00cc00,139.840678,35.672643
砂町公園,東京都 江東区東砂七丁目15番3号,1F,砂町公園内だれでもトイレ,"設備: 車椅子対応, オストメイト対応, おむつ交換台",#00cc00,139.839872,35.674182
境川橋際,東京都 江東区東砂七丁目18番10号,1F,境川橋際,"設備: 車椅子対応, オストメイト対応",#00cc00,139.836609,35.675502
新砂あゆみ公園,東京都 江東区新砂三丁目3番6号,1F,新砂あゆみ公園内だれでもトイレ,"設備: 車椅子対応, オストメイト対応, おむつ交換台",#00cc00,139.831953,35.667957
新砂のぞみ公園,東京都 江東区新砂三丁目3番47号,1F,新砂のぞみ公園内だれでもトイレ,設備: 車椅子対応,#00cc00,139.830656,35.666732
新砂めぐみ公園,東京都 江東区新砂三丁目4番1号,1F,新砂めぐみ公園内だれでもトイレ,設備: 車椅子対応,#00cc00,139.837876,35.66633
若洲公園,東京都 江東区若洲三丁目2番内,1F,若洲公園内だれでもトイレ1,"設備: 車椅子対応, おむつ交換台",#00cc00,139.83377,35.618764
若洲公園,東京都 江東区若洲三丁目2番内,1F,若洲公園内だれでもトイレ2,"設備: 車椅子対応, おむつ交換台",#00cc00,139.832769,35.61792
若洲公園,東京都 江東区若洲三丁目2番内,1F,若洲公園内だれでもトイレ3,設備: 車椅子対応,#00cc00,139.832669,35.616584
南砂二丁目公園,東京都 江東区南砂二丁目24番4号,1F,南砂二丁目公園内だれでもトイレ,（注）パウチ、尿瓶洗浄水栓 | 設備: 車椅子対応,#00cc00,139.824929,35.674754
平野二丁目児童遊園,東京都 江東区平野二丁目8番2号,1F,平野二丁目児童遊園内だれでもトイレ,（注）パウチ、尿瓶洗浄水栓 | 設備: 車椅子対応,#00cc00,139.802752,35.678649
木場六丁目児童遊園,東京都 江東区木場六丁目13番７号,1F,木場六丁目児童遊園内だれでもトイレ,（注）パウチ、尿瓶洗浄水栓 | 設備: 車椅子対応,#00cc00,139.807791,35.668198
亀戸公園,東京都 江東区亀戸一丁目22番11号,1F,亀戸公園内だれでもトイレ,（注）パウチ、尿瓶洗浄水栓 | 設備: 車椅子対応,#00cc00,139.823828,35.695537
臨海公園,東京都 江東区門前仲町一丁目1番1号,1F,臨海公園内だれでもトイレ,（注）パウチ、尿瓶洗浄水栓 | 設備: 車椅子対応,#00cc00,139.792867,35.671884
平久公園,東京都 江東区木場六丁目4番18号,1F,平久公園内だれでもトイレ,"設備: 車椅子対応, オストメイト対応",#00cc00,139.80759,35.666882
亀島公園,東京都 江東区亀戸三丁目39番16号,1F,亀島公園内だれでもトイレ,"設備: 車椅子対応, オストメイト対応",#00cc00,139.82265,35.70554
古石場三丁目公園,東京都 江東区古石場三丁目1番4号,1F,古石場三丁目公園内だれでもトイレ,"設備: 車椅子対応, オストメイト対応",#00cc00,139.801544,35.665049
五間堀公園,東京都 江東区森下2-30-7,1F,バリアフリートイレ,設備: 車椅子対応,#00cc00,139.798429,35.689435
千石公園,東京都 江東区千石二丁目7番4号,1F,千石公園内バリアフリートイレ,"設備: 車椅子対応, オストメイト対応",#00cc00,139.815536,35.679379
扇橋一丁目公園,東京都 江東区扇橋一丁目21番28号,1F,扇橋一丁目公園内バリアフリートイレ,設備: 車椅子対応,#00cc00,139.811322,35.683969
亀堀公園,東京都 江東区深川一丁目6番38号,1F,亀堀公園内バリアフリートイレ,"設備: 車椅子対応, オストメイト対応, おむつ交換台",#00cc00,139.7948561,35.67719182
大島四丁目第二公園,東京都 江東区大島四丁目21番11号,1F,大島四丁目第二公園内バリアフリートイレ,"設備: 車椅子対応, オストメイト対応, おむつ交換台",#00cc00,139.832287,35.68646159
砂町中央公園,東京都 江東区北砂四丁目20番24号,1F,砂町中央公園内バリアフリートイレ,"設備: 車椅子対応, オストメイト対応, おむつ交換台",#00cc00,139.8318581,35.67670417
南砂四丁目西公園,東京都 江東区南砂四丁目4番5号,1F,南砂四丁目西公園内バリアフリートイレ,"設備: 車椅子対応, オストメイト対応, おむつ交換台",#00cc00,139.8275163,35.67391222
南砂六丁目公園,東京都 江東区南砂六丁目5番7号,1F,南砂六丁目公園内バリアフリートイレ,"設備: 車椅子対応, オストメイト対応, おむつ交換台",#00cc00,139.834257,35.67325303
扇橋一丁目児童遊園,東京都 江東区扇橋一丁目20番先,1F,扇橋一丁目児童遊園内バリアフリートイレ,"設備: 車椅子対応, オストメイト対応",#00cc00,139.8107837,35.68323677
豊洲五丁目公園,東京都 江東区豊洲五丁目3番1号,1F,豊洲五丁目公園内バリアフリートイレ,"設備: 車椅子対応, オストメイト対応",#00cc00,139.795894,35.65304747
亀戸西公園,東京都 江東区亀戸一丁目9番5号,1F,亀戸西公園内バリアフリートイレ,"設備: 車椅子対応, オストメイト対応",#00cc00,139.8226846,35.69562577
亀戸三丁目公園,東京都 江東区亀戸三丁目59番8号,1F,亀戸三丁目公園内バリアフリートイレ,設備: 車椅子対応,#00cc00,139.8239726,35.70314107
小名木川防災公園,東京都 江東区北砂五丁目21番5号,1F,小名木川防災公園内バリアフリートイレ,"設備: 車椅子対応, オストメイト対応",#00cc00,139.8308507,35.68292077
南砂四丁目公園,東京都 江東区南砂四丁目4番5号,1F,南砂四丁目公園内バリアフリートイレ,"設備: 車椅子対応, オストメイト対応",#00cc00,139.8298977,35.67420879
東砂三丁目公園,東京都 江東区東砂三丁目16番8号,1F,東砂三丁目公園内バリアフリートイレ,"設備: 車椅子対応, オストメイト対応",#00cc00,139.8412353,35.68222573
高橋際,東京都 江東区清澄三丁目11番1号,1F,高橋際だれでもトイレ,"設備: 車椅子対応, オストメイト対応",#00cc00,139.798414,35.683472
東深川橋際,東京都 江東区白河三丁目18番17号,1F,東深川橋際だれでもトイレ,"設備: 車椅子対応, オストメイト対応",#00cc00,139.803795,35.683728
佐賀二丁目,東京都 江東区佐賀二丁目1番6号,1F,佐賀二丁目だれでもトイレ,"設備: 車椅子対応, オストメイト対応",#00cc00,139.791052,35.679924
永代橋際,東京都 江東区永代一丁目1番4号,1F,永代橋際だれでもトイレ,"設備: 車椅子対応, オストメイト対応",#00cc00,139.78863,35.675651
門前仲町一丁目,東京都 江東区門前仲町一丁目7番7号,1F,門前仲町一丁目だれでもトイレ,設備: 車椅子対応,#00cc00,139.7948,35.672823
汐見橋際,東京都 江東区富岡二丁目13番5号,1F,汐見橋際だれでもトイレ,設備: 車椅子対応,#00cc00,139.801298,35.669576
豊洲駅前,東京都 江東区豊洲二丁目2番4号,1F,豊洲駅前だれでもトイレ,"設備: 車椅子対応, オストメイト対応, おむつ交換台",#00cc00,139.795434,35.655189
辰巳駅前,東京都 江東区辰巳一丁目1番40号,1F,辰巳駅前だれでもトイレ,"設備: 車椅子対応, オストメイト対応",#00cc00,139.80897,35.646847
潮見駅前,東京都 江東区潮見二丁目7番15号,1F,潮見駅前だれでもトイレ,（注）パウチ、尿瓶洗浄水栓 | 設備: 車椅子対応,#00cc00,139.816752,35.658889
釜屋堀,東京都 江東区大島一丁目2番26号,1F,釜屋堀だれでもトイレ,"設備: 車椅子対応, オストメイト対応",#00cc00,139.820831,35.686579
五の橋際,東京都 江東区大島二丁目31番1号,1F,五の橋際だれでもトイレ,"設備: 車椅子対応, オストメイト対応, おむつ交換台",#00cc00,139.825812,35.69338
進開橋際,東京都 江東区大島四丁目1番25号先,1F,進開橋際だれでもトイレ,設備: 車椅子対応,#00cc00,139.826794,35.68578
東大島駅前,東京都 江東区大島九丁目3番13号,1F,東大島駅だれでもトイレ,設備: 車椅子対応,#00cc00,139.845502,35.690288
（水上バス管理棟）北砂水上公園横,東京都 江東区北砂一丁目2番地先,1F,（水上バス管理棟）北砂水上公園横だれでもトイレ,"設備: 車椅子対応, オストメイト対応, おむつ交換台",#00cc00,139.821475,35.684952
東砂二丁目,東京都 江東区東砂二丁目13番50号,1F,東砂二丁目だれでもトイレ,設備: 車椅子対応,#00cc00,139.843849,35.684801
新木場駅前,東京都 江東区新木場一丁目5番10号,1F,新木場駅前だれでもトイレ,"設備: 車椅子対応, オストメイト対応",#00cc00,139.82597,35.645192
亀島橋際,東京都 江東区亀戸一丁目1番1号,1F,亀島橋際だれでもトイレ,（注）パウチ、尿瓶洗浄水栓 | 設備: 車椅子対応,#00cc00,139.820095,35.693536
東雲駅前,東京都 江東区東雲二丁目8番6号,1F,東雲駅前だれでもトイレ,（注）尿瓶洗浄水栓 | 設備: 車椅子対応,#00cc00,139.804677,35.640796
江東区伊予橋際,東京都 江東区森下二丁目31番2号,1F,伊予橋際バリアフリートイレ,"設備: 車椅子対応, オストメイト対応",#00cc00,139.800473,35.688298
新大橋際,東京都 江東区新大橋一丁目2番1号,1F,新大橋際バリアフリートイレ,"設備: 車椅子対応, オストメイト対応, おむつ交換台",#00cc00,139.7932618,35.68778691
高齢者総合福祉センター (高齢者総合福祉センター),東京都 江東区東陽六丁目2番17号,1F,１階だれでもトイレ,設備: 車椅子対応,#00cc00,139.812496,35.67475
江東区夢の島競技場,東京都 江東区夢の島一丁目1番2号,1F,だれでもトイレ,"利用可能時間12月1日〜2月28日：月曜日〜日曜祝日、0900_1700。12月29日〜1月3日年末年始休場日のため、利用はできません。 | 設備: 車椅子対応, オストメイト対応, 大型ベッド",#00cc00,139.824383,35.648579
江東区夢の島競技場,東京都 江東区夢の島一丁目1番2号,1F,多目的トイレ（北側）,"※団体利用時のみ、解放。 | 設備: 車椅子対応, おむつ交換台",#00cc00,139.823374,35.650134
江東区夢の島競技場,東京都 江東区夢の島一丁目1番2号,1F,多目的トイレ（北側）,"※団体利用時のみ、解放。 | 設備: 車椅子対応, おむつ交換台",#00cc00,139.823374,35.650134
江東区夢の島競技場,東京都 江東区夢の島一丁目1番2号,1F,多目的トイレ（南側）,"※団体利用時のみ、解放。 | 設備: 車椅子対応, おむつ交換台",#00cc00,139.8274,35.648001
江東区夢の島競技場,東京都 江東区夢の島一丁目1番2号,1F,多目的トイレ（南側）,"※団体利用時のみ、解放。 | 設備: 車椅子対応, おむつ交換台",#00cc00,139.8274,35.648001
江東区夢の島野球場管理事務所,東京都 江東区夢の島一丁目1番1号,1F,多目的トイレ,"利用可能時間10月21日〜10月31日：月曜日〜日曜祝日、0700_1600、11月1日〜3月31日：月曜日〜日曜祝日、0800_1600。12月29日〜1月3日年末年始休場日のため、利用はできません。 | 設備: 車椅子対応, オストメイト対応, 大型ベッド",#00cc00,139.82344,35.650135
竪川河川敷公園クラブハウス,東京都 江東区亀戸六丁目33番10号,1F,竪川河川敷公園内クラブハウスだれでもトイレ,"設備: 車椅子対応, オストメイト対応",#00cc00,139.830124,35.694088
潮見野球場庭球場クラブハウス,東京都 江東区潮見一丁目1番1号,1F,だれでもトイレ,"利用可能時間10月21日〜10月31日：月曜日〜日曜祝日 7:00〜16:00、11月1日〜3月31日：月曜日〜日曜祝日 8:00〜16:00。12月30日〜1月3日年末年始休場日のため、利用はできません。 | 設備: 車椅子対応, オストメイト対応, おむつ交換台",#00cc00,139.81025,35.655985
荒川砂町庭球場クラブハウス,東京都 江東区東砂三丁目28番13号,1F,だれでもトイレ,"利用可能時間11月1日〜1月31日：月曜日〜日曜祝日 8:00〜16:00、第2、第4月曜日が休場日（祝日の際、翌日火曜日が休場日）になるため利用できない。12月30日〜1月3日年末年始休場日のため、利用はできません。 | 設備: 車椅子対応, オストメイト対応, 大型ベッド",#00cc00,139.844989,35.680136
深川庭球場クラブハウス,東京都 江東区富岡一丁目1７番1号,1F,だれでもトイレ,"利用可能時間11月1日〜1月31日：月曜日〜日曜祝日 8:00〜16:00、第2、第4月曜日が休場日（祝日の際、翌日火曜日が休場日）になるため利用できない。12月30日〜1月3日年末年始休場日のため、利用はできません。 | 設備: 車椅子対応, オストメイト対応, 大型ベッド",#00cc00,139.79892,35.672304
深川東京モダン館,東京都 江東区門前仲町一丁目19番15号,1F,1階多目的便所,設備: 車椅子対応,#00cc00,139.79493,35.674095