name,address,floor,toilet_name,note,color,lng,lat
東京都人権プラザ (芝256スクエアビル1・2階),東京都 港区芝二丁目5番6号,1F,多機能トイレ,"設備: 車椅子対応, オストメイト対応, 大型ベッド, おむつ交換台",#00cc00,139.751659,35.652592
アジュール竹芝,東京都 港区海岸一丁目11番2号,12F,１２階だれでもトイレ,設備: 車椅子対応,#00cc00,139.763164,35.655244
アジュール竹芝,東京都 港区海岸一丁目11番2号,13F,１３階だれでもトイレ,設備: 車椅子対応,#00cc00,139.763372,35.655349
アジュール竹芝,東京都 港区海岸一丁目11番2号,14F,１４階だれでもトイレ,設備: 車椅子対応,#00cc00,139.763372,35.655349
アジュール竹芝,東京都 港区海岸一丁目11番2号,15F,１５階だれでもトイレ,設備: 車椅子対応,#00cc00,139.763372,35.655349
アジュール竹芝,東京都 港区海岸一丁目11番2号,16F,１６階だれでもトイレ,"設備: 車椅子対応, オストメイト対応",#00cc00,139.763372,35.655349
アジュール竹芝,東京都 港区海岸一丁目11番2号,18F,１８階だれでもトイレ,設備: 車椅子対応,#00cc00,139.763418,35.655362
アジュール竹芝,東京都 港区海岸一丁目11番2号,21F,２１階だれでもトイレ,設備: 車椅子対応,#00cc00,139.763441,35.655379
アジュール竹芝,東京都 港区海岸一丁目11番2号,3F,３階だれでもトイレ,設備: 車椅子対応,#00cc00,139.763122,35.655258
アジュール竹芝,東京都 港区海岸一丁目11番2号,4F,４階だれでもトイレ,"設備: 車椅子対応, オストメイト対応",#00cc00,139.763122,35.655258
港都税事務所,東京都 港区麻布台三丁目5番6号,1F,車椅子使用者対応トイレ,"設備: 車椅子対応, おむつ交換台",#00cc00,139.740212,35.659957
港都税事務所,東京都 港区麻布台三丁目5番6号,8F,車椅子使用者対応トイレ,"設備: 車椅子対応, オストメイト対応",#00cc00,139.740205,35.660015
東京都庭園美術館,東京都 港区白金台5-21-9,1F,本館,"※休館日/月曜日、月曜が祝日の場合はその翌日 | 設備: 車椅子対応, オストメイト対応, おむつ交換台",#00cc00,139.719407,35.637014
東京都庭園美術館,東京都 港区白金台5-21-9,1F,新館,"※休館日/月曜日、月曜が祝日の場合はその翌日 | 設備: 車椅子対応, オストメイト対応, おむつ交換台",#00cc00,139.718617,35.636921
東京都庭園美術館,東京都 港区白金台5-21-9,1F,レストラン外,"※休館日/月曜日、月曜が祝日の場合はその翌日 | 設備: 車椅子対応, オストメイト対応, おむつ交換台",#00cc00,139.720403,35.635675
東京都庭園美術館,東京都 港区白金台5-21-9,1F,レストラン内,"※休館日/月曜日、月曜が祝日の場合はその翌日 | 設備: 車椅子対応, オストメイト対応, おむつ交換台",#00cc00,139.720403,35.635675
東京都障害者福祉会館,東京都 港区芝五丁目18番2号,1F,１階北側奥トイレ,設備: 車椅子対応,#00cc00,139.748339,35.648617
東京都障害者福祉会館,東京都 港区芝五丁目18番2号,1F,１階北側手前トイレ,設備: 車椅子対応,#00cc00,139.748524,35.648591
東京都障害者福祉会館,東京都 港区芝五丁目18番2号,1F,１階北側真ん中トイレ,設備: 車椅子対応,#00cc00,139.748457,35.648599
東京都障害者福祉会館,東京都 港区芝五丁目18番2号,2F,２階南側トイレ,設備: 車椅子対応,#00cc00,139.748422,35.648146
東京都障害者福祉会館,東京都 港区芝五丁目18番2号,2F,２階北側奥トイレ,"設備: 車椅子対応, オストメイト対応",#00cc00,139.748352,35.648609
東京都障害者福祉会館,東京都 港区芝五丁目18番2号,2F,２階北側手前トイレ,設備: 車椅子対応,#00cc00,139.748413,35.648604
東京都立産業貿易センター浜松町館,東京都 港区海岸一丁目７番1号,2F,多目的トイレ,"設備: 車椅子対応, オストメイト対応, おむつ交換台",#00cc00,139.760688,35.654622
東京都立産業貿易センター浜松町館,東京都 港区海岸一丁目７番1号,3F,多目的トイレ,"設備: 車椅子対応, オストメイト対応, おむつ交換台",#00cc00,139.760688,35.654622
東京都立産業貿易センター浜松町館,東京都 港区海岸一丁目７番1号,4F,多目的トイレ,"設備: 車椅子対応, オストメイト対応, おむつ交換台",#00cc00,139.760688,35.654622
東京都立産業貿易センター浜松町館,東京都 港区海岸一丁目７番1号,5F,多目的トイレ,"設備: 車椅子対応, オストメイト対応, おむつ交換台",#00cc00,139.760688,35.654622
東京都中央卸売市場食肉市場 (センタービル),東京都 港区港南二丁目7番19号,6F,センタービル西側,※休館日/土曜日・日曜日・祝日・年末年始 | 設備: 車椅子対応,#00cc00,139.7436,35.627986
東京都中央卸売市場食肉市場 (センタービル),東京都 港区港南二丁目7番19号,6F,センタービル西側,※休館日/土曜日・日曜日・祝日・年末年始 | 設備: 車椅子対応,#00cc00,139.743626,35.627984
芝公園,東京都 港区芝公園二丁目7番2号,1F,15号地多目的トイレ,"設備: 車椅子対応, おむつ交換台",#00cc00,139.750275,35.654422
芝公園,東京都 港区芝公園四丁目3番,1F,19号地多目的トイレ,"設備: 車椅子対応, オストメイト対応, おむつ交換台",#00cc00,139.746127,35.65723
芝公園,東京都 港区芝公園一丁目4番,1F,6号地多目的トイレ,"設備: 車椅子対応, おむつ交換台",#00cc00,139.750903,35.659263
青山霊園,東京都 港区南青山二丁目32番2号,1F,管理事務所横多目的トイレ,"12/28〜1/3の期間は、管理所が閉所しているため使用不可。 | 設備: 車椅子対応, おむつ交換台",#00cc00,139.720988,35.668507
青山霊園,東京都 港区南青山二丁目34番地,1F,青山墓地中央交差点角多目的トイレ,12/28〜1/3の期間は、管理所は閉所しているが、警備員さんが出勤していて通常通り利用可能。 | 設備: 車椅子対応,#00cc00,139.722604,35.66485
青山霊園,東京都 港区南青山四丁目28番地,1F,立山墓地階段上多目的トイレ,"12/28〜1/3の期間は、管理所は閉所しているが、警備員さんが出勤していて通常通り利用可能。 | 設備: 車椅子対応, オストメイト対応",#00cc00,139.719382,35.6637
青山霊園,東京都 港区南青山二丁目35番,1F,南中央入口脇多目的トイレ,"12/28〜1/3の期間は、管理所は閉所しているが、警備員さんが出勤していて通常通り利用可能。 | 設備: 車椅子対応, オストメイト対応, おむつ交換台",#00cc00,139.723175,35.662118
旧芝離宮恩賜庭園,東京都 港区海岸一丁目4番1号,1F,入り口近く多目的トイレ,"※休園日／年末年始（12/29〜1/1） | 設備: 車椅子対応, オストメイト対応, おむつ交換台",#00cc00,139.758223,35.656008
お台場海浜公園,東京都 港区台場一丁目,1F,テラス,"設備: 車椅子対応, おむつ交換台",#00cc00,139.777789,35.631043
お台場海浜公園,東京都 港区台場一丁目,1F,マリンハウス,"設備: 車椅子対応, おむつ交換台",#00cc00,139.775452,35.630018
お台場海浜公園,東京都 港区台場一丁目,1F,海上バス待合所,"設備: 車椅子対応, おむつ交換台",#00cc00,139.773675,35.62887
お台場海浜公園,東京都 港区台場一丁目,1F,西側,"設備: 車椅子対応, オストメイト対応, おむつ交換台",#00cc00,139.769707,35.626649
お台場海浜公園,東京都 港区台場一丁目,1F,中側,"設備: 車椅子対応, オストメイト対応, おむつ交換台",#00cc00,139.771604,35.62786
お台場海浜公園,東京都 港区台場一丁目,1F,東側,"設備: 車椅子対応, おむつ交換台",#00cc00,139.77686,35.633196
シンボルプロムナード公園,東京都 港区台場一丁目,1F,テレポート駅,"設備: 車椅子対応, オストメイト対応, おむつ交換台",#00cc00,139.779599,35.626329
シンボルプロムナード公園,東京都 港区台場一丁目,1F,国際交流館前,"設備: 車椅子対応, オストメイト対応, おむつ交換台",#00cc00,139.776718,35.620589
シンボルプロムナード公園,東京都 港区台場一丁目,1F,駐車場Ａ棟,設備: 車椅子対応,#00cc00,139.77191,35.626714
シンボルプロムナード公園,東京都 港区台場一丁目,1F,駐車場Ｂ棟,設備: 車椅子対応,#00cc00,139.772722,35.625747
シンボルプロムナード公園,東京都 港区台場一丁目,1F,副都心広場,"設備: 車椅子対応, オストメイト対応, おむつ交換台",#00cc00,139.775069,35.623875
品川北ふ頭公園,東京都 港区港南五丁目,1F,バリアフリートイレ,"設備: 車椅子対応, オストメイト対応, おむつ交換台",#00cc00,139.754995,35.630681
台場ﾌﾛﾝﾃｨｱﾋﾞﾙ (台場ﾌﾛﾝﾃｨｱﾋﾞﾙ),東京都 港区台場二丁目3番2号,1F,1階西側だれでもﾄｲﾚ,"設備: 車椅子対応, オストメイト対応",#00cc00,139.777387,35.628573
台場ﾌﾛﾝﾃｨｱﾋﾞﾙ (台場ﾌﾛﾝﾃｨｱﾋﾞﾙ),東京都 港区台場二丁目3番2号,1F,1階東側だれでもﾄｲﾚ,設備: 車椅子対応,#00cc00,139.778229,35.628859
台場ﾌﾛﾝﾃｨｱﾋﾞﾙ (台場ﾌﾛﾝﾃｨｱﾋﾞﾙ),東京都 港区台場二丁目3番3号,2F,2階東側だれでもﾄｲﾚ,"設備: 車椅子対応, おむつ交換台",#00cc00,139.778214,35.628852
ﾆｭｰﾋﾟｱ竹芝ﾉｰｽﾀﾜｰ (ﾆｭｰﾋﾟｱ竹芝ﾉｰｽﾀﾜｰ),東京都 港区海岸一丁目11番1号,1F,ﾆｭｰﾋﾟｱﾎｰﾙだれでもﾄｲﾚ,設備: 車椅子対応,#00cc00,139.763462,35.655553
ﾆｭｰﾋﾟｱ竹芝ﾉｰｽﾀﾜｰ (ﾆｭｰﾋﾟｱ竹芝ﾉｰｽﾀﾜｰ),東京都 港区海岸一丁目11番1号,3F,ﾙﾐｱﾓｰﾚだれでもﾄｲﾚ,"ﾙﾐｱﾓｰﾚ営業時間のみ利用可能 | 設備: 車椅子対応, オストメイト対応",#00cc00,139.763437,35.655498
ﾆｭｰﾋﾟｱ竹芝ｻｳｽﾀﾜｰ (ﾆｭｰﾋﾟｱ竹芝ｻｳｽﾀﾜｰ),東京都 港区海岸一丁目16番1号,3F,3階だれでもﾄｲﾚ,設備: 車椅子対応,#00cc00,139.762288,35.653182
ﾆｭｰﾋﾟｱ竹芝ｻｳｽﾀﾜｰ (ﾆｭｰﾋﾟｱ竹芝ｻｳｽﾀﾜｰ),東京都 港区海岸一丁目16番1号,4F,4階だれでもﾄｲﾚ,設備: 車椅子対応,#00cc00,139.762342,35.653612
日の出ふ頭1号船客待合所,東京都 港区海岸二丁目,1F,船客待合所内だれでもトイレ,"現在開館時間は着船の状況により変化 | 設備: 車椅子対応, おむつ交換台",#00cc00,139.760405,35.650573
竹芝客船ターミナル,東京都 港区海岸一丁目16-1,1F,ターミナル内だれでもトイレ1,"トイレ入口横の点字案内図までは点字ブロック敷設 ※現地調査で確認とのことなので、左記表は修正していません。 | 設備: 車椅子対応, オストメイト対応, 大型ベッド",#00cc00,139.762613,35.654039
竹芝客船ターミナル,東京都 港区海岸一丁目,1F,外構部だれでもトイレ,"設備: 車椅子対応, オストメイト対応, おむつ交換台",#00cc00,139.762613,35.654039
竹芝客船ターミナル,東京都 港区海岸一丁目16-1,1F,ターミナル内だれでもトイレ2,"トイレ入口横の点字案内図までは点字ブロック敷設 ※現地調査で確認とのことなので、左記表は修正していません。 | 設備: 車椅子対応, オストメイト対応, おむつ交換台",#00cc00,139.762367,35.653078
レインボーブリッジ芝浦アンカレイジ,東京都 港区海岸三丁目33,2F,芝浦アンカレイジトイレ,登録漏れ | 設備: 車椅子対応,#00cc00,139.758737,35.638047
都営浅草線高輪台駅,東京都 港区白金台二丁目26番7号先,B1F,だれでもトイレ,"設備: 車椅子対応, オストメイト対応, おむつ交換台",#00cc00,139.730353,35.631669
都営浅草線泉岳寺駅,東京都 港区高輪二丁目16番34号,B1F,だれでもトイレ,"設備: 車椅子対応, オストメイト対応, おむつ交換台",#00cc00,139.740347,35.639594
都営浅草線泉岳寺駅,東京都 港区高輪二丁目16番34号,B1F,だれでもトイレ,"設備: 車椅子対応, オストメイト対応, おむつ交換台",#00cc00,139.740347,35.639594
都営浅草線三田駅,東京都 港区芝五丁目34番10号,B1F,浅草線だれでもトイレ,"介助シート（大型ベッド・おむつ交換台兼用）あり | 設備: 車椅子対応, オストメイト対応, 大型ベッド",#00cc00,139.746614,35.646616
都営浅草線大門駅,東京都 港区浜松町一丁目27番12号,B1F,浅草線だれでもトイレＡ,"設備: 車椅子対応, オストメイト対応, おむつ交換台",#00cc00,139.754191,35.656834
都営浅草線大門駅,東京都 港区浜松町一丁目27番12号,B1F,浅草線だれでもトイレＢ,"設備: 車椅子対応, オストメイト対応, おむつ交換台",#00cc00,139.754943,35.656804
都営浅草線新橋駅,東京都 港区新橋二丁目21番1号先,B1F,だれでもトイレ,"設備: 車椅子対応, オストメイト対応, おむつ交換台",#00cc00,139.759255,35.665094
都営三田線三田駅,東京都 港区芝五丁目18番8号,B3F,三田線だれでもトイレ,"設備: 車椅子対応, オストメイト対応, 大型ベッド, おむつ交換台",#00cc00,139.74889,35.648406
都営三田線芝公園駅,東京都 港区芝公園四丁目8番14号,B1F,だれでもトイレ,"設備: 車椅子対応, オストメイト対応, おむつ交換台",#00cc00,139.75002,35.65512
都営三田線駅御成門駅,東京都 港区西新橋三丁目24番6号,B1F,だれでもトイレ,"設備: 車椅子対応, オストメイト対応, おむつ交換台",#00cc00,139.751273,35.660691
都営大江戸線汐留駅,東京都 港区東新橋一丁目9番1号先,B2F,だれでもトイレ,"設備: 車椅子対応, オストメイト対応, おむつ交換台",#00cc00,139.759917,35.662945
都営大江戸線大門駅,東京都 港区浜松町二丁目3番4号,B3F,大江戸線だれでもトイレ,"設備: 車椅子対応, オストメイト対応, おむつ交換台",#00cc00,139.755802,35.656739
都営大江戸線赤羽橋駅,東京都 港区東麻布一丁目28番13号,B1F,だれでもトイレ,"設備: 車椅子対応, オストメイト対応, おむつ交換台",#00cc00,139.744196,35.655029
都営大江戸線麻布十番駅,東京都 港区麻布十番一丁目4番6号,B4F,だれでもトイレ,"設備: 車椅子対応, オストメイト対応, おむつ交換台",#00cc00,139.736547,35.656455
都営大江戸線六本木駅,東京都 港区赤坂九丁目7番39号,B1F,だれでもトイレＡ,"設備: 車椅子対応, オストメイト対応, おむつ交換台",#00cc00,139.730338,35.664783
都営大江戸線六本木駅,東京都 港区赤坂九丁目7番39号,B1F,だれでもトイレＢ,"設備: 車椅子対応, オストメイト対応, おむつ交換台",#00cc00,139.731829,35.663597
都営大江戸線青山一丁目駅,東京都 港区北青山一丁目2番4号,B1F,だれでもトイレＡ,"設備: 車椅子対応, オストメイト対応, おむつ交換台",#00cc00,139.723766,35.673714
都営大江戸線青山一丁目駅,東京都 港区北青山一丁目2番4号,B1F,だれでもトイレＢ,"設備: 車椅子対応, オストメイト対応, おむつ交換台",#00cc00,139.724065,35.672374
東京都水道局港営業所,東京都 港区三田一丁目3番27号,1F,だれでもトイレ,"設備: 車椅子対応, オストメイト対応, おむつ交換台",#00cc00,139.744175,35.654492
東京都立中央図書館 (東京都立中央図書館),東京都 港区南麻布五丁目7番13号,1F,１階車椅子用トイレ（女子トイレ側）,"設備: 車椅子対応, おむつ交換台",#00cc00,139.726622,35.652134
東京都立中央図書館 (東京都立中央図書館),東京都 港区南麻布五丁目7番13号,1F,１階車椅子用トイレ（男子トイレ側）,設備: 車椅子対応,#00cc00,139.726629,35.652114
東京都立中央図書館 (東京都立中央図書館),東京都 港区南麻布五丁目7番13号,2F,２階車椅子用トイレ,"設備: 車椅子対応, おむつ交換台",#00cc00,139.726642,35.652098
東京都立中央図書館 (東京都立中央図書館),東京都 港区南麻布五丁目7番13号,3F,３階車椅子用トイレ,"設備: 車椅子対応, オストメイト対応",#00cc00,139.726642,35.652098
東京都立中央図書館 (東京都立中央図書館),東京都 港区南麻布五丁目7番13号,4F,４階車椅子用トイレ,設備: 車椅子対応,#00cc00,139.726642,35.652098
東京都立中央図書館 (東京都立中央図書館),東京都 港区南麻布五丁目7番13号,5F,５階車椅子用トイレ,設備: 車椅子対応,#00cc00,139.726642,35.652098
芝消防署,東京都 港区東新橋二丁目13番7号,1F,だれでもトイレ,"設備: 車椅子対応, オストメイト対応, おむつ交換台",#00cc00,139.756626,35.660288
麻布地区総合支所,東京都 港区六本木五丁目16番45号,1F,１階エントランスだれでもトイレ,"設備: 車椅子対応, おむつ交換台",#00cc00,139.734846,35.660742
麻布地区総合支所,東京都 港区六本木五丁目16番45号,2F,２階エントランスだれでもトイレ,"設備: 車椅子対応, おむつ交換台",#00cc00,139.734846,35.660742
麻布地区総合支所,東京都 港区六本木五丁目16番45号,3F,３階エントランスだれでもトイレ,"設備: 車椅子対応, オストメイト対応, おむつ交換台",#00cc00,139.734846,35.660742
麻布地区総合支所,東京都 港区六本木五丁目16番45号,3F,３階奥オストメイトトイレ,"設備: 車椅子対応, オストメイト対応",#00cc00,139.734846,35.660742
麻布地区総合支所,東京都 港区六本木五丁目16番45号,B1F,地下1階誰でもトイレ,"設備: 車椅子対応, おむつ交換台",#00cc00,139.734846,35.660742
港区赤坂地区総合支所 (赤坂コミュニティーぷらざ),東京都 港区赤坂四丁目18番13号,1F,1階多目的便所,"設備: 車椅子対応, おむつ交換台",#00cc00,139.731828,35.674785
港区赤坂地区総合支所 (赤坂コミュニティーぷらざ),東京都 港区赤坂四丁目18番13号,2F,2階多目的便所,"設備: 車椅子対応, オストメイト対応, おむつ交換台",#00cc00,139.731491,35.674716
港区スポーツセンター (みなとパーク芝浦３Ｆ),東京都 港区芝浦一丁目16番1号,3F,３階Barrier-Free Toilet,"休館日毎月１月曜日（祝日にあたる場合は翌平日）１２月３１日〜１月３日停電検査実施（未定・２日間） | 設備: 車椅子対応, オストメイト対応, 大型ベッド, おむつ交換台",#00cc00,139.75188,35.646736
港区スポーツセンター (みなとパーク芝浦４Ｆ),東京都 港区芝浦一丁目16番1号,4F,４階Barrier-Free Toilet,"休館日毎月１月曜日（祝日にあたる場合は翌平日）１２月３１日〜１月３日停電検査実施（未定・２日間） | 設備: 車椅子対応, オストメイト対応, 大型ベッド, おむつ交換台",#00cc00,139.75188,35.646736
港区スポーツセンター (みなとパーク芝浦５Ｆ),東京都 港区芝浦一丁目16番1号,5F,５階Barrier-Free Toilet,"休館日毎月１月曜日（祝日にあたる場合は翌平日）１２月３１日〜１月３日停電検査実施（未定・２日間） | 設備: 車椅子対応, オストメイト対応, 大型ベッド, おむつ交換台",#00cc00,139.75188,35.646736
港区スポーツセンター (みなとパーク芝浦６Ｆ),東京都 港区芝浦一丁目16番1号,6F,６階Barrier-Free Toilet,"休館日毎月１月曜日（祝日にあたる場合は翌平日）１２月３１日〜１月３日停電検査実施（未定・２日間） | 設備: 車椅子対応, オストメイト対応, 大型ベッド, おむつ交換台",#00cc00,139.75188,35.646736
港区スポーツセンター (みなとパーク芝浦８Ｆ),東京都 港区芝浦一丁目16番1号,8F,８階Barrier-Free Toilet,"休館日毎月１月曜日（祝日にあたる場合は翌平日）１２月３１日〜１月３日停電検査実施（未定・２日間） | 設備: 車椅子対応, オストメイト対応, 大型ベッド, おむつ交換台",#00cc00,139.75188,35.646736
港区役所庁舎 (行政棟),東京都 港区芝公園一丁目５番２５号,B1F,行政棟地下１階だれでもトイレ,"設備: 車椅子対応, おむつ交換台",#00cc00,139.75145,35.658061
港区役所庁舎 (行政棟),東京都 港区芝公園一丁目５番２５号,1F,行政棟 １階だれでもトイレ,"設備: 車椅子対応, オストメイト対応, おむつ交換台",#00cc00,139.751428,35.658023
港区役所庁舎 (行政棟),東京都 港区芝公園一丁目５番２５号,2F,行政棟 ２階だれでもトイレ,"設備: 車椅子対応, オストメイト対応, おむつ交換台",#00cc00,139.751366,35.658049
港区役所庁舎 (行政棟),東京都 港区芝公園一丁目５番２５号,3F,行政棟 ３階だれでもトイレ,"設備: 車椅子対応, 大型ベッド",#00cc00,139.75143,35.658022
港区役所庁舎 (行政棟),東京都 港区芝公園一丁目５番２５号,4F,行政棟 ４階だれでもトイレ,"設備: 車椅子対応, おむつ交換台",#00cc00,139.751431,35.658023
港区役所庁舎 (行政棟),東京都 港区芝公園一丁目５番２５号,5F,行政棟 ５階だれでもトイレ,"設備: 車椅子対応, 大型ベッド",#00cc00,139.751429,35.658023
港区役所庁舎 (行政棟),東京都 港区芝公園一丁目５番２５号,6F,行政棟 ６階だれでもトイレ,"設備: 車椅子対応, おむつ交換台",#00cc00,139.751429,35.658023
港区役所庁舎 (行政棟),東京都 港区芝公園一丁目５番２５号,7F,行政棟 ７階だれでもトイレ,"設備: 車椅子対応, オストメイト対応, おむつ交換台",#00cc00,139.751428,35.658024
港区役所庁舎 (行政棟),東京都 港区芝公園一丁目５番２５号,8F,行政棟 ８階だれでもトイレ,"設備: 車椅子対応, 大型ベッド",#00cc00,139.751428,35.658024
港区役所庁舎 (行政棟),東京都 港区芝公園一丁目５番２５号,9F,行政棟 ９階だれでもトイレ,"設備: 車椅子対応, オストメイト対応, おむつ交換台",#00cc00,139.751426,35.658023
港区役所庁舎 (行政棟),東京都 港区芝公園一丁目５番２５号,10F,行政棟 １０階だれでもトイレ,"設備: 車椅子対応, 大型ベッド",#00cc00,139.751428,35.658023
港区役所庁舎 (行政棟),東京都 港区芝公園一丁目５番２５号,11F,行政棟 １１階だれでもトイレ,"設備: 車椅子対応, オストメイト対応, おむつ交換台",#00cc00,139.751428,35.658023
港区役所庁舎 (議会棟),東京都 港区芝公園一丁目５番２５号,B1F,議会棟地下１階だれでもトイレ,"設備: 車椅子対応, オストメイト対応, おむつ交換台",#00cc00,139.751287,35.657632
港区役所庁舎 (議会棟),東京都 港区芝公園一丁目５番２５号,1F,議会棟 １階だれでもトイレ,設備: 車椅子対応,#00cc00,139.751202,35.657642
港区役所庁舎 (議会棟),東京都 港区芝公園一丁目５番２５号,2F,議会棟 ２階だれでもトイレ,"設備: 車椅子対応, 大型ベッド",#00cc00,139.7512,35.657638
港区役所庁舎 (議会棟),東京都 港区芝公園一丁目５番２５号,3F,議会棟 ３階だれでもトイレ,設備: 車椅子対応,#00cc00,139.7512,35.657638
港区役所庁舎 (議会棟),東京都 港区芝公園一丁目５番２５号,4F,議会棟 ４階だれでもトイレ,設備: 車椅子対応,#00cc00,139.751199,35.657637
港区役所庁舎 (議会棟),東京都 港区芝公園一丁目５番２５号,5F,議会棟 ５階だれでもトイレ,"設備: 車椅子対応, オストメイト対応",#00cc00,139.7512,35.657638
港区役所庁舎 (議会棟),東京都 港区芝公園一丁目５番２５号,6F,議会棟 ６階だれでもトイレ,設備: 車椅子対応,#00cc00,139.751202,35.657642
高輪地区総合支所 (高輪コミュニティープラザ),東京都 港区高輪一丁目16番25号,1F,ピクトグラム,"音声案内は利用者の送信機が必要 | 設備: 車椅子対応, オストメイト対応",#00cc00,139.73397,35.641965
高輪地区総合支所 (高輪コミュニティープラザ),東京都 港区高輪一丁目16番25号,2F,ピクトグラム,"音声案内は利用者の送信機が必要 | 設備: 車椅子対応, オストメイト対応, 大型ベッド, おむつ交換台",#00cc00,139.733927,35.641917
高輪地区総合支所 (高輪コミュニティープラザ),東京都 港区高輪一丁目16番25号,4F,ピクトグラム,"設備: 車椅子対応, オストメイト対応",#00cc00,139.733998,35.641846
高輪地区総合支所 (高輪コミュニティープラザ),東京都 港区高輪一丁目16番25号,5F,ピクトグラム,"音声案内は利用者の送信機が必要 | 設備: 車椅子対応, オストメイト対応",#00cc00,139.733999,35.641846
高輪地区総合支所 (高輪コミュニティープラザ),東京都 港区高輪一丁目16番25号,B2,ピクトグラム,"設備: 車椅子対応, オストメイト対応",#00cc00,139.734086,35.642027
芝浦港南地区総合支所 (みなとパーク芝浦),東京都 港区芝浦一丁目16番1号,B1F,Barrier-Free Toilet,"設備: 車椅子対応, オストメイト対応, おむつ交換台",#00cc00,139.751473,35.646214
芝浦港南地区総合支所 (みなとパーク芝浦),東京都 港区芝浦一丁目16番1号,1F,Barrier-Free Toilet,"設備: 車椅子対応, オストメイト対応, 大型ベッド",#00cc00,139.751811,35.646722
芝浦港南地区総合支所 (みなとパーク芝浦),東京都 港区芝浦一丁目16番1号,1F,Barrier-Free Toilet,"設備: 車椅子対応, オストメイト対応, おむつ交換台",#00cc00,139.75155,35.646325
芝浦港南地区総合支所 (みなとパーク芝浦),東京都 港区芝浦一丁目16番1号,2F,Barrier-Free Toilet,"設備: 車椅子対応, オストメイト対応, おむつ交換台",#00cc00,139.75155,35.646325
芝浦港南地区総合支所 (みなとパーク芝浦),東京都 港区芝浦一丁目16番1号,3F,Barrier-Free Toilet,"設備: 車椅子対応, オストメイト対応, おむつ交換台",#00cc00,139.75155,35.646325
産業振興課 (札の辻スクエア),東京都 港区芝五丁目36番4号,8F,ピクトグラム,"設備: 車椅子対応, オストメイト対応, おむつ交換台",#00cc00,139.744779,35.645055
産業振興センター (札の辻スクエア),東京都 港区芝五丁目36番4号,9F,ピクトグラム,"設備: 車椅子対応, オストメイト対応, おむつ交換台",#00cc00,139.744779,35.645055
産業振興センター (札の辻スクエア),東京都 港区芝五丁目36番4号,10F,ピクトグラム,"設備: 車椅子対応, オストメイト対応, おむつ交換台",#00cc00,139.744779,35.645055
産業振興センター (札の辻スクエア),東京都 港区芝五丁目36番4号,11F,ピクトグラム,"設備: 車椅子対応, オストメイト対応, おむつ交換台",#00cc00,139.744779,35.645055
芝コミュニティはうす (芝三田森ビル),東京都 港区芝五丁目13番15号　2階,2F,名称なし(ピクトグラムのみ),"※利用者がいるときのみ使用可能です。※利用者がいないときは無人施設のため、施錠しています。 | 設備: 車椅子対応, オストメイト対応, おむつ交換台",#00cc00,139.745172,35.649244
きらきらプラザ新橋 (きらきらプラザ新橋),東京都 港区新橋六丁目4番2号,1F,名称なし(ピクトグラムのみ),"設備: 車椅子対応, オストメイト対応, おむつ交換台",#00cc00,139.754071,35.662237
きらきらプラザ新橋 (きらきらプラザ新橋),東京都 港区新橋六丁目4番2号,4F,名称なし(ピクトグラムのみ),"設備: 車椅子対応, オストメイト対応, おむつ交換台",#00cc00,139.754071,35.662237
芝公園区民協働スペース,東京都 港区芝公園二丁目7番3号　3階,3F,名称なし(ピクトグラムのみ),"設備: 車椅子対応, オストメイト対応, おむつ交換台",#00cc00,139.750673,35.6542
三田いきいきプラザ (三田いきいきプラザ),東京都 港区芝四丁目1番17号,1F,名称なし(ピクトグラムのみ),"設備: 車椅子対応, オストメイト対応",#00cc00,139.749784,35.648681
三田いきいきプラザ (三田いきいきプラザ),東京都 港区芝四丁目1番17号,2F,名称なし(ピクトグラムのみ),設備: 車椅子対応,#00cc00,139.749784,35.648681
神明いきいきプラザ (プラザ神明),東京都 港区浜松町一丁目6番7号,1F,名称なし(ピクトグラムのみ),"設備: 車椅子対応, オストメイト対応, おむつ交換台",#00cc00,139.757599,35.658644
神明いきいきプラザ (プラザ神明),東京都 港区浜松町一丁目6番7号,1F,名称なし(ピクトグラムのみ),"設備: 車椅子対応, オストメイト対応, おむつ交換台",#00cc00,139.757598,35.65863
神明いきいきプラザ (プラザ神明),東京都 港区浜松町一丁目6番7号,2F,名称なし(ピクトグラムのみ),"設備: 車椅子対応, おむつ交換台",#00cc00,139.757681,35.658732
神明いきいきプラザ (プラザ神明),東京都 港区浜松町一丁目6番7号,3F,名称なし(ピクトグラムのみ),設備: 車椅子対応,#00cc00,139.757693,35.658691
神明いきいきプラザ (プラザ神明),東京都 港区浜松町一丁目6番7号,4F,名称なし(ピクトグラムのみ),"設備: 車椅子対応, オストメイト対応",#00cc00,139.757583,35.658667
神明いきいきプラザ (プラザ神明),東京都 港区浜松町一丁目6番7号,6F,名称なし(ピクトグラムのみ),"設備: 車椅子対応, オストメイト対応",#00cc00,139.757583,35.658667
虎ノ門いきいきプラザ,東京都 港区虎ノ門一丁目21番10号,1F,名称なし(ピクトグラムのみ),"設備: 車椅子対応, オストメイト対応, おむつ交換台",#00cc00,139.748701,35.667833
虎ノ門いきいきプラザ,東京都 港区虎ノ門一丁目21番10号,2F,名称なし(ピクトグラムのみ),"設備: 車椅子対応, おむつ交換台",#00cc00,139.748636,35.667928
高輪区民センター (高輪コミュニティープラザ),東京都 港区高輪一丁目16番25号,1F,ピクトグラム,"集会室前、音声案内は利用者の送信機が必要 | 設備: 車椅子対応, オストメイト対応",#00cc00,139.734295,35.641795
高輪区民センター (高輪コミュニティープラザ),東京都 港区高輪一丁目16番25号,1F,ピクトグラム,"ホール、音声案内は利用者の送信機が必要 | 設備: 車椅子対応, オストメイト対応",#00cc00,139.734266,35.642086
高輪区民センター (高輪コミュニティープラザ),東京都 港区高輪一丁目16番25号,3F,ピクトグラム,"設備: 車椅子対応, オストメイト対応",#00cc00,139.733998,35.641846
高輪いきいきプラザ,東京都 港区高輪三丁目18番15号,1F,トイレ,"設備: 車椅子対応, オストメイト対応, おむつ交換台",#00cc00,139.735936,35.633212
高輪いきいきプラザ,東京都 港区高輪三丁目18番15号,3F,トイレ,"設備: 車椅子対応, おむつ交換台",#00cc00,139.735951,35.633155
豊岡いきいきプラザ,東京都 港区三田五丁目７番７号,1F,トイレ,"設備: 車椅子対応, おむつ交換台",#00cc00,139.739599,35.646591
白金いきいきプラザ,東京都 港区白金三丁目10番12号,3F,名称なし（ピクトグラムのみ）,"設備: 車椅子対応, おむつ交換台",#00cc00,139.731108,35.644919
白金台いきいきプラザ,東京都 港区白金台四丁目8番5号,1F,名称なし（ピクトグラムのみ）,"設備: 車椅子対応, おむつ交換台",#00cc00,139.725098,35.637725
白金台いきいきプラザ,東京都 港区白金台四丁目8番5号,2F,名称なし（ピクトグラムのみ）,"設備: 車椅子対応, おむつ交換台",#00cc00,139.725025,35.637807
港区立芝浦港南区民センター,東京都 港区芝浦四丁目13番1号,1F,だれでもトイレ,"廊下に点字ブロックを設置 | 設備: 車椅子対応, おむつ交換台",#00cc00,139.74863,35.640483
港区立芝浦港南区民センター,東京都 港区芝浦四丁目13番1号,2F,だれでもトイレ,設備: 車椅子対応,#00cc00,139.748512,35.640687
青山いきいきプラザ,東京都 港区南青山二丁目16番5号,B2F,地下2階だれでもトイレ,"設備: 車椅子対応, 大型ベッド, おむつ交換台",#00cc00,139.721335,35.669312
青山いきいきプラザ,東京都 港区南青山二丁目16番5号,1F,1階だれでもトイレ,"設備: 車椅子対応, オストメイト対応, おむつ交換台",#00cc00,139.721247,35.669258
青山いきいきプラザ,東京都 港区南青山二丁目16番5号,2F,2階だれでもトイレ,"設備: 車椅子対応, おむつ交換台",#00cc00,139.721217,35.669213
青南いきいきプラザ,東京都 港区南青山四丁目10番1号,1F,1階だれでもトイレ,"設備: 車椅子対応, おむつ交換台",#00cc00,139.717332,35.666472
青南いきいきプラザ,東京都 港区南青山四丁目10番1号,2F,2階だれでもトイレ,"設備: 車椅子対応, オストメイト対応",#00cc00,139.717332,35.666472
赤坂いきいきプラザ,東京都 港区赤坂六丁目4番8号,1F,1階だれでもトイレ,"設備: 車椅子対応, オストメイト対応, おむつ交換台",#00cc00,139.734921,35.670363
西麻布いきいきﾌﾟﾗｻﾞ (西麻布いきいきプラザ等複合施設),東京都 港区西麻布2-13-3,1F,だれでもトイレ,"設備: 車椅子対応, オストメイト対応, おむつ交換台",#00cc00,139.722783,35.660905
西麻布いきいきﾌﾟﾗｻﾞ (西麻布いきいきプラザ等複合施設),東京都 港区西麻布2-13-3,5F,だれでもトイレ,"設備: 車椅子対応, おむつ交換台",#00cc00,139.722783,35.660905
麻布いきいきﾌﾟﾗｻﾞ (麻布いきいきﾌﾟﾗｻﾞ),東京都 港区元麻布3-9-6,1F,誰でもトイレ,"設備: 車椅子対応, オストメイト対応, おむつ交換台",#00cc00,139.7312105,35.65640359
麻布いきいきﾌﾟﾗｻﾞ (麻布いきいきﾌﾟﾗｻﾞ),東京都 港区元麻布3-9-6,2F,誰でもトイレ,"設備: 車椅子対応, オストメイト対応, 大型ベッド, おむつ交換台",#00cc00,139.7312105,35.65640359
ありすいきいきプラザ (麻布子ども中高生プラザ等複合施設),東京都 港区南麻布4-6-7,1F,だれでもトイレ,"設備: 車椅子対応, オストメイト対応, おむつ交換台",#00cc00,139.727461,35.651055
ありすいきいきプラザ (麻布子ども中高生プラザ等複合施設),東京都 港区南麻布4-6-7,3F,だれでもトイレ,"設備: 車椅子対応, オストメイト対応, おむつ交換台",#00cc00,139.727523,35.651144
南麻布いきいきプラザ (ゆうあい南麻布),東京都 港区南麻布1-5-26,1F,だれでもトイレ,"設備: 車椅子対応, オストメイト対応",#00cc00,139.735305,35.651261
南麻布いきいきプラザ (ゆうあい南麻布),東京都 港区南麻布1-5-26,B1F,だれでもトイレ,設備: 車椅子対応,#00cc00,139.735348,35.65129
飯倉いきいきプラザ,東京都 港区東麻布2-16-11,1F,障害者用便所,"設備: 車椅子対応, オストメイト対応",#00cc00,139.740923,35.656939
飯倉いきいきプラザ,東京都 港区東麻布2-16-11,2F,障害者用便所,設備: 車椅子対応,#00cc00,139.740923,35.656939
港区みなと保健所 (港区みなと保健所),東京都 港区三田一丁目4番10号,1F,１階だれでもトイレ,"設備: 車椅子対応, オストメイト対応, おむつ交換台",#00cc00,139.743055,35.654112
港区みなと保健所 (港区みなと保健所),東京都 港区三田一丁目4番10号,2F,２階だれでもトイレ,"設備: 車椅子対応, おむつ交換台",#00cc00,139.743108,35.65413
港区みなと保健所 (港区みなと保健所),東京都 港区三田一丁目4番10号,3F,３階だれでもトイレ,"設備: 車椅子対応, おむつ交換台",#00cc00,139.743108,35.65413
港区みなと保健所 (港区みなと保健所),東京都 港区三田一丁目4番10号,4F,４階だれでもトイレ,"設備: 車椅子対応, おむつ交換台",#00cc00,139.743108,35.65413
港区みなと保健所 (港区みなと保健所),東京都 港区三田一丁目4番10号,5F,５階だれでもトイレ,"設備: 車椅子対応, おむつ交換台",#00cc00,139.743108,35.65413
港区みなと保健所 (港区みなと保健所),東京都 港区三田一丁目4番10号,6F,６階だれでもトイレ,"設備: 車椅子対応, おむつ交換台",#00cc00,139.743046,35.653944
港区みなと保健所 (港区みなと保健所),東京都 港区三田一丁目4番10号,7F,７階だれでおトイレ,"設備: 車椅子対応, おむつ交換台",#00cc00,139.743108,35.65413
港区みなと保健所 (港区みなと保健所),東京都 港区三田一丁目4番10号,8F,８階だれでもトイレ,"設備: 車椅子対応, おむつ交換台",#00cc00,139.742982,35.653916
港区立健康増進センター（ヘルシーナ） (赤坂コミュニティーぷらざ),東京都 港区赤坂四丁目18番13号,6F,6階だれでもトイレ,"設備: 車椅子対応, おむつ交換台",#00cc00,139.731639,35.674799
港区立みなと図書館,東京都 港区芝公園三丁目2番25号,1F,ピクトグラムで表示,"設備: 車椅子対応, オストメイト対応",#00cc00,139.750043,35.659995
港区立みなと図書館,東京都 港区芝公園三丁目2番25号,2F,ピクトグラムで表示,設備: 車椅子対応,#00cc00,139.749964,35.659874
港区立みなと図書館,東京都 港区芝公園三丁目2番25号,B1F,ピクトグラムで表示,"大型ベッドをおむつ交換台として使用 | 設備: 車椅子対応, 大型ベッド, おむつ交換台",#00cc00,139.750142,35.659917
港区立三田図書館 (札の辻スクエア),東京都 港区芝五丁目36番4号,4F,ピクトグラムで表示,"設備: 車椅子対応, オストメイト対応, おむつ交換台",#00cc00,139.744779,35.645055
港区立三田図書館 (札の辻スクエア),東京都 港区芝五丁目36番4号,5F,ピクトグラムで表示,"設備: 車椅子対応, オストメイト対応, おむつ交換台",#00cc00,139.744779,35.645055
港区立三田図書館 (札の辻スクエア),東京都 港区芝五丁目36番4号,6F,ピクトグラムで表示,"設備: 車椅子対応, オストメイト対応, おむつ交換台",#00cc00,139.744779,35.645055
港区立三田図書館 (札の辻スクエア),東京都 港区芝五丁目36番4号,7F,ピクトグラムで表示,"設備: 車椅子対応, オストメイト対応, おむつ交換台",#00cc00,139.744779,35.645055
港区立麻布図書館,東京都 港区六本木五丁目12番24号,2F,ピクトグラムで表示,"設備: 車椅子対応, オストメイト対応",#00cc00,139.735965,35.657631
港区立麻布図書館,東京都 港区六本木五丁目12番24号,3F,ピクトグラムで表示,"設備: 車椅子対応, オストメイト対応",#00cc00,139.735951,35.657634
港区立麻布図書館,東京都 港区六本木五丁目12番24号,4F,ピクトグラムで表示,"設備: 車椅子対応, オストメイト対応",#00cc00,139.735951,35.657634
港区立麻布図書館,東京都 港区六本木五丁目12番24号,5F,ピクトグラムで表示,"設備: 車椅子対応, オストメイト対応",#00cc00,139.735923,35.657534
港区立赤坂図書館 (青山一丁目タワー),東京都 港区南青山一丁目3番3号,3F,車いす対応トイレ,"設備: 車椅子対応, おむつ交換台",#00cc00,139.725274,35.671723
港区立高輪図書館 (高輪コミュニティぷらざ),東京都 港区高輪一丁目16番25号,3F,ピクトグラムで表示,"設備: 車椅子対応, おむつ交換台",#00cc00,139.734288,35.642191
港区立高輪図書館 (高輪コミュニティぷらざ),東京都 港区高輪一丁目16番25号,4F,ピクトグラムで表示,"設備: 車椅子対応, オストメイト対応",#00cc00,139.734288,35.642191
港区立高輪図書館分室 (高輪子ども中高生プラザ),東京都 港区高輪一丁目4番35号,3F,ピクトグラムで表示,"※休館日　祝日・年末年始・毎月第3木曜日・特別整理期間 | 設備: 車椅子対応, おむつ交換台",#00cc00,139.734774,35.642421
港区立港南図書館 (シティハイツ港南),東京都 港区港南三丁目3番17号,1F,ピクトグラムで表示,"設備: 車椅子対応, おむつ交換台",#00cc00,139.749564,35.632985
港区立港南図書館 (シティハイツ港南),東京都 港区港南三丁目3番17号,2F,ピクトグラムで表示,"設備: 車椅子対応, おむつ交換台",#00cc00,139.749705,35.632884
港区立港南図書館 (シティハイツ港南),東京都 港区港南三丁目3番17号,3F,ピクトグラムで表示,"設備: 車椅子対応, おむつ交換台",#00cc00,139.749705,35.632884
赤坂区民センター (赤坂コミュニティーぷらざ),東京都 港区赤坂四丁目18番13号,3F,3階多目的便所,"設備: 車椅子対応, オストメイト対応, おむつ交換台",#00cc00,139.731622,35.674727
赤坂区民センター (赤坂コミュニティーぷらざ),東京都 港区赤坂四丁目18番13号,4F,4階多目的便所,"設備: 車椅子対応, おむつ交換台",#00cc00,139.731786,35.674758
赤坂区民センター (赤坂コミュニティーぷらざ),東京都 港区赤坂四丁目18番13号,5F,5階多目的便所,"設備: 車椅子対応, おむつ交換台",#00cc00,139.731937,35.674607
港区立エコプラザ,東京都 港区浜松町一丁目13番1号,1F,１階だれでもトイレ,"設備: 車椅子対応, おむつ交換台",#00cc00,139.756879,35.658876
港区立エコプラザ,東京都 港区浜松町一丁目13番1号,3F,3階だれでもトイレ,"設備: 車椅子対応, おむつ交換台",#00cc00,139.757014,35.658888
港区立青山生涯学習館,東京都 港区南青山四丁目19番7号,2F,2階バリアフリートイレ,"設備: 車椅子対応, オストメイト対応, おむつ交換台",#00cc00,139.71699,35.6641
港区立生涯学習センター,東京都 港区新橋三丁目16番3号,1F,1階北側 バリアフリートイレ,設備: 車椅子対応,#00cc00,139.7571,35.665598
港区立生涯学習センター,東京都 港区新橋三丁目16番3号,2F,2階北側 バリアフリートイレ,"休館日：年末年始　　12/29−1/3。2月、10月を除く第3月曜日 | 設備: 車椅子対応, おむつ交換台",#00cc00,139.7571,35.665598
港区立郷土歴史館 (ゆかしの杜),東京都 港区白金台四丁目6番2号,1F,オストメイト対応トイレ,"※休館日/・毎月第3木曜日（第3木曜日が祝日等の場合は開館し、その前日の水曜日に休館します）・年末年始（12月29日〜1月3日）・特別整理期間 | 設備: 車椅子対応, オストメイト対応, おむつ交換台",#00cc00,139.726622,35.638779
港区立郷土歴史館 (ゆかしの杜),東京都 港区白金台四丁目6番2号,2F,オストメイト対応トイレ,"※休館日/・毎月第3木曜日（第3木曜日が祝日等の場合は開館し、その前日の水曜日に休館します）・年末年始（12月29日〜1月3日）・特別整理期間 | 設備: 車椅子対応, オストメイト対応, 大型ベッド, おむつ交換台",#00cc00,139.726671,35.639062
港区立郷土歴史館 (ゆかしの杜),東京都 港区白金台四丁目6番2号,3F,車いす対応トイレ,※休館日/・毎月第3木曜日（第3木曜日が祝日等の場合は開館し、その前日の水曜日に休館します）・年末年始（12月29日〜1月3日）・特別整理期間 | 設備: 車椅子対応,#00cc00,139.726674,35.639063
港区立郷土歴史館 (ゆかしの杜),東京都 港区白金台四丁目6番2号,4F,車いす対応トイレ,※休館日/・毎月第3木曜日（第3木曜日が祝日等の場合は開館し、その前日の水曜日に休館します）・年末年始（12月29日〜1月3日）・特別整理期間 | 設備: 車椅子対応,#00cc00,139.726672,35.639062
港区立郷土歴史館 (ゆかしの杜),東京都 港区白金台四丁目6番2号,6F,オストメイト対応トイレ,"※休館日/・毎月第3木曜日（第3木曜日が祝日等の場合は開館し、その前日の水曜日に休館します）・年末年始（12月29日〜1月3日）・特別整理期間 | 設備: 車椅子対応, オストメイト対応",#00cc00,139.726676,35.639063
教育センター (教育センター),東京都 港区虎ノ門三丁目6番9号,4F,ピクトグラムで表示,"設備: 車椅子対応, オストメイト対応, おむつ交換台",#00cc00,139.74576,35.665855
教育センター (みなと科学館),東京都 港区虎ノ門三丁目6番9号,1F,ピクトグラムで表示,"設備: 車椅子対応, オストメイト対応, おむつ交換台",#00cc00,139.745766,35.665888
教育センター (みなと科学館),東京都 港区虎ノ門三丁目6番9号,2F,ピクトグラムで表示,"設備: 車椅子対応, オストメイト対応, おむつ交換台",#00cc00,139.745766,35.665888
教育センター (みなと科学館/教育センター),東京都 港区虎ノ門三丁目6番9号,B1F,ピクトグラムで表示,"設備: 車椅子対応, オストメイト対応, 大型ベッド",#00cc00,139.745764,35.665871
港区立伝統文化交流館,東京都 港区芝浦一丁目11番15号,1F,だれでもトイレ,"設備: 車椅子対応, オストメイト対応, おむつ交換台",#00cc00,139.753851,35.64754
港区立伝統文化交流館,東京都 港区芝浦一丁目11番15号,2F,だれでもトイレ,"設備: 車椅子対応, 大型ベッド",#00cc00,139.753871,35.647665
赤坂子ども中高生プラザ,東京都 港区赤坂6-6-14,1F,誰でもトイレ,"設備: 車椅子対応, おむつ交換台",#00cc00,139.7376432,35.66973
赤坂子ども中高生プラザ青山館,東京都 港区北青山3-4-1-201,2F,誰でもトイレ,"設備: 車椅子対応, オストメイト対応, 大型ベッド, おむつ交換台",#00cc00,139.712936,35.666837
神応ほっとプラザ (神応いきいきプラザ),東京都 港区白金六丁目９番５号,1F,神応ほっとプラザ共用,"設備: 車椅子対応, オストメイト対応, 大型ベッド, おむつ交換台",#00cc00,139.724436,35.643581
神応ほっとプラザ (神応いきいきプラザ),東京都 港区白金六丁目９番５号,2F,神応保育園,SECOMあり。利用者のみに限る | 設備: 車椅子対応,#00cc00,139.724436,35.643581
神応ほっとプラザ (神応いきいきプラザ),東京都 港区白金六丁目９番５号,3F,神応学童クラブ,SECOMあり。利用者のみに限る | 設備: 車椅子対応,#00cc00,139.724436,35.643581
神応いきいきプラザ (神応いきいきプラザ),東京都 港区白金六丁目９番５号,4F,神応いきいきプラザ,設備: 車椅子対応,#00cc00,139.7244,35.643626
宮村児童遊園,東京都 港区元麻布二丁目6番2号,1F,宮村児童遊園だれでもトイレ,"非常用ボタンなし | 設備: 車椅子対応, おむつ交換台",#00cc00,139.730072,35.654666
桑田記念児童遊園,東京都 港区赤坂九丁目3番21号,1F,桑田記念児童遊園だれでもトイレ,"設備: 車椅子対応, オストメイト対応, おむつ交換台",#00cc00,139.73041,35.668579
南麻布新堀児童遊園,東京都 港区南麻布二丁目2番8号,1F,南麻布新堀児童遊園だれでもトイレ,"設備: 車椅子対応, オストメイト対応, おむつ交換台",#00cc00,139.735764,35.64991
南麻布二丁目児童遊園,東京都 港区南麻布二丁目3番14号,1F,南麻布二丁目児童遊園だれでもトイレ,"設備: 車椅子対応, オストメイト対応, おむつ交換台",#00cc00,139.736218,35.649131
飯倉公園,東京都 港区東麻布一丁目21番8号,1F,飯倉公園だれでもトイレ,"設備: 車椅子対応, おむつ交換台",#00cc00,139.743736,35.655818
網代公園,東京都 港区麻布十番二丁目15番1号,1F,網代公園だれでもトイレ,"設備: 車椅子対応, おむつ交換台",#00cc00,139.73571,35.654366
有栖川宮記念公園,東京都 港区南麻布五丁目7番29号,1F,管理事務所棟/車椅子使用者対応トイレ,"設備: 車椅子対応, おむつ交換台",#00cc00,139.726377,35.651252
有栖川宮記念公園,東京都 港区南麻布五丁目7番29号（広尾口）,1F,広尾口トイレ/車椅子使用者使用者対応トイレ,"設備: 車椅子対応, オストメイト対応, おむつ交換台",#00cc00,139.724597,35.651303
有栖川宮記念公園,東京都 港区南麻布五丁目7番29号（三軒家口）,1F,三軒家口トイレ/車椅子使用者対応トイレ,"設備: 車椅子対応, オストメイト対応, おむつ交換台",#00cc00,139.7260235,35.6533944
六本木西公園,東京都 港区六本木七丁目17番8号,1F,六本木西公園だれでもトイレ,"設備: 車椅子対応, オストメイト対応, おむつ交換台",#00cc00,139.729788,35.66334
区立桜田公園,東京都 港区新橋三丁目16番15号,1F,だれでもトイレ,"設備: 車椅子対応, おむつ交換台",#00cc00,139.756455,35.665126
区立塩釜公園,東京都 港区新橋五丁目19番7号,1F,だれでもトイレ,"設備: 車椅子対応, オストメイト対応, おむつ交換台",#00cc00,139.755052,35.663157
区立南桜公園,東京都 港区西新橋二丁目10番13号,1F,だれでもトイレ,設備: 車椅子対応,#00cc00,139.752245,35.666166
港区立芝公園管理事務所横だれでもトイレ,東京都 港区芝公園四丁目15番1号,1F,区立芝公園管理事務所横だれでもトイレ,"設備: 車椅子対応, オストメイト対応, おむつ交換台",#00cc00,139.749456,35.655999
区立芝五丁目児童遊園,東京都 港区芝五丁目18番4号,1F,だれでもトイレ,"設備: 車椅子対応, おむつ交換台",#00cc00,139.748101,35.648147
一ツ木公園,東京都 港区赤坂五丁目5番26号,1F,一ツ木公園だれでもトイレ,"設備: 車椅子対応, おむつ交換台",#00cc00,139.733487,35.670998
氷川公園,東京都 港区赤坂六丁目5番4号,1F,氷川公園,"設備: 車椅子対応, オストメイト対応, おむつ交換台",#00cc00,139.737381,35.670931
青葉公園,東京都 港区南青山一丁目4番4号,1F,青葉公園だれでもトイレ,設備: 車椅子対応,#00cc00,139.724658,35.671016
青山公園,東京都 港区南青山二丁目21番12号,1F,青山公園だれでもトイレ,"設備: 車椅子対応, オストメイト対応, おむつ交換台",#00cc00,139.719404,35.669532
北青山一丁目児童遊園,東京都 港区北青山一丁目6番6号,1F,北青山一丁目児童遊園だれでもトイレ,"設備: 車椅子対応, おむつ交換台",#00cc00,139.721506,35.675722
高橋是清翁記念公園,東京都 港区赤坂七丁目3番39号,1F,高橋是清翁記念公園だれでもトイレ,"設備: 車椅子対応, オストメイト対応, おむつ交換台",#00cc00,139.728898,35.674084
檜町公園,東京都 港区赤坂九丁目7番9号,1F,檜町公園だれでもトイレ,"設備: 車椅子対応, おむつ交換台",#00cc00,139.733179,35.666973
亀塚公園,東京都 港区三田四丁目16番20号,1F,亀塚公園トイレ,"設備: 車椅子対応, オストメイト対応, 大型ベッド, おむつ交換台",#00cc00,139.740755,35.643749
三田台公園,東京都 港区三田四丁目17番28号,1F,三田台公園トイレ,"設備: 車椅子対応, オストメイト対応, おむつ交換台",#00cc00,139.739228,35.642564
高輪公園,東京都 港区高輪三丁目18番18号,1F,高輪公園便所,"設備: 車椅子対応, オストメイト対応, おむつ交換台",#00cc00,139.736093,35.633044
高輪森の公園,東京都 港区高輪三丁目13番21号,1F,高輪森の公園トイレ,"設備: 車椅子対応, オストメイト対応, おむつ交換台",#00cc00,139.735322,35.630752
泉岳寺前児童遊園,東京都 港区高輪二丁目15番37号,1F,泉岳寺前児童遊園便所,"設備: 車椅子対応, オストメイト対応, おむつ交換台",#00cc00,139.737634,35.637304
白金児童遊園,東京都 港区白金台二丁目24番3号,1F,白金児童遊園便所,"設備: 車椅子対応, オストメイト対応, おむつ交換台",#00cc00,139.729517,35.632895
白台児童遊園,東京都 港区白金台四丁目7番6号,1F,白台児童遊園便所,"設備: 車椅子対応, オストメイト対応, おむつ交換台",#00cc00,139.725855,35.637993
白金台どんぐり児童遊園,東京都 港区白金台五丁目19番1号,1F,白金台どんぐり児童遊園便所,"設備: 車椅子対応, オストメイト対応, 大型ベッド, おむつ交換台",#00cc00,139.722575,35.636577
白高児童遊園,東京都 港区白金一丁目17番4号,1F,白高児童遊園便所,"設備: 車椅子対応, オストメイト対応, おむつ交換台",#00cc00,139.733465,35.645
芝浦公園,東京都 港区芝浦一丁目16番25号,1F,芝浦公園だれでもトイレ,"設備: 車椅子対応, オストメイト対応, おむつ交換台",#00cc00,139.751956,35.645567
プラタナス公園,東京都 港区芝浦四丁目20番56号,1F,プラタナス公園だれでもトイレ,"設備: 車椅子対応, おむつ交換台",#00cc00,139.752036,35.640337
芝浦中央公園 ((A)),東京都 港区港南一丁目2番28号,1F,芝浦中央公園(A)だれでもトイレ,"設備: 車椅子対応, オストメイト対応, おむつ交換台",#00cc00,139.742776,35.6347
芝浦中央公園 ((B)),東京都 港区港南一丁目2番28号,1F,芝浦中央公園(B)だれでもトイレ,"ベビーシート設置 | 設備: 車椅子対応, おむつ交換台",#00cc00,139.743405,35.635502
こうなん星の公園,東京都 港区港南一丁目9番24号,1F,こうなん星の公園だれでもトイレ,"設備: 車椅子対応, おむつ交換台",#00cc00,139.74257,35.629751
港南和楽公園,東京都 港区港南四丁目2番18号,1F,港南和楽公園だれでもトイレ,"設備: 車椅子対応, おむつ交換台",#00cc00,139.748498,35.630541
港南公園 ((A)),東京都 港区港南四丁目5番1号,1F,港南公園(A)だれでもトイレ,"設備: 車椅子対応, おむつ交換台",#00cc00,139.746526,35.628817
港南公園 ((D)),東京都 港区港南四丁目5番1号,1F,港南公園(D)だれでもトイレ,設備: 車椅子対応,#00cc00,139.746946,35.62433
港南緑水公園,東京都 港区港南四丁目7番47号,1F,港南緑水公園だれでもトイレ,"設備: 車椅子対応, オストメイト対応, おむつ交換台",#00cc00,139.750715,35.628642
お台場レインボー公園,東京都 港区台場一丁目3番1号,1F,お台場レインボー公園だれでもトイレ,"ベビーチェア設置 | 設備: 車椅子対応, おむつ交換台",#00cc00,139.777908,35.63248
港南三丁目遊び場,東京都 港区港南三丁目2番地,1F,港南三丁目遊び場だれでもトイレ,"設備: 車椅子対応, オストメイト対応, おむつ交換台",#00cc00,139.750225,35.633885
本芝公園,東京都 港区芝四丁目15番1号,1F,だれでもトイレ,"設備: 車椅子対応, おむつ交換台",#00cc00,139.75001,35.647131
港区立芝給水所公園運動場,東京都 港区芝公園三丁目6番7号,3F,芝給水所公園運動場だれでもトイレ,"設備: 車椅子対応, おむつ交換台",#00cc00,139.74565,35.661042
港区立麻布運動場,東京都 港区南麻布五丁目6番33号,1F,麻布運動場だれでもトイレ,設備: 車椅子対応,#00cc00,139.72773,35.65244
芝浦南ふ頭公園運動広場,東京都 港区海岸三丁目33番20号,1F,芝浦南ふ頭公園運動広場だれでもトイレ,"設備: 車椅子対応, おむつ交換台",#00cc00,139.75916,35.637321
埠頭少年野球場,東京都 港区海岸三丁目14番34号,1F,埠頭少年野球場,,#00cc00,139.755174,35.64185
芝浦中央公園運動場,東京都 港区港南一丁目4番1号,1F,だれでもトイレ,,#00cc00,139.746244,35.634924
三田綱町児童遊園,東京都 港区三田二丁目19番11号,1F,だれでもトイレ,"設備: 車椅子対応, オストメイト対応, おむつ交換台",#00cc00,139.739664,35.649444
本村公園,東京都 港区南麻布三丁目4番9号,1F,本村公園だれでもトイレ,"設備: 車椅子対応, オストメイト対応, おむつ交換台",#00cc00,139.731049,35.650195
古川橋際公衆便所,東京都 港区南麻布二丁目15番11号,1F,古川橋際公衆便所,"設備: 車椅子対応, おむつ交換台",#00cc00,139.735659,35.646463
西麻布二丁目公衆便所,東京都 港区西麻布二丁目1番2号,1F,西麻布二丁目公衆便所,"設備: 車椅子対応, オストメイト対応, おむつ交換台",#00cc00,139.720125,35.664209
中ノ橋際公衆便所,東京都 港区東麻布一丁目30番1号,1F,中ノ橋際公衆便所,"設備: 車椅子対応, オストメイト対応, おむつ交換台",#00cc00,139.741851,35.655012
南麻布三丁目公衆便所,東京都 港区南麻布三丁目22番5号,1F,南麻布三丁目公衆便所,"設備: 車椅子対応, おむつ交換台",#00cc00,139.728605,35.64678
二ノ橋際公衆便所,東京都 港区麻布十番四丁目6番5号,1F,二ノ橋際公衆便所,"設備: 車椅子対応, おむつ交換台",#00cc00,139.736905,35.652826
新橋三丁目公衆便所,東京都 港区新橋三丁目25番16号,1F,だれでもトイレ,"設備: 車椅子対応, おむつ交換台",#00cc00,139.758305,35.664742
芝四丁目公衆便所,東京都 港区芝四丁目1番18号,1F,だれでもトイレ,設備: 車椅子対応,#00cc00,139.749443,35.64857
田町駅東口公衆便所,東京都 港区芝浦三丁目3番1号,1F,田町駅東口公衆便所,"設備: 車椅子対応, おむつ交換台",#00cc00,139.748035,35.645256
品川駅港南口公衆便所,東京都 港区港南二丁目14番24号,1F,品川駅港南口公衆便所1,"設備: 車椅子対応, おむつ交換台",#00cc00,139.74131,35.629004
品川駅港南口公衆便所,東京都 港区港南二丁目14番24号,1F,品川駅港南口公衆便所2,"設備: 車椅子対応, おむつ交換台",#00cc00,139.741347,35.629003
高輪一丁目公衆便所,東京都 港区高輪一丁目１６番２５号,1F,高輪一丁目公衆便所,設備: 車椅子対応,#00cc00,139.733854,35.641938
老増町公衆便所,東京都 港区白金一丁目２８番８号,1F,老増町公衆便所,設備: 車椅子対応,#00cc00,139.734119,35.643614
港区国際交流スペース (都営北青山一丁目アパート3号棟 B1),東京都 港区北青山一丁目6番3号,B1F,多目的トイレ,"設備: 車椅子対応, おむつ交換台",#00cc00,139.721418,35.674345
港区立障害保健福祉センター,東京都 港区芝一丁目8番23号,1F,1階身障トイレ,"大型ベッドを乳児用としても兼用 | 設備: 車椅子対応, 大型ベッド, おむつ交換台",#00cc00,139.755587,35.651608
港区立障害保健福祉センター,東京都 港区芝一丁目8番23号,5F,5階身障トイレ,"大型ベッドを乳児用としても兼用 | 設備: 車椅子対応, 大型ベッド, おむつ交換台",#00cc00,139.755587,35.651608
港区立障害保健福祉センター,東京都 港区芝一丁目8番23号,6F,6階身障トイレ,"設備: 車椅子対応, オストメイト対応",#00cc00,139.755581,35.651567
港区立障害保健福祉センター,東京都 港区芝一丁目8番23号,6F,6階身障トイレ,"大型ベッドを乳児用としても兼用 | 設備: 車椅子対応, 大型ベッド, おむつ交換台",#00cc00,139.755492,35.651438
港区立障害保健福祉センター,東京都 港区芝一丁目8番23号,7F,7階身障トイレ,"大型ベッドを乳児用としても兼用 | 設備: 車椅子対応, 大型ベッド, おむつ交換台",#00cc00,139.755528,35.651446
港区立障害保健福祉センター,東京都 港区芝一丁目8番23号,5F,5階身障トイレ,"設備: 車椅子対応, オストメイト対応",#00cc00,139.755484,35.651437
台場高齢者在宅サービスセンター,東京都 港区台場一丁目5番５号,1F,だれでもトイレ,"設備: 車椅子対応, オストメイト対応, おむつ交換台",#00cc00,139.77799,35.630571
台場高齢者在宅サービスセンター,東京都 港区台場一丁目5番５号,2F,だれでもトイレ,"設備: 車椅子対応, オストメイト対応",#00cc00,139.777918,35.630535
南麻布高齢者在宅サービスセンター,東京都 港区南麻布一丁目５番26号,2F,だれでもトイレ,設備: 車椅子対応,#00cc00,139.735412,35.651189
高齢者在宅サービスセンター白金の森,東京都 港区白金台五丁目20番５号,1F,だれでもトイレ,"設備: 車椅子対応, オストメイト対応, おむつ交換台",#00cc00,139.72217,35.637068
虎ノ門高齢者在宅サービスセンター,東京都 港区虎ノ門一丁目21番10号,3F,だれでもトイレ,設備: 車椅子対応,#00cc00,139.748605,35.667929
虎ノ門高齢者在宅サービスセンター,東京都 港区虎ノ門一丁目21番10号,3F,だれでもトイレ,"設備: 車椅子対応, おむつ交換台",#00cc00,139.748859,35.667795
芝高齢者在宅サービスセンター,東京都 港区芝三丁目24番５号,1F,だれでもトイレ,設備: 車椅子対応,#00cc00,139.748122,35.651383
北青山高齢者在宅サービスセンター,東京都 港区北青山一丁目６番１号,1F,だれでもトイレ,設備: 車椅子対応,#00cc00,139.721773,35.673525
北青山高齢者在宅サービスセンター,東京都 港区北青山一丁目６番１号,1F,だれでもトイレ,設備: 車椅子対応,#00cc00,139.721759,35.673389
北青山高齢者在宅サービスセンター,東京都 港区北青山一丁目６番１号,2F,だれでもトイレ,設備: 車椅子対応,#00cc00,139.721813,35.673454
北青山高齢者在宅サービスセンター,東京都 港区北青山一丁目６番１号,2F,だれでもトイレ,設備: 車椅子対応,#00cc00,139.721799,35.673477
高齢者在宅サービスセンター港南の郷,東京都 港区港南三丁目3番23号,1F,だれでもトイレ,設備: 車椅子対応,#00cc00,139.749242,35.633276
高齢者在宅サービスセンターサン・サン赤坂,東京都 港区赤坂六丁目6番14号,1F,だれでもトイレ,"設備: 車椅子対応, おむつ交換台",#00cc00,139.737582,35.669518
高齢者在宅サービスセンターサン・サン赤坂,東京都 港区赤坂六丁目6番14号,1F,だれでもトイレ,"設備: 車椅子対応, オストメイト対応",#00cc00,139.737447,35.669689
豊岡児童館,東京都 港区三田５丁目７番７号,2F,トイレ,"設備: 車椅子対応, オストメイト対応, 大型ベッド, おむつ交換台",#00cc00,139.739599,35.646591
豊岡児童館,東京都 港区三田５丁目７番７号,3F,トイレ,"設備: 車椅子対応, おむつ交換台",#00cc00,139.739527,35.646634
高輪子ども中高生プラザ,東京都 港区高輪一丁目4番35号,1F,名称なし（ピクトグラムのみ）,"設備: 車椅子対応, オストメイト対応, おむつ交換台",#00cc00,139.734759,35.642465
高輪子ども中高生プラザ,東京都 港区高輪一丁目4番35号,2F,名称なし（ピクトグラムのみ）,"設備: 車椅子対応, おむつ交換台",#00cc00,139.734838,35.642402
高輪子ども中高生プラザ,東京都 港区高輪一丁目4番35号,3F,名称なし（ピクトグラムのみ）,"設備: 車椅子対応, おむつ交換台",#00cc00,139.734718,35.642427
高輪子ども中高生プラザ,東京都 港区高輪一丁目4番35号,4F,名称なし（ピクトグラムのみ）,"設備: 車椅子対応, おむつ交換台",#00cc00,139.73492,35.642536
シティハイツ神明,東京都 港区浜松町一丁目13番1号,3F,集会室トイレ,"集会室利用時のみ使用可 | 設備: 車椅子対応, おむつ交換台",#00cc00,139.756855,35.658879
シティハイツ港南,東京都 港区港南三丁目3番17号,B1F,集会室トイレ,集会室利用時のみ使用可 | 設備: 車椅子対応,#00cc00,139.749459,35.633034
シティハイツ港南,東京都 港区港南三丁目3番17号,1F,集会室トイレ,設備: 車椅子対応,#00cc00,139.749645,35.632935
シティハイツ港南,東京都 港区港南三丁目3番17号,25F,集会室トイレ,設備: 車椅子対応,#00cc00,139.749491,35.632987
シティハイツ桂坂,東京都 港区高輪二丁目13番8号,1F,集会室トイレ,設備: 車椅子対応,#00cc00,139.737889,35.634614
麻布十番公共駐車場 (麻布十番公共駐車場),東京都 港区麻布十番一丁目4番10号,B2F,名称なし（ピクトグラムのみ掲出）,"設備: 車椅子対応, おむつ交換台",#00cc00,139.734435,35.657075
がん在宅緩和ケア支援センター (ゆかしの杜５階),東京都 港区白金台4-6-2,5F,5階だれでもトイレ,"設備: 車椅子対応, オストメイト対応, おむつ交換台",#00cc00,139.726622,35.638779
適応指導教室 (教育センター),東京都 港区虎ノ門三丁目6番9号,4F,ピクトグラムで表示,"設備: 車椅子対応, オストメイト対応",#00cc00,139.745903,35.665816
精神障害者支援センターあいはーと・みなと,東京都 港区高輪一丁目４番８号,1F,だれでもトイレ,"設備: 車椅子対応, オストメイト対応, 大型ベッド, おむつ交換台",#00cc00,139.734899,35.642967
児童相談所 (港区子ども家庭総合支援センター),東京都 港区南青山五丁目７番１１号,1F,だれでもトイレ,"設備: 車椅子対応, オストメイト対応, 大型ベッド",#00cc00,139.713116,35.662527
児童相談所 (港区子ども家庭総合支援センター),東京都 港区南青山五丁目７番１１号,2F,だれでもトイレ,"設備: 車椅子対応, オストメイト対応, 大型ベッド",#00cc00,139.713116,35.662527
児童相談所 (港区子ども家庭総合支援センター),東京都 港区南青山五丁目７番１１号,3F,だれでもトイレ,"設備: 車椅子対応, オストメイト対応, 大型ベッド",#00cc00,139.713116,35.662527
ふれあいの湯,東京都 港区芝二丁目2番18号,1F,車いす用トイレ,"設備: 車椅子対応, オストメイト対応",#00cc00,139.752756,35.653068
札の辻スクエア,東京都 港区芝五丁目36番4号,1F,ピクトグラム,"設備: 車椅子対応, オストメイト対応, 大型ベッド, おむつ交換台",#00cc00,139.744693,35.64496
札の辻スクエア,東京都 港区芝五丁目36番4号,2F,ピクトグラム,"設備: 車椅子対応, オストメイト対応, おむつ交換台",#00cc00,139.744693,35.64496
札の辻スクエア,東京都 港区芝五丁目36番4号,3F,ピクトグラム,"設備: 車椅子対応, オストメイト対応, おむつ交換台",#00cc00,139.744693,35.64496
アクアフィールド芝公園,東京都 港区芝公園2丁目7番2号,1F,誰でもトイレ,"設備: 車椅子対応, おむつ交換台",#00cc00,139.750678,35.65451
アクアフィールド芝公園,東京都 港区芝公園2丁目7番2号,1F,多目的更衣室トイレ,"設備: 車椅子対応, オストメイト対応, おむつ交換台",#00cc00,139.750678,35.65451