name,address,floor,toilet_name,note,color,lng,lat
中野都税事務所,東京都 中野区中野四丁目6番15号,1F,車椅子使用者対応トイレ,"設備: 車椅子対応, オストメイト対応, おむつ交換台",#00cc00,139.663678,35.709745
中野都税事務所,東京都 中野区中野四丁目6番15号,6F,車椅子使用者対応トイレ,"設備: 車椅子対応, オストメイト対応",#00cc00,139.663678,35.709745
都営大江戸線中野坂上駅,東京都 中野区中央二丁目2番28号,B2F,だれでもトイレ,"設備: 車椅子対応, オストメイト対応, おむつ交換台",#00cc00,139.682984,35.697565
都営大江戸線東中野駅,東京都 中野区東中野三丁目8番16号,B1F,だれでもトイレ,"介助シート（大型ベッド・おむつ交換台兼用）あり | 設備: 車椅子対応, オストメイト対応, 大型ベッド",#00cc00,139.683044,35.707044
都営大江戸線新江古田駅,東京都 中野区江原町二丁目29番13号,B1F,だれでもトイレ,"設備: 車椅子対応, オストメイト対応, おむつ交換台",#00cc00,139.670436,35.732557
東京都水道局中野営業所,東京都 中野区中野一丁目5番7号,1F,だれでもトイレ,設備: 車椅子対応,#00cc00,139.677606,35.701797
中野消防署東中野出張所,東京都 中野区上高田一丁目1番7号,1F,だれでもトイレ,"設備: 車椅子対応, おむつ交換台",#00cc00,139.681671,35.709844
中野区役所本庁舎（東京都第三建設事務所合同庁舎）,東京都 中野区中野四丁目１１番１９号,B1F,B1階多機能トイレ,"設備: 車椅子対応, おむつ交換台",#00cc00,139.6628724,35.70907944
中野区役所本庁舎（東京都第三建設事務所合同庁舎）,東京都 中野区中野四丁目１１番１９号,1F,1階多機能トイレ,"設備: 車椅子対応, オストメイト対応, 大型ベッド, おむつ交換台",#00cc00,139.6628724,35.70907944
中野区役所本庁舎（東京都第三建設事務所合同庁舎）,東京都 中野区中野四丁目１１番１９号,2F,2階多機能トイレ,"設備: 車椅子対応, オストメイト対応, 大型ベッド, おむつ交換台",#00cc00,139.6630231,35.70870102
中野区役所本庁舎（東京都第三建設事務所合同庁舎）,東京都 中野区中野四丁目１１番１９号,3F,3階多機能トイレ,"設備: 車椅子対応, オストメイト対応, 大型ベッド, おむつ交換台",#00cc00,139.6630231,35.70870102
中野区役所本庁舎（東京都第三建設事務所合同庁舎）,東京都 中野区中野四丁目１１番１９号,4F,4階多機能トイレ,"設備: 車椅子対応, オストメイト対応, 大型ベッド, おむつ交換台",#00cc00,139.6627088,35.7086648
中野区役所本庁舎（東京都第三建設事務所合同庁舎） (東京都第三建設事務所),東京都 中野区中野四丁目１１番１９号,5F,5階多機能トイレ,"設備: 車椅子対応, おむつ交換台",#00cc00,139.6627088,35.7086648
中野区役所本庁舎（東京都第三建設事務所合同庁舎）,東京都 中野区中野四丁目１１番１９号,6F,6階多機能トイレ,"設備: 車椅子対応, おむつ交換台",#00cc00,139.6627088,35.7086648
中野区役所本庁舎（東京都第三建設事務所合同庁舎）,東京都 中野区中野四丁目１１番１９号,7F,7階多機能トイレ,"設備: 車椅子対応, おむつ交換台",#00cc00,139.6627088,35.7086648
中野区役所本庁舎（東京都第三建設事務所合同庁舎）,東京都 中野区中野四丁目１１番１９号,8F,8階多機能トイレ,"設備: 車椅子対応, おむつ交換台",#00cc00,139.6627088,35.7086648
中野区役所本庁舎（東京都第三建設事務所合同庁舎）,東京都 中野区中野四丁目１１番１９号,9F,9階多機能トイレ,"設備: 車椅子対応, おむつ交換台",#00cc00,139.6627088,35.7086648
中野区役所本庁舎（東京都第三建設事務所合同庁舎）,東京都 中野区中野四丁目１１番１９号,10F,10階多機能トイレ,"設備: 車椅子対応, オストメイト対応, 大型ベッド, おむつ交換台",#00cc00,139.6627088,35.7086648
中野区役所本庁舎（東京都第三建設事務所合同庁舎）,東京都 中野区中野四丁目１１番１９号,11F,11階多機能トイレ,"設備: 車椅子対応, おむつ交換台",#00cc00,139.6627088,35.7086648
中部すこやか福祉センター,東京都 中野区中央三丁目19番1号,1F,1階西側だれでもトイレ,設備: 車椅子対応,#00cc00,139.674159,35.700363
中部すこやか福祉センター,東京都 中野区中央三丁目19番1号,1F,1階東側だれでもトイレ,"設備: 車椅子対応, オストメイト対応, おむつ交換台",#00cc00,139.674159,35.700363
中部すこやか福祉センター,東京都 中野区中央三丁目19番1号,2F,2階西側だれでもトイレ,"設備: 車椅子対応, オストメイト対応",#00cc00,139.674159,35.700363
中部すこやか福祉センター,東京都 中野区中央三丁目19番1号,2F,2階東側だれでもトイレ,"設備: 車椅子対応, オストメイト対応, おむつ交換台",#00cc00,139.674159,35.700363
南部すこやか福祉センター等複合施設,東京都 中野区弥生町五丁目11番26号,1F,1階バリアフリートイレ,"第1・第3月曜日（祝日の場合はその翌日）は午後10時30分まで | 設備: 車椅子対応, オストメイト対応, おむつ交換台",#00cc00,139.668569,35.688141
南部すこやか福祉センター等複合施設,東京都 中野区弥生町五丁目11番26号,2F,2階バリアフリートイレ,"設備: 車椅子対応, オストメイト対応, 大型ベッド, おむつ交換台",#00cc00,139.668537,35.688225
南部すこやか福祉センター等複合施設,東京都 中野区弥生町五丁目11番26号,3F,3階バリアフリートイレ,"区の事業実施時以外は立入不可のため利用できない。 | 設備: 車椅子対応, おむつ交換台",#00cc00,139.668557,35.688023
南部すこやか福祉センター等複合施設,東京都 中野区弥生町五丁目11番26号,4F,4階バリアフリートイレ,"区の事業実施時以外は立入不可のため利用できない。 | 設備: 車椅子対応, おむつ交換台",#00cc00,139.668557,35.688023
北部すこやか福祉センター,東京都 中野区江古田四丁目31番10号,1F,1階だれでもトイレ,"設備: 車椅子対応, オストメイト対応, 大型ベッド, おむつ交換台",#00cc00,139.661622,35.724712
鷺宮すこやか福祉センター,東京都 中野区若宮三丁目58番10号,1F,1階だれでもトイレ,"設備: 車椅子対応, オストメイト対応, おむつ交換台",#00cc00,139.640064,35.722053
南中野区民活動センター,東京都 中野区弥生町五丁目5番2号,2F,2階だれでもトイレ,"設備: 車椅子対応, オストメイト対応, おむつ交換台",#00cc00,139.666327,35.686081
南中野区民活動センター,東京都 中野区弥生町五丁目5番2号,3F,3階だれでもトイレ,"設備: 車椅子対応, オストメイト対応, おむつ交換台",#00cc00,139.66631,35.68624
弥生区民活動センター,東京都 中野区弥生町一丁目58番14号,1F,1階だれでもトイレ,"設備: 車椅子対応, オストメイト対応, おむつ交換台",#00cc00,139.678461,35.692379
東部区民活動センター,東京都 中野区中央二丁目18番21号,2F,2階北側だれでもトイレ,"年末年始（12月29日〜1月3日）は休館のため使用不可。その他、施設の維持管理等のため、使用できない日、時間があります。 | 設備: 車椅子対応, オストメイト対応, おむつ交換台",#00cc00,139.682563,35.700451
鍋横区民活動センター,東京都 中野区本町五丁目47番13号,1F,1階だれでもトイレ,"設備: 車椅子対応, おむつ交換台",#00cc00,139.66791,35.693668
桃園区民活動センター,東京都 中野区中央四丁目57番1号,1F,1階北側だれでもトイレ,"設備: 車椅子対応, オストメイト対応, おむつ交換台",#00cc00,139.667224,35.702356
東中野区民活動センター,東京都 中野区東中野五丁目27番5号,1F,1階だれでもトイレ,"設備: 車椅子対応, オストメイト対応, おむつ交換台",#00cc00,139.690289,35.710148
東中野区民活動センター,東京都 中野区東中野五丁目27番5号,2F,2階だれでもトイレ,設備: 車椅子対応,#00cc00,139.690268,35.71017
新井区民活動センター,東京都 中野区新井三丁目11番4号,1F,1階北側だれでもトイレ,"設備: 車椅子対応, オストメイト対応, おむつ交換台",#00cc00,139.663509,35.714307
野方区民活動センター (野方ウィズ),東京都 中野区野方五丁目3番1号,1F,1階多目的トイレ,"設備: 車椅子対応, オストメイト対応",#00cc00,139.653259,35.718334
野方区民活動センター (野方ウィズ),東京都 中野区野方五丁目3番1号,2F,2階多目的トイレ,"設備: 車椅子対応, おむつ交換台",#00cc00,139.653408,35.71817
野方区民活動センター (野方ウィズ),東京都 中野区野方五丁目3番1号,3F,3階多目的トイレ,"設備: 車椅子対応, おむつ交換台",#00cc00,139.653403,35.71823
大和区民活動センター,東京都 中野区大和町二丁目44番6号,2F,2階だれでもトイレ,"設備: 車椅子対応, オストメイト対応, おむつ交換台",#00cc00,139.648929,35.713556
鷺宮区民活動センター,東京都 中野区鷺宮三丁目22番5号,1F,1階東側だれでもトイレ,"祝日等の開始・終了時間は土日曜日と同じになります | 設備: 車椅子対応, おむつ交換台",#00cc00,139.639853,35.723497
上鷺宮区民活動センター,東京都 中野区上鷺宮三丁目7番6号,1F,1階多目的トイレ,"年末年始（12月29日〜1月3日）は休館のため使用不可。その他、施設の維持管理等のため、使用できない日、時間があります。 | 設備: 車椅子対応, オストメイト対応",#00cc00,139.632066,35.731901
上鷺宮区民活動センター,東京都 中野区上鷺宮三丁目7番6号,2F,2階多目的トイレ,"年末年始（12月29日〜1月3日）は休館のため使用不可。その他、施設の維持管理等のため、使用できない日、時間があります。 | 設備: 車椅子対応, おむつ交換台",#00cc00,139.632066,35.731901
江古田区民活動センター,東京都 中野区江原町二丁目3番15号,1F,1階　だれでもトイレ,"設備: 車椅子対応, オストメイト対応, おむつ交換台",#00cc00,139.669687,35.728779
鷺宮区民活動センター分室,東京都 中野区白鷺一丁目4番27号,2F,多目的トイレ,"※集会室を貸し出ししている時のみ。12：00〜13：00、17：00〜18：00は利用不可。　 | 設備: 車椅子対応, オストメイト対応, おむつ交換台",#00cc00,139.638352,35.717544
上鷺宮区民活動センター分室,東京都 中野区上鷺宮二丁目4番6号,1F,多目的トイレ,年末年始（12月29日〜1月3日）は休館のため使用不可。その他、施設の維持管理等のため、使用できない日、時間があります。  | 設備: 車椅子対応,#00cc00,139.634743,35.727333
松が丘シニアプラザ,東京都 中野区松が丘一丁目32番10号,2F,誰でもトイレ,設備: 車椅子対応,#00cc00,139.671953,35.721238
上高田区民活動センター,東京都 中野区上高田二丁目１１番１号,1F,多目的トイレ,"設備: 車椅子対応, オストメイト対応, おむつ交換台",#00cc00,139.672584,35.711556
子ども・若者支援センター等複合施設 (みらいステップなかの(中野東図書館、教育センター、中野区子ども・若者支援センター)),東京都 中野区中央一丁目４１番２号,1F,1階だれでもトイレ,"設備: 車椅子対応, オストメイト対応, 大型ベッド, おむつ交換台",#00cc00,139.683342,35.698187
子ども・若者支援センター等複合施設 (みらいステップなかの(中野東図書館、教育センター、中野区子ども・若者支援センター)),東京都 中野区中央一丁目４１番２号,3F,3階だれでもトイレ,設備: 車椅子対応,#00cc00,139.683342,35.698187
子ども・若者支援センター等複合施設 (みらいステップなかの(中野東図書館、教育センター、中野区子ども・若者支援センター)),東京都 中野区中央一丁目４１番２号,4F,4階だれでもトイレ,"設備: 車椅子対応, おむつ交換台",#00cc00,139.683342,35.698187
子ども・若者支援センター等複合施設 (みらいステップなかの(中野東図書館、教育センター、中野区子ども・若者支援センター)),東京都 中野区中央一丁目４１番２号,5F,5階だれでもトイレ,"設備: 車椅子対応, オストメイト対応",#00cc00,139.683342,35.698187
子ども・若者支援センター等複合施設 (みらいステップなかの(中野東図書館、教育センター、中野区子ども・若者支援センター)),東京都 中野区中央一丁目４１番２号,6F,6階だれでもトイレ,設備: 車椅子対応,#00cc00,139.683342,35.698187
教育センター分室,東京都 中野区野方一丁目３５番３号,1F,車イス用トイレ,設備: 車椅子対応,#00cc00,139.656523,35.709556
しんやまの家,東京都 中野区南台四丁目25番1号,1F,1階車いすトイレ,設備: 車椅子対応,#00cc00,139.667486,35.68082
本一高齢者会館,東京都 中野区本町一丁目7番6号,1F,1階多目的（誰でも）トイレ,"設備: 車椅子対応, オストメイト対応",#00cc00,139.682714,35.693805
昭和高齢者会館,東京都 中野区東中野三丁目19番18号,1F,身障者用トイレ,設備: 車椅子対応,#00cc00,139.680634,35.708418
宮園高齢者会館 (東部区民活動センター),東京都 中野区中央二丁目18番21号,1F,１階だれでもトイレ,"設備: 車椅子対応, おむつ交換台",#00cc00,139.682565,35.700445
上高田高齢者会館,東京都 中野区上高田二丁目8番11号,1F,身障者用トイレ,設備: 車椅子対応,#00cc00,139.672427,35.710776
上高田東高齢者会館,東京都 中野区上高田四丁目17番3号,1F,身障者用トイレ,設備: 車椅子対応,#00cc00,139.677926,35.712925
沼袋高齢者会館,東京都 中野区沼袋一丁目34番14号,1F,誰でもトイレ,設備: 車椅子対応,#00cc00,139.634969,35.727066
野方高齢者会館,東京都 中野区野方二丁目29番12号,1F,多目的トイレ,設備: 車椅子対応,#00cc00,139.656443,35.714493
東山高齢者会館,東京都 中野区野方四丁目41番7号,1F,誰でもトイレ,設備: 車椅子対応,#00cc00,139.657262,35.721891
若宮高齢者会館,東京都 中野区大和町四丁目51番11号,1F,身障者便所,年末年始（12/28〜1/3）と清掃日（不定期）は使用できません。 | 設備: 車椅子対応,#00cc00,139.642993,35.715468
白鷺高齢者会館,東京都 中野区白鷺二丁目8番5号,1F,身障者便所,年末年始（12/28〜1/3）と清掃日（不定期）は使用できません。 | 設備: 車椅子対応,#00cc00,139.635816,35.71866
鷺六高齢者会館,東京都 中野区鷺宮六丁目25番8号,1F,お手洗い,年末年始（12/28〜1/3）と清掃日（不定期）は使用できません。トイレ名称版に車椅子マークあり | 設備: 車椅子対応,#00cc00,139.630198,35.725655
南部高齢者会館 (南部高齢者会館),東京都 中野区南台五丁目27番24号,1F,１階だれでもトイレ,"設備: 車椅子対応, オストメイト対応",#00cc00,139.660887,35.683338
中野区保健所,東京都 中野区中野二丁目17番4号,1F,1階西側だれでもトイレ,"設備: 車椅子対応, おむつ交換台",#00cc00,139.669232,35.702903
野方図書館,東京都 中野区野方三丁目19番5号,1F,1階多目的トイレ,"設備: 車椅子対応, おむつ交換台",#00cc00,139.654403,35.717474
江古田図書館,東京都 中野区江古田二丁目1番11号,1F,1階多目的トイレ,設備: 車椅子対応,#00cc00,139.668998,35.724897
上高田図書館,東京都 中野区上高田五丁目30番15号,2F,2階多目的トイレ,"設備: 車椅子対応, おむつ交換台",#00cc00,139.675148,35.718937
南台図書館,東京都 中野区南台三丁目26番18号,1F,1階多目的トイレ,"設備: 車椅子対応, おむつ交換台",#00cc00,139.665629,35.68538
産業振興センター,東京都 中野区中野二丁目13番14号,1F,1階南側だれでもトイレ,12/29〜1/3と毎月の休館日を除く | 設備: 車椅子対応,#00cc00,139.668083,35.704384
産業振興センター,東京都 中野区中野二丁目13番14号,3F,3階南側だれでもトイレ,12/29〜1/3と毎月の休館日を除く | 設備: 車椅子対応,#00cc00,139.66801,35.704361
歴史民俗資料館,東京都 中野区江古田四丁目3番4号,2F,2階だれでもトイレ,"設備: 車椅子対応, オストメイト対応, おむつ交換台",#00cc00,139.664957,35.724309
鷺宮スポーツ・コミュニティプラザ,東京都 中野区白鷺三丁目1番13号,1F,1階だれでもトイレ,"年末年始休館（12/29〜1/3）及び、定期休館の毎月第4月曜（祝日の場合、翌日火曜）使用不可。プール更衣室の退場時間が22：30(21：30)までとなる為、時間変更しています。 | 設備: 車椅子対応, オストメイト対応, 大型ベッド",#00cc00,139.636294,35.722551
鷺宮スポーツ・コミュニティプラザ,東京都 中野区白鷺三丁目1番13号,2F,2階身障者用トイレ,年末年始休館（12/29〜1/3）及び、定期休館の毎月第4月曜（祝日の場合、翌日火曜）使用不可。プール更衣室の退場時間が22：30(21：30)までとなる為、時間変更しています。 | 設備: 車椅子対応,#00cc00,139.636297,35.722517
鷺宮スポーツ・コミュニティプラザ,東京都 中野区白鷺三丁目1番13号,B1F,地下1階身障者用トイレ,年末年始休館（12/29〜1/3）及び、定期休館の毎月第4月曜（祝日の場合、翌日火曜）使用不可。プール更衣室の退場時間が22：30(21：30)までとなる為、時間変更しています。 | 設備: 車椅子対応,#00cc00,139.63626,35.722453
鷺宮スポーツ・コミュニティプラザ,東京都 中野区白鷺三丁目1番13号,B2F,地下2階プール身障者用トイレ,年末年始休館（12/29〜1/3）及び、定期休館の毎月第4月曜（祝日の場合、翌日火曜）使用不可。プール更衣室の退場時間が22：30(21：30)までとなる為、時間変更しています。 | 設備: 車椅子対応,#00cc00,139.636299,35.722538
鷺宮スポーツ・コミュニティプラザ,東京都 中野区白鷺三丁目1番13号,B2F,地下2階プール身障者用トイレ,年末年始休館（12/29〜1/3）及び、定期休館の毎月第4月曜（祝日の場合、翌日火曜）使用不可。プール更衣室の退場時間が22：30(21：30)までとなる為、時間変更しています。 | 設備: 車椅子対応,#00cc00,139.636296,35.722442
哲学堂弓道場,東京都 中野区松が丘一丁目34番28号,B1F,地下1階多目的トイレ,12：30〜13：30は休場時間（使用不可）。9月の第1木曜日及び年末年始（12/29〜1/3）は使用不可。 | 設備: 車椅子対応,#00cc00,139.673919,35.723383
南部スポーツ・コミュニティプラザ,東京都 中野区弥生町五丁目11番26号,1F,1階だれでもトイレ,"年末年始休館（12/29〜1/3）及び、定期休館の毎月第1・3月曜（祝日の場合、翌日火曜）使用不可。 | 設備: 車椅子対応, オストメイト対応, おむつ交換台",#00cc00,139.6683,35.688198
南部スポーツ・コミュニティプラザ,東京都 中野区弥生町五丁目11番26号,B1F,地下1階だれでもトイレ,"年末年始休館（12/29〜1/3）及び、定期休館の毎月第1・3月曜（祝日の場合、翌日火曜）使用不可。 | 設備: 車椅子対応, オストメイト対応, おむつ交換台",#00cc00,139.668393,35.68833
南部スポーツ・コミュニティプラザ,東京都 中野区弥生町五丁目11番26号,B1F,地下1階プールだれでもトイレ,"年末年始休館（12/29〜1/3）及び、定期休館の毎月第1・3月曜（祝日の場合、翌日火曜）使用不可。 | 設備: 車椅子対応, オストメイト対応, おむつ交換台",#00cc00,139.668478,35.688167
もみじやま文化センター本館,東京都 中野区中野二丁目9番7号,2F,2階南側ホワイエだれでもトイレ,設備: 車椅子対応,#00cc00,139.671831,35.704186
もみじやま文化センター本館,東京都 中野区中野二丁目9番7号,2F,2階北側ホワイエだれでもトイレ,設備: 車椅子対応,#00cc00,139.671869,35.704494
もみじやま文化センター本館,東京都 中野区中野二丁目9番7号,B1F,地下1階図書館用だれでもトイレ,"設備: 車椅子対応, おむつ交換台",#00cc00,139.671661,35.704562
もみじやま文化センター本館,東京都 中野区中野二丁目9番7号,B2F,地下2階視聴覚ホール前だれでもトイレ,"設備: 車椅子対応, オストメイト対応",#00cc00,139.671578,35.704462
もみじやま文化センター西館,東京都 中野区中野二丁目9番7号,1F,1階だれでもトイレ,"設備: 車椅子対応, オストメイト対応, おむつ交換台",#00cc00,139.671755,35.7044
野方区民ホール,東京都 中野区野方五丁目3番1号,B2F,地下2階ホワイエだれでもトイレ,"設備: 車椅子対応, オストメイト対応, おむつ交換台",#00cc00,139.653268,35.718417
なかの芸能小劇場,東京都 中野区中野五丁目68番7号,2F,2階だれでもトイレ,"毎月第3月曜は利用不可。第３月曜が祝日にあたるときは利用可となり、翌日が利用不可。 | 設備: 車椅子対応, 大型ベッド, おむつ交換台",#00cc00,139.665347,35.709067
杉山公園,東京都 中野区本町6-15,1F,車椅子使用者対応トイレ,"設備: 車椅子対応, おむつ交換台",#00cc00,139.6671932,35.69694616
新井薬師公園,"東京都 中野区新井5-4,4-15",1F,車椅子使用者対応トイレ,"設備: 車椅子対応, オストメイト対応, おむつ交換台",#00cc00,139.667328,35.71449762
江古田公園,"東京都 中野区松が丘2-35,2-29",1F,車椅子使用者対応トイレ,設備: 車椅子対応,#00cc00,139.6707435,35.72385896
江原公園,東京都 中野区江原町1-15,1F,車椅子使用者対応トイレ,"設備: 車椅子対応, オストメイト対応, おむつ交換台",#00cc00,139.6747356,35.7293566
沼袋公園,東京都 中野区沼袋1-19,1F,車椅子使用者対応トイレ,設備: 車椅子対応,#00cc00,139.6688847,35.72012363
城山公園,東京都 中野区中野1-44,1F,車椅子使用者対応トイレ,設備: 車椅子対応,#00cc00,139.6739452,35.70426555
栄町公園,東京都 中野区弥生町4-20,1F,車椅子使用者対応トイレ,"設備: 車椅子対応, オストメイト対応, おむつ交換台",#00cc00,139.6714252,35.68648242
若宮公園,東京都 中野区若宮3-21,1F,車椅子使用者対応トイレ,"設備: 車椅子対応, オストメイト対応, おむつ交換台",#00cc00,139.6433518,35.72179234
大和公園,東京都 中野区大和町2-8,1F,車椅子使用者対応トイレ,令和7年7月中旬まで工事中,#00cc00,139.6516144,35.71560081
上鷺公園,東京都 中野区上鷺宮4-8,1F,車椅子使用者対応トイレ,設備: 車椅子対応,#00cc00,139.6282696,35.73207606
紅葉山公園,東京都 中野区中野2-5,1F,車椅子使用者対応トイレ,設備: 車椅子対応,#00cc00,139.6712806,35.70394771
追分公園,東京都 中野区中央4-7,1F,車椅子使用者対応トイレ,"設備: 車椅子対応, オストメイト対応, おむつ交換台",#00cc00,139.6689106,35.69817629
武蔵台公園,東京都 中野区上鷺宮5-26,1F,車椅子使用者対応トイレ,"設備: 車椅子対応, オストメイト対応, おむつ交換台",#00cc00,139.6302665,35.73045035
北中野公園,東京都 中野区上鷺宮5-8,1F,車椅子使用者対応トイレ,"設備: 車椅子対応, オストメイト対応, おむつ交換台",#00cc00,139.6273187,35.72869471
塔の山公園,東京都 中野区中央2-7,1F,車椅子使用者対応トイレ,設備: 車椅子対応,#00cc00,139.6817614,35.69883697
沼袋西公園,東京都 中野区沼袋3-14,1F,車椅子使用者対応トイレ,設備: 車椅子対応,#00cc00,139.6593,35.71658243
上の原公園,東京都 中野区東中野2-6,1F,車椅子使用者対応トイレ,設備: 車椅子対応,#00cc00,139.6809814,35.7025232
啓明公園,東京都 中野区大和町1-21,1F,車椅子使用者対応トイレ,設備: 車椅子対応,#00cc00,139.6529511,35.71154088
西大和公園,東京都 中野区大和町4-50,1F,車椅子使用者対応トイレ,"設備: 車椅子対応, オストメイト対応, おむつ交換台",#00cc00,139.6436815,35.71487021
川添公園,東京都 中野区東中野1-22,1F,車椅子使用者対応トイレ,設備: 車椅子対応,#00cc00,139.6862624,35.70358594
新井南公園,東京都 中野区新井2-31,1F,車椅子使用者対応トイレ,"設備: 車椅子対応, オストメイト対応, おむつ交換台",#00cc00,139.662354,35.71087089
弥生公園,東京都 中野区弥生5-4,1F,車椅子使用者対応トイレ,"設備: 車椅子対応, オストメイト対応, おむつ交換台",#00cc00,139.6668295,35.68612151
八成公園,東京都 中野区上鷺宮5-19,1F,車椅子使用者対応トイレ,"設備: 車椅子対応, オストメイト対応, おむつ交換台",#00cc00,139.6265599,35.73176911
上鷺東公園,東京都 中野区上鷺宮2-18,1F,車椅子使用者対応トイレ,"設備: 車椅子対応, オストメイト対応, おむつ交換台",#00cc00,139.6348065,35.72974554
谷戸運動公園,東京都 中野区中野1-31,1F,車椅子使用者対応トイレ,設備: 車椅子対応,#00cc00,139.6748501,35.70247692
中央西公園,東京都 中野区中央5-27,1F,車椅子使用者対応トイレ,設備: 車椅子対応,#00cc00,139.6633533,35.69914843
本一公園,東京都 中野区本町1-23,1F,車椅子使用者対応トイレ,"設備: 車椅子対応, オストメイト対応, おむつ交換台",#00cc00,139.6825957,35.69417411
中央公園,東京都 中野区中央5-42,1F,車椅子使用者対応トイレ,設備: 車椅子対応,#00cc00,139.6666142,35.70058403
東山公園,東京都 中野区野方4-41,1F,車椅子使用者対応トイレ,"設備: 車椅子対応, オストメイト対応, おむつ交換台",#00cc00,139.6572907,35.72228732
大和花公園,東京都 中野区大和町1-54,1F,車椅子使用者対応トイレ,設備: 車椅子対応,#00cc00,139.6498439,35.71166288
若葉公園,東京都 中野区鷺宮5-11,1F,車椅子使用者対応トイレ,"設備: 車椅子対応, オストメイト対応, おむつ交換台",#00cc00,139.6315623,35.72516586
ささの葉公園,東京都 中野区南台4-14,1F,車椅子使用者対応トイレ,"設備: 車椅子対応, オストメイト対応, おむつ交換台",#00cc00,139.6666703,35.68299107
あじさい公園,東京都 中野区中野5-34,1F,車椅子使用者対応トイレ,設備: 車椅子対応,#00cc00,139.6677527,35.70721889
たんぽぽ公園,東京都 中野区野方2-61,1F,車椅子使用者対応トイレ,設備: 車椅子対応,#00cc00,139.6547629,35.71455988
れんげ公園,東京都 中野区弥生町5-8,1F,車椅子使用者対応トイレ,令和７年2月下旬まで工事中,#00cc00,139.6650523,35.68876525
みずのとう公園,東京都 中野区江古田1-3,1F,車椅子使用者対応トイレ,"設備: 車椅子対応, オストメイト対応, おむつ交換台",#00cc00,139.6748116,35.72475153
ぱんだ公園,東京都 中野区弥生町3-34,1F,車椅子使用者対応トイレ,"設備: 車椅子対応, オストメイト対応, おむつ交換台",#00cc00,139.67449,35.68920705
宮前公園,東京都 中野区中央2-39,1F,車椅子使用者対応トイレ,設備: 車椅子対応,#00cc00,139.6785312,35.70091497
桜山公園,東京都 中野区東中野3-22,1F,車椅子使用者対応トイレ,"設備: 車椅子対応, オストメイト対応, おむつ交換台",#00cc00,139.6799266,35.70712446
南台公園,東京都 中野区南台5-7,1F,車椅子使用者対応トイレ,"設備: 車椅子対応, オストメイト対応",#00cc00,139.6635718,35.68114921
囲桃園公園,"東京都 中野区中野3-20,21",1F,車椅子使用者対応トイレ,"設備: 車椅子対応, オストメイト対応, おむつ交換台",#00cc00,139.6624486,35.70342178
早稲田通り公園,東京都 中野区野方1-35,1F,車椅子使用者対応トイレ,設備: 車椅子対応,#00cc00,139.6561069,35.70958953
弥生町二丁目公園,東京都 中野区弥生町2-19,1F,車椅子使用者対応トイレ,設備: 車椅子対応,#00cc00,139.6746892,35.69088333
新井東公園,東京都 中野区新井1-19,1F,車椅子使用者対応トイレ,"設備: 車椅子対応, オストメイト対応, おむつ交換台",#00cc00,139.6682929,35.71171734
大和北公園,東京都 中野区大和町2-45,1F,車椅子使用者対応トイレ,設備: 車椅子対応,#00cc00,139.649025,35.71435975
上高田二丁目公園,東京都 中野区上高田2-8,1F,車椅子使用者対応トイレ,設備: 車椅子対応,#00cc00,139.6732178,35.71071658
上町公園,東京都 中野区中央4-36,1F,車椅子使用者対応トイレ,"設備: 車椅子対応, オストメイト対応, おむつ交換台",#00cc00,139.6702478,35.70112813
南台三丁目公園,東京都 中野区南台3-41,1F,車椅子使用者対応トイレ,"設備: 車椅子対応, オストメイト対応, おむつ交換台",#00cc00,139.6636314,35.68242228
本二東郷やすらぎ公園,"東京都 中野区本町2-12,14",1F,車椅子使用者対応トイレ（花と緑の小広場）,設備: 車椅子対応,#00cc00,139.6782551,35.69441995
本二東郷やすらぎ公園,"東京都 中野区本町2-12,14",1F,車椅子使用者対応トイレ（草地広場）,"設備: 車椅子対応, オストメイト対応, おむつ交換台",#00cc00,139.6776635,35.69418371
江古田の森公園,東京都 中野区江古田3-14,1F,車椅子使用者対応トイレ（多目的広場）,設備: 車椅子対応,#00cc00,139.6666178,35.73113007
江古田の森公園,東京都 中野区江古田3-14,1F,車椅子使用者対応トイレ（芝生広場）,"設備: 車椅子対応, オストメイト対応, おむつ交換台",#00cc00,139.6663996,35.7295618
江古田の森公園,東京都 中野区江古田3-14,1F,車椅子使用者対応トイレ（学習室）,"設備: 車椅子対応, オストメイト対応, おむつ交換台",#00cc00,139.6647283,35.72924909
小淀公園,東京都 中野区中央1-24,1F,車椅子使用者対応トイレ,設備: 車椅子対応,#00cc00,139.686415,35.70081983
かしの木公園,東京都 中野区若宮3-52,1F,車椅子使用者対応トイレ,設備: 車椅子対応,#00cc00,139.6419066,35.72002518
風の子ひろば,"東京都 中野区上鷺宮4-13,14",1F,車椅子使用者対応トイレ,設備: 車椅子対応,#00cc00,139.6290967,35.73421353
白鷺ネムノキ公園,東京都 中野区白鷺1-7,1F,車椅子使用者対応トイレ,設備: 車椅子対応,#00cc00,139.6377392,35.7174431
若宮オリーブ公園,東京都 中野区若宮3丁目57-3,1F,車椅子使用者対応トイレ,設備: 車椅子対応,#00cc00,139.6402931,35.72001726
白鷺せせらぎ公園,東京都 中野区白鷺1-4,1F,車椅子使用者対応トイレ（北側）,"設備: 車椅子対応, オストメイト対応, 大型ベッド, おむつ交換台",#00cc00,139.6391046,35.71760786
白鷺せせらぎ公園,東京都 中野区白鷺1-4,1F,車椅子使用者対応トイレ（中央）,設備: 車椅子対応,#00cc00,139.6395953,35.71683938
南台いちょう公園,東京都 中野区南台1-15,1F,車椅子使用者対応トイレ,"設備: 車椅子対応, オストメイト対応, おむつ交換台",#00cc00,139.6728643,35.68455479
本五ふれあい公園,東京都 中野区本町5-28,1F,車椅子使用者対応トイレ（草地広場ゾーン）,"設備: 車椅子対応, オストメイト対応, おむつ交換台",#00cc00,139.6691239,35.69168327
本五ふれあい公園,東京都 中野区本町5-28,1F,車椅子使用者対応トイレ（運動広場ゾーン）,設備: 車椅子対応,#00cc00,139.6705861,35.69203711
なかしん広場,東京都 中野区本町3-2,1F,車椅子使用者対応トイレ,"設備: 車椅子対応, おむつ交換台",#00cc00,139.6745174,35.6931655
広町みらい公園,東京都 中野区弥生町6-1,1F,車椅子使用者対応トイレ（体験学習センター）,"設備: 車椅子対応, オストメイト対応, おむつ交換台",#00cc00,139.6613801,35.68464464
広町みらい公園,東京都 中野区弥生町6-1,1F,車椅子使用者対応トイレ（多目的広場前）,"設備: 車椅子対応, オストメイト対応, おむつ交換台",#00cc00,139.6621694,35.68518091
平和の森公園,東京都 中野区新井3-37,1F,車椅子使用者対応トイレ（犬の広場）,"令和６年8月中旬〜未定　漏水修理中につき利用不可（期間未定） | 設備: 車椅子対応, オストメイト対応, おむつ交換台",#00cc00,139.6632142,35.71753064
平和の森公園,東京都 中野区新井3-37,1F,車椅子使用者対応トイレ（遊具広場）,"令和６年8月中旬〜未定　漏水修理中につき利用不可（期間未定） | 設備: 車椅子対応, オストメイト対応, おむつ交換台",#00cc00,139.6607277,35.71497312
哲学堂公園,東京都 中野区松が丘1-34,1F,車椅子使用者対応トイレ（児童遊園）,設備: 車椅子対応,#00cc00,139.67469,35.72234924
哲学堂公園,東京都 中野区松が丘1-34,1F,車椅子使用者対応トイレ（つつじ園）,設備: 車椅子対応,#00cc00,139.6754661,35.72147797
哲学堂公園,東京都 中野区松が丘1-34,1F,車椅子使用者対応トイレ（さくらの広場）,"設備: 車椅子対応, おむつ交換台",#00cc00,139.6730472,35.72178918
妙正寺川公園,東京都 中野区松が丘1-33,1F,車椅子使用者対応トイレ,設備: 車椅子対応,#00cc00,139.6729724,35.72063115
鷺宮運動広場,東京都 中野区白鷺3-1,1F,車椅子使用者対応トイレ,"設備: 車椅子対応, オストメイト対応",#00cc00,139.6357422,35.72197652
中野四季の森公園（管理棟),東京都 中野区中野4-13,1F,車椅子使用者対応トイレ（管理棟）,"設備: 車椅子対応, オストメイト対応, 大型ベッド, おむつ交換台",#00cc00,139.6612626,35.70804443
中野四季の森公園（北）,東京都 中野区中野4-13,1F,車椅子使用者対応トイレ,"設備: 車椅子対応, オストメイト対応, おむつ交換台",#00cc00,139.6615309,35.70839399
囲町ひろば,東京都 中野区中野4-15,1F,車椅子使用者対応トイレ,設備: 車椅子対応,#00cc00,139.6601444,35.70631831
野方児童館,東京都 中野区新井二丁目48番10号,1F,1階西側だれでもトイレ,"設備: 車椅子対応, おむつ交換台",#00cc00,139.660392,35.710881
宮の台児童館,東京都 中野区本町四丁目8番16号,1F,1階だれでもトイレ,"設備: 車椅子対応, オストメイト対応, おむつ交換台",#00cc00,139.673329,35.695704
中野区社会福祉会館,東京都 中野区中野五丁目68番7号,3F,3階トイレ,設備: 車椅子対応,#00cc00,139.665344,35.709243
中野区社会福祉会館,東京都 中野区中野五丁目68番7号,4F,4階トイレ,"設備: 車椅子対応, おむつ交換台",#00cc00,139.665345,35.709208
中野区社会福祉会館,東京都 中野区中野五丁目68番7号,5F,5階トイレ,"設備: 車椅子対応, オストメイト対応",#00cc00,139.665328,35.70919
中野区社会福祉会館,東京都 中野区中野五丁目68番7号,6F,6階トイレ,設備: 車椅子対応,#00cc00,139.665328,35.70919
中野区社会福祉会館,東京都 中野区中野五丁目68番7号,7F,7階トイレ,"設備: 車椅子対応, おむつ交換台",#00cc00,139.665347,35.709175
中野区障害者福祉会館,東京都 中野区沼袋二丁目40番18号,1F,1階だれでもトイレ,"第３月曜日は利用不可 | 設備: 車椅子対応, オストメイト対応, おむつ交換台",#00cc00,139.663138,35.723651
中野区障害者福祉会館,東京都 中野区沼袋二丁目40番18号,B1F,地下1階だれでもトイレ,"第３月曜日は利用不可 | 設備: 車椅子対応, オストメイト対応, おむつ交換台",#00cc00,139.663067,35.723653
やよいの園,東京都 中野区弥生町三丁目33番8号,1F,1階車イス用トイレ,設備: 車椅子対応,#00cc00,139.674346,35.688856
やよいの園,東京都 中野区弥生町三丁目33番8号,3F,3階車イス用トイレ,設備: 車椅子対応,#00cc00,139.674326,35.688792
新井薬師児童館 (新井薬師児童館),東京都 中野区新井5丁目4-17,1F ,だれでもトイレ,"設備: 車椅子対応, おむつ交換台",#00cc00,139.667762,35.715211
城山ふれあいの家,東京都 中野区中野一丁目20番4号,1F,１階だれでもトイレ,"トイレ入り口横におむつ交換台あり | 設備: 車椅子対応, オストメイト対応",#00cc00,139.676854,35.703995
みずの塔ふれあいの家,東京都 中野区江古田一丁目9番24号,1F,1階だれでもトイレ,"・学校休業日は火曜日から金曜日の開始時刻が9:00になります。・祝日の開始時刻は9:00、終了時刻は17:00です。 | 設備: 車椅子対応, おむつ交換台",#00cc00,139.673425,35.725449
中野区立総合体育館,東京都 中野区新井三丁目37-78,1F,1階だれでもトイレ(1),"設備: 車椅子対応, オストメイト対応",#00cc00,139.662982,35.715749
中野区立総合体育館,東京都 中野区新井三丁目37-78,1F,1階だれでもトイレ(2),"設備: 車椅子対応, オストメイト対応, 大型ベッド, おむつ交換台",#00cc00,139.662982,35.715749
中野区立総合体育館,東京都 中野区新井三丁目37-78,2F,2階だれでもトイレ,"設備: 車椅子対応, オストメイト対応, 大型ベッド, おむつ交換台",#00cc00,139.662982,35.715749
中野区立総合体育館,東京都 中野区新井三丁目37-78,3F,3階だれでもトイレ(1),"設備: 車椅子対応, オストメイト対応, おむつ交換台",#00cc00,139.662982,35.715749
中野区立総合体育館,東京都 中野区新井三丁目37-78,3F,3階だれでもトイレ(2),設備: 車椅子対応,#00cc00,139.662982,35.715749
中野区立総合体育館,東京都 中野区新井三丁目37-78,2F,アリーナだれでもトイレ,"設備: 車椅子対応, オストメイト対応, おむつ交換台",#00cc00,139.662982,35.715749
中野三丁目敬老館,東京都 中野区中野三丁目２３番４７号,1F,だれでもトイレ,"設備: 車椅子対応, おむつ交換台",#00cc00,139.664116,35.701614