name,address,floor,toilet_name,note,color,lng,lat
大田都税事務所,東京都 大田区新蒲田一丁目18番22号,1F,車椅子使用者対応トイレ,"設備: 車椅子対応, オストメイト対応, 大型ベッド, おむつ交換台",#00cc00,139.710733,35.557443
大井ふ頭中央海浜公園ホッケー競技場 (サブピッチ),東京都 大田区東海１丁目２番１号,1F,車いすＷＣ1-1,"ホッケー競技場の利用者（選手・観客等）のみ利用できます。 | 設備: 車椅子対応, オストメイト対応",#00cc00,139.753293,35.588825
大井ふ頭中央海浜公園ホッケー競技場 (サブピッチ),東京都 大田区東海１丁目２番２号,2F,車いすＷＣ2-2,"ホッケー競技場の利用者（選手・観客等）のみ利用できます。 | 設備: 車椅子対応, オストメイト対応, 大型ベッド",#00cc00,139.753399,35.58881
大井ふ頭中央海浜公園ホッケー競技場 (サブピッチ),東京都 大田区東海１丁目２番３号,2F,ＭＷＣ2-1,ホッケー競技場の利用者（選手・観客等）のみ利用できます。 | 設備: オストメイト対応,#00cc00,139.753054,35.588868
大井ふ頭中央海浜公園ホッケー競技場 (サブピッチ),東京都 大田区東海１丁目２番４号,2F,ＷＷＣ2-1,ホッケー競技場の利用者（選手・観客等）のみ利用できます。 | 設備: オストメイト対応,#00cc00,139.753014,35.588868
地方独立行政法人東京都立病院機構　東京都立荏原病院,東京都 大田区東雪谷四丁目5番10号,1F,1階北側障害者用トイレ,"設備: 車椅子対応, オストメイト対応, おむつ交換台",#00cc00,139.692898,35.593999
東京都中央卸売市場大田市場（事務棟）,東京都 大田区東海三丁目2番1号,2F,事務棟2階東側122番トイレ,"常時利用可能。（休市日も使用可能） | 設備: 車椅子対応, オストメイト対応",#00cc00,139.758734,35.579016
東京都中央卸売市場大田市場（花き棟）,東京都 大田区東海二丁目2番1号,2F,花き棟2階西側936番トイレ,"常時利用可能。（休市日も使用可能） | 設備: 車椅子対応, オストメイト対応",#00cc00,139.754846,35.580504
城南島海浜公園,東京都 大田区城南島四丁目,1F,Ｃ（信号所）,"設備: 車椅子対応, おむつ交換台",#00cc00,139.783217,35.578382
城南島海浜公園,東京都 大田区城南島四丁目,1F,管理事務所脇,"設備: 車椅子対応, おむつ交換台",#00cc00,139.785557,35.5807
城南島海浜公園,東京都 大田区城南島四丁目,1F,第二キャンプ場,"設備: 車椅子対応, おむつ交換台",#00cc00,139.783537,35.582085
東海ふ頭公園,東京都 大田区東海二丁目,1F,東海ふ頭公園,設備: 車椅子対応,#00cc00,139.756133,35.577934
京浜島つばさ公園,東京都 大田区京浜島二丁目,1F,つばさ展望トイレ,"設備: 車椅子対応, オストメイト対応, おむつ交換台",#00cc00,139.767332,35.567172
京浜島つばさ公園,東京都 大田区京浜島二丁目,1F,つばさ広場トイレ,"設備: 車椅子対応, オストメイト対応, おむつ交換台",#00cc00,139.770572,35.571387
東京港野鳥公園,東京都 大田区東海3-1,1F,管理棟向い屋外　多目的トイレ,設備: 車椅子対応,#00cc00,139.760458,35.583588
東京港野鳥公園,東京都 大田区東海3-1,2F,ネイチャセンター2F　だれでもトイレ,"設備: 車椅子対応, オストメイト対応, おむつ交換台",#00cc00,139.760419,35.583916
都営浅草線西馬込駅,東京都 大田区西馬込二丁目1番6号,1F,だれでもトイレ,"設備: 車椅子対応, オストメイト対応, おむつ交換台",#00cc00,139.706039,35.587452
都営浅草線馬込駅,東京都 大田区北馬込二丁目31番9号,B1F,だれでもトイレ,"設備: 車椅子対応, オストメイト対応, おむつ交換台",#00cc00,139.711996,35.597218
大森消防署山谷出張所,東京都 大田区大森西五丁目14番5号,1F,だれでもトイレ,"設備: 車椅子対応, オストメイト対応, おむつ交換台",#00cc00,139.729981,35.569765
大森消防署森ケ崎出張所,東京都 大田区大森南三丁目33番8号,1F,だれでもトイレ,"設備: 車椅子対応, オストメイト対応, おむつ交換台",#00cc00,139.745669,35.564541
蒲田消防署　空港分署,東京都 大田区羽田空港一丁目１番２号,1F,誰でもトイレ,"設備: 車椅子対応, オストメイト対応, おむつ交換台",#00cc00,139.753255,35.54911
六郷地域力推進センター,東京都 大田区仲六郷二丁目44番11号,1F,1階だれでもトイレ,"設備: 車椅子対応, オストメイト対応, 大型ベッド, おむつ交換台",#00cc00,139.71604,35.551015
六郷地域力推進センター,東京都 大田区仲六郷二丁目44番11号,2F,2階だれでもトイレ,"設備: 車椅子対応, オストメイト対応, 大型ベッド",#00cc00,139.71604,35.551015
六郷地域力推進センター,東京都 大田区仲六郷二丁目44番11号,3F,3階だれでもトイレ,"設備: 車椅子対応, おむつ交換台",#00cc00,139.71604,35.551015
六郷地域力推進センター,東京都 大田区仲六郷二丁目44番11号,4F,4階だれでもトイレ,"設備: 車椅子対応, 大型ベッド",#00cc00,139.71604,35.551015
六郷地域力推進センター,東京都 大田区仲六郷二丁目44番11号,5F,5階だれでもトイレ,"設備: 車椅子対応, オストメイト対応, 大型ベッド",#00cc00,139.71604,35.551015
大田区役所本庁舎,東京都 大田区蒲田五丁目13番14号,1F,1階車椅子使用者対応トイレ,"設備: 車椅子対応, オストメイト対応, 大型ベッド",#00cc00,139.715968,35.561376
大田区役所本庁舎,東京都 大田区蒲田五丁目13番14号,2F,2階車椅子使用者対応トイレ,"設備: 車椅子対応, おむつ交換台",#00cc00,139.715993,35.561369
大田区役所本庁舎,東京都 大田区蒲田五丁目13番14号,3F,3階車椅子使用者対応トイレ,"設備: 車椅子対応, おむつ交換台",#00cc00,139.715993,35.561369
大田区役所本庁舎,東京都 大田区蒲田五丁目13番14号,4F,4階車椅子使用者対応トイレ,"設備: 車椅子対応, おむつ交換台",#00cc00,139.715993,35.561369
大田区役所本庁舎,東京都 大田区蒲田五丁目13番14号,6F,6階車椅子使用者対応トイレ,"設備: 車椅子対応, おむつ交換台",#00cc00,139.716212,35.561865
大田区役所本庁舎,東京都 大田区蒲田五丁目13番14号,8F,8階車椅子使用者対応トイレ,"設備: 車椅子対応, おむつ交換台",#00cc00,139.715993,35.561369
大田区大森地域庁舎,東京都 大田区大森西一丁目12番1号,1F,１階バリアフリートイレ,"設備: 車椅子対応, オストメイト対応",#00cc00,139.722901,35.578186
大田区大森地域庁舎,東京都 大田区大森西一丁目12番1号,2F,２階バリアフリートイレ,"設備: 車椅子対応, オストメイト対応, 大型ベッド",#00cc00,139.722901,35.578186
大田区蒲田地域庁舎,東京都 大田区蒲田本町二丁目1番1号,1F,1階だれでもトイレ,"設備: 車椅子対応, オストメイト対応, おむつ交換台",#00cc00,139.718337,35.55851
大田区蒲田地域庁舎,東京都 大田区蒲田本町二丁目1番1号,2F,2階だれでもトイレ,"設備: 車椅子対応, おむつ交換台",#00cc00,139.718337,35.55851
大田区蒲田地域庁舎,東京都 大田区蒲田本町二丁目1番1号,3F,3階だれでもトイレ,"設備: 車椅子対応, おむつ交換台",#00cc00,139.718337,35.55851
大田区蒲田地域庁舎,東京都 大田区蒲田本町二丁目1番1号,4F,4階だれでもトイレ,"設備: 車椅子対応, おむつ交換台",#00cc00,139.718337,35.55851
大田区蒲田地域庁舎,東京都 大田区蒲田本町二丁目1番1号,5F,5階だれでもトイレ,"設備: 車椅子対応, おむつ交換台",#00cc00,139.718337,35.55851
大田区蒲田地域庁舎,東京都 大田区蒲田本町二丁目1番1号,B1F,地下1階だれでもトイレ,"設備: 車椅子対応, おむつ交換台",#00cc00,139.718337,35.55851
大田区役所 糀谷･羽田地域庁舎,東京都 大田区東糀谷一丁目21番15号,1F,１階正面玄関横だれでもトイレ,"12月29日〜1月3日は平日･休日にかかわらず閉庁日のため、ご利用いただけません。 | 設備: 車椅子対応, オストメイト対応, 大型ベッド, おむつ交換台",#00cc00,139.739743,35.557255
調布地域庁舎,東京都 大田区雪谷大塚町4番地6号,1F,１階車椅子使用者対応トイレ,"設備: 車椅子対応, オストメイト対応, おむつ交換台",#00cc00,139.680602,35.593181
調布地域庁舎,東京都 大田区雪谷大塚町4番地6号,3F,３階車椅子使用者対応トイレ,"設備: 車椅子対応, おむつ交換台",#00cc00,139.680602,35.593181
大田区大森東特別出張所,東京都 大田区大森南四丁目9番1号,1F,1階だれでもトイレ,"設備: 車椅子対応, オストメイト対応, 大型ベッド, おむつ交換台",#00cc00,139.74603,35.566864
大田区大森東特別出張所,東京都 大田区大森南四丁目9番1号,2F,2階だれでもトイレ,"設備: 車椅子対応, オストメイト対応, 大型ベッド, おむつ交換台",#00cc00,139.74603,35.566864
馬込特別出張所,東京都 大田区中馬込三丁目25番5号,1F,１階だれでもトイレ,"設備: 車椅子対応, おむつ交換台",#00cc00,139.709977,35.594049
池上特別出張所,東京都 大田区池上一丁目29番6号,1F,1階だれでもトイレ,"設備: 車椅子対応, おむつ交換台",#00cc00,139.710412,35.575007
大田区新井宿特別出張所,東京都 大田区中央一丁目21番6号,1F,1階だれでもトイレ,"設備: 車椅子対応, オストメイト対応, 大型ベッド, おむつ交換台",#00cc00,139.719739,35.579707
大田区新井宿特別出張所,東京都 大田区中央一丁目21番6号,3F,新井宿特別出張所3階だれでもトイレ,"設備: 車椅子対応, オストメイト対応, 大型ベッド, おむつ交換台",#00cc00,139.719712,35.579622
大田区嶺町特別出張所,東京都 大田区田園調布本町7番地1号,1F,１階だれでもトイレ,"設備: 車椅子対応, おむつ交換台",#00cc00,139.677445,35.587878
大田区嶺町特別出張所,東京都 大田区田園調布本町7番地1号,2F,２階だれでもトイレ,設備: 車椅子対応,#00cc00,139.677445,35.587878
大田区嶺町特別出張所,東京都 大田区田園調布本町7番地1号,3F,３階だれでもトイレ,設備: 車椅子対応,#00cc00,139.677445,35.587878
鵜の木特別出張所,東京都 大田区南久が原二丁目30番5号,B1F,地下１階ロビーだれでもトイレ,"設備: 車椅子対応, オストメイト対応, 大型ベッド, おむつ交換台",#00cc00,139.685267,35.574921
大田区役所久が原特別出張所 (久が原特別出張所),東京都 大田区久が原四丁目12番10号,1F,だれでもトイレ,"設備: 車椅子対応, おむつ交換台",#00cc00,139.693955,35.580315
雪谷特別出張所,東京都 大田区東雪谷三丁目6番2号,1F,１階だれでもトイレ,"17時で玄関を閉めるが建物内に残っている方については17：15まで利用可 | 設備: 車椅子対応, オストメイト対応, 大型ベッド",#00cc00,139.691034,35.594582
雪谷特別出張所,東京都 大田区東雪谷三丁目6番2号,3F,3階だれでもトイレ,"17時で玄関を閉めるが建物内に残っている方については17：15まで利用可 | 設備: 車椅子対応, 大型ベッド",#00cc00,139.690998,35.594605
糀谷特別出張所,東京都 大田区西糀谷二丁目14番13号,1F,バリアフリートイレ,"設備: 車椅子対応, 大型ベッド, おむつ交換台",#00cc00,139.736727,35.558682
大田区矢口特別出張所（矢口区民センター）,東京都 大田区矢口二丁目21番14号,1F,1階多目的トイレ,"12月29日から1月3日、矢口区民センター休館日（毎月最終月曜日）その他施設内臨時で工事が入るときは使用不可 | 設備: 車椅子対応, おむつ交換台",#00cc00,139.690423,35.562187
大田区矢口特別出張所（矢口区民センター）,東京都 大田区矢口二丁目21番14号,3F,3階多目的トイレ,"12月29日から1月3日、矢口区民センター休館日（毎月最終月曜日）その他施設内臨時で工事が入るときは使用不可 | 設備: 車椅子対応, おむつ交換台",#00cc00,139.690429,35.562123
田園調布特別出張所,東京都 大田区田園調布一丁目30番１号,3F,記載無し,"設備: 車椅子対応, オストメイト対応, 大型ベッド",#00cc00,139.671144,35.588066
田園調布特別出張所,東京都 大田区田園調布一丁目30番1号,2F,記載無し,"設備: 車椅子対応, オストメイト対応",#00cc00,139.671144,35.588066
千束特別出張所,東京都 大田区北千束二丁目35番８号,B1F,バリアフリートイレ,"設備: 車椅子対応, オストメイト対応, 大型ベッド, おむつ交換台",#00cc00,139.6894074,35.60491475
大田区立消費者生活センター,東京都 大田区蒲田五丁目13番26号101,1F,1階　高齢者・障がい者等用バリアフリートイレ,"設備: 車椅子対応, オストメイト対応, 大型ベッド, おむつ交換台",#00cc00,139.715468,35.559838
大田区立消費者生活センター,東京都 大田区蒲田五丁目13番26号101,2F,2階　高齢者・障がい者等用バリアフリートイレ,"設備: 車椅子対応, オストメイト対応, 大型ベッド, おむつ交換台",#00cc00,139.715468,35.559838
大森西区民センター,東京都 大田区大森西二丁目20番17号,1F,１階だれでもトイレ,設備: 車椅子対応,#00cc00,139.727722,35.576532
大森西区民センター,東京都 大田区大森西二丁目20番17号,3F,３階だれでもトイレ,設備: 車椅子対応,#00cc00,139.727654,35.576452
馬込区民センター,東京都 大田区南馬込四丁目6番5号,2F,2階だれでもトイレ,設備: 車椅子対応,#00cc00,139.709978,35.586442
ライフコミュニティ西馬込,東京都 大田区西馬込二丁目20番1号,2F,2階だれでもトイレ,設備: 車椅子対応,#00cc00,139.705193,35.586461
池上会館,東京都 大田区池上一丁目32番8号,1F,西館1階　だれでもトイレ,設備: 車椅子対応,#00cc00,139.706156,35.577383
池上会館,東京都 大田区池上一丁目32番8号,1F,本館1階だれでもトイレ,設備: 車椅子対応,#00cc00,139.706409,35.577427
池上会館,東京都 大田区池上一丁目32番8号,2F,本館2階だれでもトイレ,設備: 車椅子対応,#00cc00,139.706462,35.577287
池上会館,東京都 大田区池上一丁目32番8号,3F,本館3階だれでもトイレ,設備: 車椅子対応,#00cc00,139.706462,35.577287
池上会館,東京都 大田区池上一丁目32番8号,4F,本館4階だれでもトイレ,設備: 車椅子対応,#00cc00,139.706462,35.577287
大田区新井宿会館,東京都 大田区中央四丁目31番14号,2F,2階だれでもトイレ,"設備: 車椅子対応, おむつ交換台",#00cc00,139.718477,35.579799
大田区山王会館,東京都 大田区山王三丁目37番11号,1F,1階集会室だれでもトイレ,設備: 車椅子対応,#00cc00,139.723587,35.585599
萩中集会所,東京都 大田区萩中三丁目25番8号,1F,萩中集会所１階だれでもトイレ,"設備: 車椅子対応, オストメイト対応, 大型ベッド, おむつ交換台",#00cc00,139.739611,35.550682
萩中集会所,東京都 大田区萩中三丁目25番8号,2F,萩中集会所２階だれでもトイレ,"設備: 車椅子対応, オストメイト対応, 大型ベッド, おむつ交換台",#00cc00,139.73966,35.550649
萩中集会所,東京都 大田区萩中三丁目25番8号,B1F,萩中集会所地下１階だれでもトイレ,"設備: 車椅子対応, オストメイト対応, 大型ベッド, おむつ交換台",#00cc00,139.739611,35.550682
コミュニティセンター羽田旭,東京都 大田区羽田旭町7番地1号,1F,コミュニティセンター羽田旭　１階だれでもトイレ,"設備: 車椅子対応, おむつ交換台",#00cc00,139.747352,35.553559
区民活動支援施設大森(こらぼ大森),東京都 大田区大森西二丁目16番2号,1F,校舎棟１階東側だれでもトイレ,"設備: 車椅子対応, オストメイト対応, おむつ交換台",#00cc00,139.730314,35.576889
区民活動支援施設大森(こらぼ大森),東京都 大田区大森西二丁目16番2号,1F,校舎棟１階南側だれでもトイレ,設備: 車椅子対応,#00cc00,139.730091,35.576794
区民活動支援施設大森(こらぼ大森),東京都 大田区大森西二丁目16番2号,2F,校舎棟２階南側だれでもトイレ,設備: 車椅子対応,#00cc00,139.730091,35.576794
区民活動支援施設大森(こらぼ大森),東京都 大田区大森西二丁目16番2号,3F,校舎棟３階南側だれでもトイレ,設備: 車椅子対応,#00cc00,139.730091,35.576794
区民活動支援施設大森(こらぼ大森),東京都 大田区大森西二丁目16番2号,4F,校舎棟４階南側だれでもトイレ,設備: 車椅子対応,#00cc00,139.730091,35.576794
ふれあいはすぬま,東京都 大田区西蒲田三丁目19番1号,1F,トイレ,"設備: 車椅子対応, オストメイト対応, おむつ交換台",#00cc00,139.707596,35.567991
北蒲広場 (北蒲広場),東京都 大田区蒲田二丁目10番1号,1F,1階だれでもトイレ,"設備: 車椅子対応, おむつ交換台",#00cc00,139.725357,35.566065
美原文化センター,東京都 大田区大森東一丁目28番9号,1F,１階だれでもトイレ,設備: 車椅子対応,#00cc00,139.73811,35.577156
馬込文化センター,東京都 大田区中馬込三丁目26番3号,1F,１階西側だれでもトイレ,設備: 車椅子対応,#00cc00,139.710594,35.59388
南馬込文化センター,東京都 大田区南馬込三丁目24番9号,1F,１階だれでもトイレ,設備: 車椅子対応,#00cc00,139.71881,35.584929
雪谷文化センター,東京都 大田区南雪谷五丁目18番3号,1F,だれでもトイレ,"設備: 車椅子対応, おむつ交換台",#00cc00,139.690704,35.588251
大田区立石川町文化センター (石川町文化センター),東京都 大田区石川町一丁目3番8号,1F,1階バリアフリートイレ,"設備: 車椅子対応, オストメイト対応, 大型ベッド, おむつ交換台",#00cc00,139.683038,35.602065
六郷文化センター,東京都 大田区西六郷四丁目1番5号,1F,だれでもトイレ,設備: 車椅子対応,#00cc00,139.707737,35.544704
糀谷文化センター,東京都 大田区西糀谷二丁目14番5号,1F,1階だれでもトイレ身障者用トイレ,設備: 車椅子対応,#00cc00,139.736378,35.559088
萩中文化センター,東京都 大田区萩中一丁目7番30号,1F,萩中文化センター１階だれでもトイレ,設備: 車椅子対応,#00cc00,139.728375,35.550384
大田区民プラザ (大田区民プラザ),東京都 大田区下丸子三丁目1番3号,3F,3階バリアフリートイレ,設備: 車椅子対応,#00cc00,139.686371,35.571425
大田区民プラザ (大田区民プラザ),東京都 大田区下丸子三丁目1番3号,B1F,地下1階バリアフリートイレ,"設備: 車椅子対応, オストメイト対応, おむつ交換台",#00cc00,139.686335,35.571362
大田区民プラザ (大田区民プラザ),東京都 大田区下丸子三丁目1番3号,1F,大ホールバリアフリートイレ,"設備: 車椅子対応, オストメイト対応, おむつ交換台",#00cc00,139.686552,35.571313
大田区民プラザ (大田区民プラザ),東京都 大田区下丸子三丁目1番3号,1F,1階バリアフリートイレ,"設備: 車椅子対応, オストメイト対応, 大型ベッド, おむつ交換台",#00cc00,139.6865914,35.57123116
大田区産業プラザPiO (大田区産業プラザPiO),東京都 大田区南蒲田一丁目20番20号,1F,１階だれでもトイレ,"設備: 車椅子対応, おむつ交換台",#00cc00,139.723915,35.558747
大田区産業プラザPiO (大田区産業プラザPiO),東京都 大田区南蒲田一丁目20番20号,2F,２階だれでもトイレ,"設備: 車椅子対応, おむつ交換台",#00cc00,139.724257,35.558817
大田区産業プラザPiO (大田区産業プラザPiO),東京都 大田区南蒲田一丁目20番20号,3F,３階だれでもトイレ,"設備: 車椅子対応, おむつ交換台",#00cc00,139.724374,35.558654
大田区産業プラザPiO (大田区産業プラザPiO),東京都 大田区南蒲田一丁目20番20号,4F,４階だれでもトイレ,"設備: 車椅子対応, おむつ交換台",#00cc00,139.724099,35.558668
大田区産業プラザPiO (大田区産業プラザPiO),東京都 大田区南蒲田一丁目20番20号,5F,５階だれでもトイレ,設備: 車椅子対応,#00cc00,139.724097,35.558618
大田区産業プラザPiO (大田区産業プラザPiO),東京都 大田区南蒲田一丁目20番20号,6F,６階だれでもトイレ,設備: 車椅子対応,#00cc00,139.724132,35.558599
多摩川集会室（多摩川児童館）,東京都 大田区多摩川二丁目24番25号,1F,だれでもトイレ,ただし、集会室利用申請をした人に限る。 | 設備: 車椅子対応,#00cc00,139.704546,35.555251
大田区立障がい者総合サポートセンター,東京都 大田区中央四丁目30番11号,1F,1階だれでもトイレ,"設備: 車椅子対応, オストメイト対応, 大型ベッド",#00cc00,139.718032,35.579414
大田区立障がい者総合サポートセンター,東京都 大田区中央四丁目30番11号,2F,2階だれでもトイレ,"設備: 車椅子対応, オストメイト対応",#00cc00,139.718032,35.579414
大田区立障がい者総合サポートセンター,東京都 大田区中央四丁目30番11号,3F,3階だれでもトイレ,"設備: 車椅子対応, オストメイト対応, 大型ベッド",#00cc00,139.718032,35.579414
大田区立障がい者総合サポートセンター,東京都 大田区中央四丁目30番11号,4F,4階だれでもトイレ,"設備: 車椅子対応, オストメイト対応, 大型ベッド",#00cc00,139.718032,35.579414
大田区立障がい者総合サポートセンター,東京都 大田区中央四丁目30番11号,5F,5階だれでもトイレ,"設備: 車椅子対応, オストメイト対応, 大型ベッド",#00cc00,139.718032,35.579414
池上文化センター,東京都 大田区池上四丁目21番13号,1F,多目的トイレ,設備: 車椅子対応,#00cc00,139.703697,35.575325
大田区青少年交流センターゆいっつ,東京都 大田区平和島四丁目2番15号,1F,1階多目的トイレ,"設備: 車椅子対応, オストメイト対応, おむつ交換台",#00cc00,139.743053,35.583639
大田区青少年交流センターゆいっつ,東京都 大田区平和島四丁目2番15号,1F,1階多目的トイレ（シャワー室前1）,"設備: 車椅子対応, おむつ交換台",#00cc00,139.743014,35.583392
大田区青少年交流センターゆいっつ,東京都 大田区平和島四丁目2番15号,1F,1階多目的トイレ（シャワー室前2）,"設備: 車椅子対応, おむつ交換台",#00cc00,139.743074,35.583409
大田区青少年交流センターゆいっつ,東京都 大田区平和島四丁目2番15号,2F,2階多目的トイレ,"設備: 車椅子対応, おむつ交換台",#00cc00,139.743053,35.583642
大田区青少年交流センターゆいっつ,東京都 大田区平和島四丁目2番15号,3F,3階多目的トイレ1,"設備: 車椅子対応, おむつ交換台",#00cc00,139.743215,35.583471
大田区青少年交流センターゆいっつ,東京都 大田区平和島四丁目2番15号,3F,3階多目的トイレ2,設備: 車椅子対応,#00cc00,139.743188,35.583467
大森南図書館,東京都 大田区大森南一丁目17番7号,1F,バリアフリートイレ,設備: 車椅子対応,#00cc00,139.739717,35.563421
大森東図書館,東京都 大田区大森東一丁目31番3号104,1F,1階障害者トイレ,設備: おむつ交換台,#00cc00,139.738683,35.576213
大森西図書館,東京都 大田区大森西五丁目2番13号,1F,1階障害者トイレ,"設備: 車椅子対応, おむつ交換台",#00cc00,139.726004,35.571812
久が原図書館,東京都 大田区久が原二丁目28番4号,1F,バリアフリートイレ,設備: 車椅子対応,#00cc00,139.695364,35.579328
洗足池図書館 (洗足池図書館),東京都 大田区南千束二丁目2番10号,1F,1階身障者用トイレ,"設備: 車椅子対応, おむつ交換台",#00cc00,139.691921,35.600722
洗足池図書館 (洗足池図書館),東京都 大田区南千束二丁目2番10号,2F,2階身障者用トイレ,"設備: 車椅子対応, おむつ交換台",#00cc00,139.691921,35.600722
浜竹図書館,東京都 大田区西糀谷三丁目32番7号,1F,バリアフリートイレ,"設備: 車椅子対応, 大型ベッド, おむつ交換台",#00cc00,139.737448,35.553343
羽田図書館,東京都 大田区羽田一丁目11番1号,1F,1階障害者トイレ,設備: 車椅子対応,#00cc00,139.74343,35.550357
下丸子図書館,東京都 大田区下丸子二丁目18番11号,1F,1階身障者用トイレ,"設備: 車椅子対応, オストメイト対応, 大型ベッド",#00cc00,139.688114,35.565748
多摩川図書館,東京都 大田区多摩川二丁目24番63号,1F,1階バリアフリートイレ,"設備: 車椅子対応, オストメイト対応, おむつ交換台",#00cc00,139.702315,35.556151
多摩川図書館,東京都 大田区多摩川二丁目24番63号,2F,2階バリアフリートイレ,"設備: 車椅子対応, オストメイト対応, おむつ交換台",#00cc00,139.70236,35.556158
蒲田図書館,東京都 大田区東蒲田一丁目19番22号,1F,バリアフリートイレ,"設備: 車椅子対応, オストメイト対応",#00cc00,139.728418,35.563669
蒲田駅前図書館,東京都 大田区蒲田五丁目13番26号301,3F,3階身障者用トイレ,"設備: 車椅子対応, おむつ交換台",#00cc00,139.715474,35.559833
六郷図書館,東京都 大田区南六郷三丁目10番3号,1F,バリアフリートイレ,"設備: 車椅子対応, オストメイト対応, おむつ交換台",#00cc00,139.714155,35.543918
六郷図書館,東京都 大田区南六郷三丁目10番3号,2F,バリアフリートイレ,"設備: 車椅子対応, 大型ベッド",#00cc00,139.714155,35.543918
六郷図書館,東京都 大田区南六郷三丁目10番3号,3F,バリアフリートイレ,"設備: 車椅子対応, オストメイト対応, おむつ交換台",#00cc00,139.714155,35.543918
池上図書館 (エトモ池上),東京都 大田区池上六丁目３番10号,4F,バリアフリートイレ,"設備: 車椅子対応, オストメイト対応, おむつ交換台",#00cc00,139.703088,35.572131
大田文化の森,東京都 大田区中央二丁目10番1号,1F,1Fだれでもトイレ,"設備: 車椅子対応, オストメイト対応, 大型ベッド, おむつ交換台",#00cc00,139.720357,35.579038
大田文化の森,東京都 大田区中央二丁目10番1号,2F,2Fだれでもトイレ,"設備: 車椅子対応, おむつ交換台",#00cc00,139.720323,35.57919
大田文化の森,東京都 大田区中央二丁目10番1号,3F,3Fだれでもトイレ,"設備: 車椅子対応, おむつ交換台",#00cc00,139.720329,35.579227
大田文化の森,東京都 大田区中央二丁目10番1号,4F,4Fだれでもトイレ,"設備: 車椅子対応, おむつ交換台",#00cc00,139.720341,35.579255
大田文化の森,東京都 大田区中央二丁目10番1号,5F,5Fだれでもトイレ,"設備: 車椅子対応, おむつ交換台",#00cc00,139.72038,35.579155
大田文化の森,東京都 大田区中央二丁目10番1号,B1F,B1Fだれでもトイレ,"設備: 車椅子対応, おむつ交換台",#00cc00,139.720387,35.579114
大田文化の森,東京都 大田区中央二丁目10番1号,B1F,B1Fだれでもトイレ(兼女子トイレ),"令和7年６月末までホール棟工事休館中 | 設備: 車椅子対応, おむつ交換台",#00cc00,139.720398,35.579076
郷土博物館,東京都 大田区南馬込五丁目11番13号,2F,身障者用トイレ,"設備: 車椅子対応, おむつ交換台",#00cc00,139.710716,35.588506
山王草堂記念館,東京都 大田区山王一丁目41番21号,1F,会議室前だれでもトイレ,"設備: 車椅子対応, オストメイト対応, おむつ交換台",#00cc00,139.721193,35.593288
龍子記念館,東京都 大田区中央四丁目2番1号,1F,だれでもトイレ,"設備: 車椅子対応, オストメイト対応, おむつ交換台",#00cc00,139.71523,35.582386
大森 海苔のふるさと館,東京都 大田区平和の森公園2番地2号,1F,１階だれでもトイレ,"設備: 車椅子対応, オストメイト対応, おむつ交換台",#00cc00,139.742692,35.577114
尾士郎記念館,東京都 大田区山王一丁目36番26号,1F,屋外だれでもトイレ,"設備: 車椅子対応, オストメイト対応, おむつ交換台",#00cc00,139.72156,35.592475
勝海舟記念館,東京都 大田区南千束二丁目３番１号,1F,だれでもトイレ,"※大型ベッドと兼用（介助シート） | 設備: 車椅子対応, オストメイト対応, 大型ベッド",#00cc00,139.6923,35.602206
大田区民ホール・アプリコ,東京都 大田区蒲田五丁目37番3号,1F,1階共有ロビーバリアフリートイレ,"設備: 車椅子対応, オストメイト対応, 大型ベッド",#00cc00,139.717872,35.560284
大田区民ホール・アプリコ,東京都 大田区蒲田五丁目37番3号,1F,1階大ホール内バリアフリートイレ,"設備: 車椅子対応, おむつ交換台",#00cc00,139.718081,35.560243
大田区民ホール・アプリコ,東京都 大田区蒲田五丁目37番3号,B1F,B1階共有ロビーバリアフリートイレ,"設備: 車椅子対応, オストメイト対応, おむつ交換台",#00cc00,139.717988,35.560435
タワーふれあい公園前緑地,東京都 大田区多摩川二丁目24番43号,1F,だれでもトイレ,"設備: 車椅子対応, おむつ交換台",#00cc00,139.703302,35.554363
まごめばし児童公園,東京都 大田区中馬込三丁目29番7号,1F,まごめばしだれでもトイレ,"設備: 車椅子対応, おむつ交換台",#00cc00,139.71055,35.593313
鵜の木二丁目児童公園,東京都 大田区鵜の木二丁目32番20号,1F,鵜の木二丁目児童公園だれでもトイレ,設備: 車椅子対応,#00cc00,139.680102,35.573183
下丸子公園,東京都 大田区下丸子四丁目21番2号,1F,だれでもトイレ,設備: 車椅子対応,#00cc00,139.681636,35.569261
下丸子二丁目公園,東京都 大田区下丸子二丁目24番27号,1F,だれでもトイレ,設備: 車椅子対応,#00cc00,139.686954,35.563225
蒲田一丁目公園,東京都 大田区蒲田一丁目7番2号,1F,だれでもトイレ,"設備: 車椅子対応, おむつ交換台",#00cc00,139.720927,35.567215
蒲田本町二丁目公園,東京都 大田区蒲田本町二丁目30番7号,1F,だれでもトイレ,"設備: 車椅子対応, オストメイト対応, おむつ交換台",#00cc00,139.720881,35.556879
久が原公園,東京都 大田区久が原三丁目27番18号,1F,久が原公園だれでもトイレ,設備: 車椅子対応,#00cc00,139.69113,35.581858
宮ノ下にこにこ児童公園,東京都 大田区中馬込三丁目23番31号,1F,宮ノ下にこにこだれでもトイレ,"設備: 車椅子対応, オストメイト対応, おむつ交換台",#00cc00,139.708439,35.592958
京浜蒲田公園,東京都 大田区蒲田四丁目17番7号,1F,だれでもトイレ,設備: 車椅子対応,#00cc00,139.722128,35.561207
根ヶ原緑地,東京都 大田区山王三丁目15番2号,1F,根ヶ原緑地だれでもトイレ,"設備: 車椅子対応, オストメイト対応, おむつ交換台",#00cc00,139.721013,35.582185
桜並木公園,東京都 大田区南馬込四丁目11番12号,1F,桜並木だれでもトイレ,"設備: 車椅子対応, おむつ交換台",#00cc00,139.711643,35.58447
山王三丁目児童公園,東京都 大田区山王三丁目8番1号,1F,山王三丁目児童公園誰でもトイレ,"設備: 車椅子対応, おむつ交換台",#00cc00,139.723953,35.581769
若竹公園,東京都 大田区大森西一丁目8番20号,1F,若竹だれでもトイレ,"設備: 車椅子対応, オストメイト対応, おむつ交換台",#00cc00,139.726585,35.578038
小池公園,東京都 大田区上池台一丁目36番1号,1F,小池公園だれでもトイレ,"設備: 車椅子対応, オストメイト対応, おむつ交換台",#00cc00,139.69696,35.598657
昭和島二丁目公園,東京都 大田区昭和島二丁目3番1号,1F,昭和島二丁目だれでもトイレ,"設備: 車椅子対応, オストメイト対応, おむつ交換台",#00cc00,139.752105,35.574386
上池台三丁目公園,東京都 大田区上池台三丁目16番15号,1F,上池台三丁目公園だれでもトイレ,,#00cc00,139.697856,35.593027
上池台射水坂公園,東京都 大田区上池台四丁目19番4号,1F,上池台射水坂公園だれでもトイレ,"設備: 車椅子対応, オストメイト対応, おむつ交換台",#00cc00,139.702427,35.598336
新井宿児童公園,東京都 大田区中央四丁目31番10号,1F,新井宿だれでもトイレ,"設備: 車椅子対応, オストメイト対応, おむつ交換台",#00cc00,139.71864,35.579507
新井宿第一児童公園,東京都 大田区山王三丁目4番8号,1F,新井宿第一児童公園だれでもトイレ,"設備: 車椅子対応, オストメイト対応, おむつ交換台",#00cc00,139.72511,35.584445
清花公園,東京都 大田区大森北二丁目8番5号,1F,清花公園誰でもトイレ,設備: 車椅子対応,#00cc00,139.73373,35.585496
西蒲田公園,東京都 大田区西蒲田八丁目6番12号,1F,だれでもトイレ（女性用）,設備: 車椅子対応,#00cc00,139.710976,35.561436
西蒲田公園,東京都 大田区西蒲田八丁目6番12号,1F,だれでもトイレ（男性用）,設備: 車椅子対応,#00cc00,139.710976,35.561436
西六郷公園,東京都 大田区西六郷一丁目6番1号,1F,だれでもトイレ,"設備: 車椅子対応, オストメイト対応, おむつ交換台",#00cc00,139.711724,35.55334
西六郷三丁目公園,東京都 大田区西六郷三丁目16番16号,1F,だれでもトイレ,設備: 車椅子対応,#00cc00,139.705935,35.546286
西六郷二丁目児童公園,東京都 大田区西六郷二丁目30番3号,1F,だれでもトイレ,"設備: 車椅子対応, オストメイト対応, おむつ交換台",#00cc00,139.706964,35.549841
千鳥いこい公園,東京都 大田区久が原六丁目26番5号,1F,千鳥いこい公園1,"設備: 車椅子対応, オストメイト対応, おむつ交換台",#00cc00,139.694724,35.573529
千鳥いこい公園,東京都 大田区久が原六丁目26番5号,1F,千鳥いこい公園2,"設備: 車椅子対応, オストメイト対応, おむつ交換台",#00cc00,139.694441,35.573043
千鳥三丁目児童公園,東京都 大田区千鳥三丁目22番17号,1F,だれでもトイレ,設備: 車椅子対応,#00cc00,139.690545,35.570218
洗足池公園,東京都 大田区南千束二丁目14番5号,1F,休憩所横だれでもトイレ,"設備: 車椅子対応, オストメイト対応, おむつ交換台",#00cc00,139.689607,35.602757
洗足池公園,東京都 大田区南千束二丁目14番5号,1F,交番横だれでもトイレ,"設備: 車椅子対応, オストメイト対応",#00cc00,139.69162,35.600362
洗足池公園,東京都 大田区南千束二丁目14番5号,1F,史跡広場前だれでもトイレ,"設備: 車椅子対応, オストメイト対応, おむつ交換台",#00cc00,139.691614,35.602721
洗足池公園,東京都 大田区南千束二丁目14番5号,1F,子ども広場北だれでもトイレ,"設備: 車椅子対応, オストメイト対応, おむつ交換台",#00cc00,139.689229,35.603822
多摩川台公園,東京都 大田区田園調布一丁目63番1号,1F,管理事務所隣接トイレ,設備: 車椅子対応,#00cc00,139.666869,35.590115
多摩川台公園,東京都 大田区田園調布一丁目63番1号,1F,第一広場トイレ,"設備: 車椅子対応, オストメイト対応, おむつ交換台",#00cc00,139.663172,35.592987
多摩川台公園,東京都 大田区田園調布一丁目63番1号,1F,第二広場トイレ,"設備: 車椅子対応, オストメイト対応, おむつ交換台",#00cc00,139.667904,35.588077
多摩川台公園,東京都 大田区田園調布一丁目63番1号,1F,水生植物園前トイレ,"設備: 車椅子対応, オストメイト対応, おむつ交換台",#00cc00,139.667159,35.588722
多摩川台公園,東京都 大田区田園調布一丁目63番1号,1F,あじさい園前トイレ,"設備: 車椅子対応, オストメイト対応, おむつ交換台",#00cc00,139.666648,35.58995
多摩川緑地,東京都 大田区西六郷四丁目23番先,1F,多摩川緑地だれでもトイレ,設備: 車椅子対応,#00cc00,139.704774,35.540381
大森ふるさとの浜辺公園,東京都 大田区ふるさとの浜辺公園1番地1号,1F,大森ふるさとの浜辺公園だれでもトイレ1,"設備: 車椅子対応, おむつ交換台",#00cc00,139.741702,35.574152
大森ふるさとの浜辺公園,東京都 大田区ふるさとの浜辺公園1番地1号,1F,大森ふるさとの浜辺公園だれでもトイレ2,"設備: 車椅子対応, オストメイト対応, 大型ベッド, おむつ交換台",#00cc00,139.741902,35.57443
大森ふるさとの浜辺公園,東京都 大田区ふるさとの浜辺公園1番地1号,1F,大森ふるさとの浜辺公園だれでもトイレ3,"設備: 車椅子対応, おむつ交換台",#00cc00,139.743396,35.577012
大森諏訪公園,東京都 大田区大森西三丁目3番10号,1F,大森諏訪だれでもトイレ,設備: 車椅子対応,#00cc00,139.730705,35.574832
大森西一丁目児童公園,東京都 大田区大森西一丁目12番14号,1F,大森西一丁目だれでもトイレ,設備: 車椅子対応,#00cc00,139.722734,35.577085
大森西交通公園,東京都 大田区大森西三丁目4番19号,1F,大森西交通公園だれでもトイレ,"設備: 車椅子対応, おむつ交換台",#00cc00,139.73157,35.574405
大森西四丁目公園,東京都 大田区大森西四丁目10番19号,1F,大森西四丁目だれでもトイレ,"設備: 車椅子対応, オストメイト対応, おむつ交換台",#00cc00,139.72307,35.573083
大森西七丁目公園,東京都 大田区大森西七丁目9番5号,1F,大森西七丁目だれでもトイレ,設備: 車椅子対応,#00cc00,139.719732,35.569925
大森西二丁目児童公園,東京都 大田区大森西二丁目20番12号,1F,大森西二丁目誰でもトイレ,,#00cc00,139.727941,35.576125
大森仲町児童公園,東京都 大田区大森本町二丁目26番17号,1F,大森仲町児童公園だれでもトイレ,"設備: 車椅子対応, おむつ交換台",#00cc00,139.736733,35.578161
大森東一丁目第一公園,東京都 大田区大森東一丁目35番6号,1F,大森東一丁目第一だれでもトイレ,設備: 車椅子対応,#00cc00,139.73994,35.576155
大森北公園,東京都 大田区大森北二丁目18番2号,1F,大森北公園誰でもトイレ,設備: 車椅子対応,#00cc00,139.735517,35.587022
大田区立あさひ海老取川公園,東京都 大田区羽田旭町11番地1号,1F,あさひ海老取川公園だれでもトイレ,"設備: 車椅子対応, オストメイト対応, おむつ交換台",#00cc00,139.752584,35.553005
大田区立羽田西前公園,東京都 大田区羽田二丁目6番3号,1F,羽田西前公園だれでもトイレ,設備: 車椅子対応,#00cc00,139.743769,35.547603
大田区立基船堀公園,東京都 大田区大森東五丁目1番1号先,1F,だれでもトイレ,設備: 車椅子対応,#00cc00,139.740266,35.570358
大田区立旧呑川緑地,東京都 大田区大森東五丁目37番11号先,1F,旧呑川緑地　だれでもトイレ,設備: 車椅子対応,#00cc00,139.743788,35.567887
森ヶ崎海岸公園,東京都 大田区大森南四丁目4番から五丁目6番先,1F,森ヶ崎海岸公園だれでもトイレ,"設備: 車椅子対応, オストメイト対応, おむつ交換台",#00cc00,139.748995,35.567039
大田区立森ケ崎交通公園,東京都 大田区大森南四丁目9番3号,1F,だれでもトイレ,"設備: 車椅子対応, オストメイト対応, 大型ベッド, おむつ交換台",#00cc00,139.746064,35.566948
大田区立大四前くすのき公園,東京都 大田区大森南三丁目24番16号,1F,大四前くすのき公園　だれでもトイレ,設備: 車椅子対応,#00cc00,139.742723,35.564486
大田区立大森南一丁目公園,東京都 大田区大森南一丁目24番6号先,1F,大森南一丁目公園だれでもトイレ,設備: 車椅子対応,#00cc00,139.738167,35.561307
大森南第一公園,東京都 大田区大森南一丁目12番16号,1F,大森南第一公園だれでもトイレ,"設備: 車椅子対応, オストメイト対応, おむつ交換台",#00cc00,139.73976,35.563773
萩中一丁目公園,東京都 大田区萩中一丁目3番19号,1F,萩中一丁目公園だれでもトイレ,"設備: 車椅子対応, オストメイト対応, おむつ交換台",#00cc00,139.725799,35.552156
萩中公園,東京都 大田区萩中三丁目25番26号,1F,萩中公園交通公園だれでもトイレ,"設備: 車椅子対応, オストメイト対応",#00cc00,139.738978,35.549403
萩中公園,東京都 大田区萩中三丁目26番46号,1F,萩中公園少年野球場だれでもトイレ,"設備: 車椅子対応, オストメイト対応, おむつ交換台",#00cc00,139.736123,35.551073
萩中三丁目児童公園,東京都 大田区萩中三丁目30番20号,1F,萩中三丁目児童公園だれでもトイレ,"設備: 車椅子対応, オストメイト対応",#00cc00,139.733599,35.549616
大田区立萩中児童遊園,東京都 大田区萩中一丁目5番18号,1F,萩中児童遊園だれでもトイレ,"設備: 車椅子対応, オストメイト対応, おむつ交換台",#00cc00,139.72788,35.55199
大田区立舞の浦児童公園,東京都 大田区大森南二丁目14番8号,1F,舞の浦児童公園だれでもトイレ,設備: 車椅子対応,#00cc00,139.741224,35.56216
大田区立北糀谷中央公園,東京都 大田区北糀谷一丁目15番3号,1F,北糀谷中央公園されでもトイレ,設備: 車椅子対応,#00cc00,139.735023,35.562566
池上五丁目公園,東京都 大田区池上五丁目15番18号,1F,池上五丁目だれでもトイレ,"設備: 車椅子対応, オストメイト対応, おむつ交換台",#00cc00,139.70614,35.571102
池上梅園,東京都 大田区池上二丁目2番13号,1F,池上梅園だれでもトイレ,"設備: 車椅子対応, おむつ交換台",#00cc00,139.702635,35.581076
池上梅園,東京都 大田区池上二丁目2番13号,1F,池上梅園管理棟内だれでもトイレ,"設備: 車椅子対応, オストメイト対応, 大型ベッド",#00cc00,139.702702,35.581633
仲蒲田公園,東京都 大田区蒲田四丁目35番1号,1F,だれでもトイレ,"設備: 車椅子対応, オストメイト対応, おむつ交換台",#00cc00,139.720827,35.559527
仲六郷三丁目第二公園,東京都 大田区仲六郷三丁目19番1号,1F,だれでもトイレ,"設備: 車椅子対応, オストメイト対応, おむつ交換台",#00cc00,139.710271,35.547102
鶴渡公園,東京都 大田区大森西六丁目12番1号,1F,鶴渡だれでもトイレ,設備: 車椅子対応,#00cc00,139.724805,35.56897
田園調布せせらぎ館,東京都 大田区田園調布一丁目53番12号,1F,だれでもトイレ,"設備: 車椅子対応, オストメイト対応, おむつ交換台",#00cc00,139.6692,35.589695
田園調布せせらぎ公園,東京都 大田区田園調布一丁目53番12号,1F,田園調布せせらぎ公園だれでもトイレ　上段,11月〜1月　月曜日〜日曜日、祝日　0700_1630 | 設備: 車椅子対応,#00cc00,139.669778,35.590002
田園調布せせらぎ公園,東京都 大田区田園調布一丁目53番12号,1F,田園調布せせらぎ公園だれでもトイレ　下段,11月〜1月　月曜日〜日曜日、祝日　0700_1630 | 設備: 車椅子対応,#00cc00,139.669005,35.590351
都堀公園,東京都 大田区大森本町二丁目23番1号,1F,都堀だれでもトイレ,"設備: 車椅子対応, オストメイト対応, おむつ交換台",#00cc00,139.738522,35.577182
東蒲田公園,東京都 大田区東蒲田一丁目11番17号,1F,だれでもトイレ,"設備: 車椅子対応, オストメイト対応, おむつ交換台",#00cc00,139.728349,35.564465
東蒲田二丁目公園,東京都 大田区東蒲田二丁目32番1号,1F,だれでもトイレ,"設備: 車椅子対応, オストメイト対応, おむつ交換台",#00cc00,139.726169,35.561126
東中公園,東京都 大田区東雪谷四丁目3番23号,1F,東中公園だれでもトイレ,"設備: 車椅子対応, オストメイト対応, おむつ交換台",#00cc00,139.691655,35.594818
東調布公園,東京都 大田区南雪谷五丁目13番1号,1F,東調布公園だれでもトイレ(共用),"設備: 車椅子対応, おむつ交換台",#00cc00,139.689123,35.589556
東調布公園,東京都 大田区南雪谷五丁目13番1号,1F,東調布公園だれでもトイレ（女性用）,設備: 車椅子対応,#00cc00,139.689123,35.589556
東糀谷一丁目公園だれでもトイレ,東京都 大田区東糀谷一丁目4番10号,1F,東糀谷一丁目公園だれでもトイレ,"設備: 車椅子対応, オストメイト対応",#00cc00,139.740479,35.560265
東糀谷防災公園だれでもトイレ,東京都 大田区東糀谷四丁目5番1号,1F,東糀谷防災公園管理棟だれでもトイレ,"設備: 車椅子対応, オストメイト対応, おむつ交換台",#00cc00,139.745196,35.55666
東糀谷防災公園だれでもトイレ,東京都 大田区東糀谷四丁目5番1号,1F,東糀谷防災公園西側トイレ,"設備: 車椅子対応, オストメイト対応, おむつ交換台",#00cc00,139.745081,35.55596
東糀谷防災公園だれでもトイレ,東京都 大田区東糀谷四丁目5番1号,1F,東糀谷防災公園北側だれでもトイレ,"設備: 車椅子対応, オストメイト対応, おむつ交換台",#00cc00,139.745991,35.557061
徳持公園,東京都 大田区池上八丁目20番10号,1F,徳持だれでもトイレ,設備: 車椅子対応,#00cc00,139.696871,35.568056
南蒲公園,東京都 大田区西糀谷一丁目12番20号,1F,だれでもトイレ,"設備: 車椅子対応, オストメイト対応, おむつ交換台",#00cc00,139.727843,35.55841
南蒲田二丁目児童公園,東京都 大田区南蒲田二丁目26番19号,1F,だれでもトイレ,"設備: 車椅子対応, オストメイト対応, おむつ交換台",#00cc00,139.722136,35.554694
南三堤公園,東京都 大田区南六郷三丁目23番17号,1F,だれでもトイレ,設備: 車椅子対応,#00cc00,139.715694,35.54189
南前堀緑地だれでもトイレ,東京都 大田区東糀谷三丁目9番1号先,1F,南前堀緑地西側だれでもトイレ,設備: 車椅子対応,#00cc00,139.743487,35.553931
南前堀緑地だれでもトイレ,東京都 大田区東糀谷三丁目9番1号先,1F,南前堀緑地東側だれでもトイレ,設備: 車椅子対応,#00cc00,139.745776,35.554051
南六郷公園,東京都 大田区南六郷二丁目35番4号,1F,だれでもトイレ,設備: 車椅子対応,#00cc00,139.721973,35.545034
入新井公園,東京都 大田区大森北一丁目20番1号,1F,入新井公園誰でもトイレ,設備: 車椅子対応,#00cc00,139.730661,35.586346
入新井西公園,東京都 大田区大森北四丁目27番3号,1F,入新井西公園だれでもトイレ,設備: 車椅子対応,#00cc00,139.725993,35.585189
馬込西公園,東京都 大田区西馬込二丁目8番15号,1F,馬込西だれでもトイレ,"設備: 車椅子対応, オストメイト対応, おむつ交換台",#00cc00,139.703233,35.58863
美原児童公園,東京都 大田区大森東一丁目13番8号,1F,美原だれでもトイレ,設備: 車椅子対応,#00cc00,139.737712,35.576184
平和の森公園,東京都 大田区平和の森公園2番地1号,1F,平和の森公園だれでもトイレ01,"設備: 車椅子対応, オストメイト対応, おむつ交換台",#00cc00,139.739462,35.582743
平和の森公園,東京都 大田区平和の森公園2番地1号,1F,平和の森公園だれでもトイレ02,"設備: 車椅子対応, オストメイト対応, おむつ交換台",#00cc00,139.738641,35.581535
平和の森公園,東京都 大田区平和の森公園2番地1号,1F,平和の森公園だれでもトイレ03,"設備: 車椅子対応, オストメイト対応, おむつ交換台",#00cc00,139.73957,35.581277
平和の森公園,東京都 大田区平和の森公園2番地1号,1F,平和の森公園だれでもトイレ04,"設備: 車椅子対応, オストメイト対応, おむつ交換台",#00cc00,139.74062,35.580002
平和の森公園,東京都 大田区平和の森公園2番地1号,1F,平和の森公園だれでもトイレ05,"設備: 車椅子対応, おむつ交換台",#00cc00,139.740512,35.578649
平和の森公園,東京都 大田区平和の森公園2番地1号,1F,平和の森公園だれでもトイレ06,"設備: 車椅子対応, オストメイト対応, おむつ交換台",#00cc00,139.742302,35.577578
平和島公園,東京都 大田区平和島四丁目2番2号,1F,平和島だれでもトイレ,"設備: 車椅子対応, オストメイト対応, おむつ交換台",#00cc00,139.743133,35.582486
宝来公園,東京都 大田区田園調布三丁目31番1号,1F,宝来公園だれでもトイレ,設備: 車椅子対応,#00cc00,139.664152,35.593915
邦西児童公園,東京都 大田区大森西四丁目18番8号,1F,邦西だれでもトイレ,"設備: 車椅子対応, オストメイト対応, 大型ベッド, おむつ交換台",#00cc00,139.721946,35.571962
北前堀緑地だれでもトイレ,東京都 大田区東糀谷五丁目14番1号先,1F,北前堀緑地だれでもトイレ,"設備: 車椅子対応, オストメイト対応, おむつ交換台",#00cc00,139.742691,35.559084
北馬込わくわく公園,東京都 大田区北馬込一丁目7番9号,1F,北馬込わくわくだれでもトイレ,設備: 車椅子対応,#00cc00,139.703246,35.600804
本蒲田公園,東京都 大田区蒲田五丁目35番1号,1F,だれでもトイレ,"設備: 車椅子対応, おむつ交換台",#00cc00,139.717772,35.559608
本門寺公園,東京都 大田区池上一丁目11番1号,1F,本門寺グランド側だれでもトイレ,"設備: 車椅子対応, オストメイト対応, おむつ交換台",#00cc00,139.708063,35.57973
本門寺公園,東京都 大田区池上一丁目11番1号,1F,本門寺だれでもトイレ,"設備: 車椅子対応, オストメイト対応, おむつ交換台",#00cc00,139.707689,35.579209
矢口二丁目公園,東京都 大田区矢口二丁目21番30号,1F,だれでもトイレ,設備: 車椅子対応,#00cc00,139.689781,35.561154
佐伯山緑地,東京都 大田区中央五丁目30番15号,1F,佐伯山緑地だれでもトイレ,"12/29‾1/3休み | 設備: 車椅子対応, オストメイト対応, おむつ交換台",#00cc00,139.714371,35.581606
水神公園,東京都 大田区南雪谷五丁目10番14号,1F,水神公園だれでもトイレ,"※ただし12月29日から1月3日までは、休園とする | 設備: 車椅子対応, オストメイト対応",#00cc00,139.686864,35.588208
みなさん児童公園,東京都 大田区南六郷三丁目10番12号,1F,だれでもトイレ,"設備: 車椅子対応, オストメイト対応, おむつ交換台",#00cc00,139.714239,35.543615
高畑第三児童公園,東京都 大田区西六郷三丁目30番8号,1F,だれでもトイレ,"設備: 車椅子対応, オストメイト対応, おむつ交換台",#00cc00,139.705072,35.545403
ソラムナード羽田緑地,東京都 大田区羽田空港二丁目8番1号,1F,ソラムナード羽田緑地だれでもトイレその１,"※２４時間利用可能 | 設備: 車椅子対応, オストメイト対応, おむつ交換台",#00cc00,139.758936,35.545591
ソラムナード羽田緑地,東京都 大田区羽田空港二丁目8番1号,1F,ソラムナード羽田緑地だれでもトイレその２,"設備: 車椅子対応, オストメイト対応, おむつ交換台",#00cc00,139.769699,35.541139
潮見児童公園,東京都 大田区大森南四丁目4番9号,1F,潮見児童公園だれでもトイレ,"※２４時間利用可能 | 設備: 車椅子対応, オストメイト対応, おむつ交換台",#00cc00,139.746819,35.568702
森ケ崎公園,東京都 大田区大森南五丁目2番111号,1F,森ケ崎公園,設備: 車椅子対応,#00cc00,139.750004,35.562993
仲六郷二丁目公園,東京都 大田区仲六郷二丁目４番７号,1F,だれでもトイレ,"設備: 車椅子対応, オストメイト対応, おむつ交換台",#00cc00,139.712969,35.5525
はばたき児童公園,東京都 大田区本羽田二丁目9番6号,1F,だれでもトイレ,"設備: 車椅子対応, オストメイト対応, おむつ交換台",#00cc00,139.731862,35.547457
大鳥居児童公園,東京都 大田区羽田一丁目17番7号,1F,だれでもトイレ,"設備: 車椅子対応, オストメイト対応, おむつ交換台",#00cc00,139.741524,35.549553
あじさい児童公園,東京都 大田区西糀谷四丁目24番21号,1F,だれでもトイレ,"設備: 車椅子対応, オストメイト対応, おむつ交換台",#00cc00,139.732381,35.553647
森ケ崎緑華園,東京都 大田区大森南四丁目3番16号,1F,森ケ崎緑華園だれでもトイレ,"設備: 車椅子対応, オストメイト対応, おむつ交換台",#00cc00,139.745438,35.567823
森ケ崎緑華園,東京都 大田区大森南四丁目3番16号,1F,森ケ崎緑華園だれでもトイレ,産業振興課から移管 | 設備: 車椅子対応,#00cc00,139.745569,35.567935
六間堀仲羽公園,東京都 大田区羽田四丁目18番12号,1F,多目的トイレ,"設備: 車椅子対応, オストメイト対応, おむつ交換台",#00cc00,139.74484,35.549013
蒲田本町一丁目公園,東京都 大田区蒲田本町一丁目1番5号,1F,だれでもトイレ,"設備: 車椅子対応, オストメイト対応, おむつ交換台",#00cc00,139.715815,35.558286
東糀谷第一公園,東京都 大田区東糀谷六丁目8番30号,1F,だれでもトイレ,"設備: 車椅子対応, オストメイト対応, おむつ交換台",#00cc00,139.747962,35.556008
トイレさくら亭,東京都 大田区下丸子四丁目27番1号,1F,トイレさくら亭,設備: 車椅子対応,#00cc00,139.67596,35.573477
蒲田駅西口公衆便所,東京都 大田区西蒲田八丁目2番7号,1F,蒲田駅西口公衆便所,設備: 車椅子対応,#00cc00,139.715133,35.561059
蒲田交差公衆便所,東京都 大田区蒲田五丁目12番14号,1F,蒲田交差公衆便所（女性用）,設備: 車椅子対応,#00cc00,139.716912,35.563805
蒲田交差公衆便所,東京都 大田区蒲田五丁目12番14号,1F,蒲田交差公衆便所（男性用）,設備: 車椅子対応,#00cc00,139.716902,35.563772
蒲田西口駅前公衆便所せせらぎ,東京都 大田区西蒲田七丁目68番1号,1F,蒲田西口駅前公衆便所せせらぎ,設備: 車椅子対応,#00cc00,139.715966,35.562838
京急蒲田駅東口トイレ,東京都 大田区南蒲田一丁目20番32号,1F,京急蒲田駅東口トイレ,"設備: 車椅子対応, オストメイト対応, おむつ交換台",#00cc00,139.72398,35.55986
松原橋公衆便所,東京都 大田区東馬込一丁目32番8号,1F,松原橋公衆便所,「だれでも」表示をマスキング | 設備: 車椅子対応,#00cc00,139.712017,35.595561
多摩川駅前公衆便所,東京都 大田区田園調布一丁目55番1号,1F,多摩川駅前公衆便所,設備: 車椅子対応,#00cc00,139.668802,35.588268
多摩川野球場前公衆便所,東京都 大田区田園調布四丁目44番11号,1F,多摩川野球場前公衆便所,"設備: 車椅子対応, オストメイト対応, おむつ交換台",#00cc00,139.661277,35.591889
大岡山駅前公衆便所,東京都 大田区北千束三丁目27番,1F,大岡山駅前公衆便所,"設備: 車椅子対応, オストメイト対応, おむつ交換台",#00cc00,139.685247,35.607587
大森駅山王口公衆便所,東京都 大田区山王二丁目2番9号,1F,大森駅山王口公衆便所,設備: 車椅子対応,#00cc00,139.72744,35.588246
大森駅前広場公衆便所,東京都 大田区大森北一丁目2番3号,1F,大森駅前広場公衆便所,「だれでも」表示をマスキング | 設備: 車椅子対応,#00cc00,139.729315,35.588079
大森東三丁目児童公園,東京都 大田区大森東三丁目5番16号,1F,大森東三丁目だれでもトイレ,設備: 車椅子対応,#00cc00,139.73599,35.570275
田園調布駅前公衆便所,東京都 大田区田園調布二丁目26番20号,1F,田園調布駅前公衆便所（女性用）,設備: 車椅子対応,#00cc00,139.667173,35.597321
田園調布駅前公衆便所,東京都 大田区田園調布二丁目26番20号,1F,田園調布駅前公衆便所（男性用）,設備: 車椅子対応,#00cc00,139.667173,35.597321
平和島入口公衆便所,東京都 大田区大森本町一丁目9番6号,1F,平和島入口公衆便所,「だれでも」表示をマスキング | 設備: 車椅子対応,#00cc00,139.737046,35.582874
21世紀おもいで桜トイレ,東京都 大田区下丸子三丁目30番先,1F,だれでもトイレ,"設備: 車椅子対応, オストメイト対応, おむつ交換台",#00cc00,139.681027,35.56496
池上駅公衆便所,東京都 大田区池上六丁目３番10号,1F,池上駅公衆便所,"設備: 車椅子対応, オストメイト対応, おむつ交換台",#00cc00,139.703333,35.572176
仲池上広場公衆便所,東京都 大田区仲池上二丁目24番3号,1F,仲池上広場公衆便所,"設備: 車椅子対応, オストメイト対応, おむつ交換台",#00cc00,139.6980285,35.5850716
大田区羽田地域力推進センター,東京都 大田区羽田一丁目18番13号,1F,羽田地域力推進センター１階だれでもトイレ,"設備: 車椅子対応, オストメイト対応, 大型ベッド",#00cc00,139.742423,35.549257
大田区羽田地域力推進センター,東京都 大田区羽田一丁目18番13号,3F,羽田地域力推進センター３階だれでもトイレ,"設備: 車椅子対応, オストメイト対応, 大型ベッド",#00cc00,139.742423,35.549257
大田区羽田地域力推進センター,東京都 大田区羽田一丁目18番13号,4F,羽田地域力推進センター４階だれでもトイレ,"設備: 車椅子対応, オストメイト対応, 大型ベッド",#00cc00,139.742423,35.549257
平和島公園水泳場,東京都 大田区平和島四丁目2番2号,1F,1階屋内バリアフリートイレ（夏季男子更衣室内）,毎年期間の見直しがある | 設備: 車椅子対応,#00cc00,139.741805,35.581566
平和島公園水泳場,東京都 大田区平和島四丁目2番2号,1F,1階屋内バリアフリートイレ,毎年期間の見直しがある | 設備: 車椅子対応,#00cc00,139.74206,35.581786
東調布公園水泳場,東京都 大田区南雪谷五丁目13番1号,1F,１階屋内バリアフリートイレ,"毎年期間の見直しがある | 設備: 車椅子対応, 大型ベッド",#00cc00,139.688964,35.588194
萩中公園水泳場,東京都 大田区萩中三丁目26番46号,1F,1階屋外50mプール側バリアフリートイレ,毎年期間の見直しがある | 設備: 車椅子対応,#00cc00,139.736321,35.549466
萩中公園水泳場,東京都 大田区萩中三丁目26番46号,1F,1階屋外渚プール側バリアフリートイレ,毎年期間の見直しがある | 設備: 車椅子対応,#00cc00,139.737334,35.549856
萩中公園水泳場,東京都 大田区萩中三丁目26番46号,1F,1階屋内バリアフリートイレ,毎年期間の見直しがある | 設備: 車椅子対応,#00cc00,139.736452,35.550052
大森スポーツセンター,東京都 大田区大森本町二丁目2番5号,1F,１階東側車椅子使用者対応トイレ,"設備: 車椅子対応, おむつ交換台",#00cc00,139.737375,35.580906
大森スポーツセンター,東京都 大田区大森本町二丁目2番5号,B2F,地下２階北側車椅子使用者対応トイレ,"設備: 車椅子対応, おむつ交換台",#00cc00,139.737375,35.580906
大森スポーツセンター,東京都 大田区大森本町二丁目2番5号,B2F,地下２階北側車椅子使用者対応トイレ,"設備: 車椅子対応, おむつ交換台",#00cc00,139.73737,35.580894
大田区総合体育館,東京都 大田区東蒲田一丁目11番1号,1F,1Fメインアリーナ公園側,"設備: 車椅子対応, オストメイト対応, おむつ交換台",#00cc00,139.728119,35.564081
大田区総合体育館,東京都 大田区東蒲田一丁目11番1号,1F,1Fメインアリーナ国道側,"設備: 車椅子対応, オストメイト対応, おむつ交換台",#00cc00,139.727514,35.564157
大田区総合体育館,東京都 大田区東蒲田一丁目11番1号,2F,2F弓道場,"設備: 車椅子対応, オストメイト対応, おむつ交換台",#00cc00,139.727817,35.564696
大田区総合体育館,東京都 大田区東蒲田一丁目11番1号,B1F,B1ホールA,"設備: 車椅子対応, オストメイト対応, おむつ交換台",#00cc00,139.728134,35.564597
大田区総合体育館,東京都 大田区東蒲田一丁目11番1号,B1F,B1ホールB,"設備: 車椅子対応, オストメイト対応, おむつ交換台",#00cc00,139.728079,35.564611
大田区総合体育館,東京都 大田区東蒲田一丁目11番1号,B1F,B1会議室前,"設備: 車椅子対応, オストメイト対応, おむつ交換台",#00cc00,139.727598,35.564478
子ども家庭支援センター大森,東京都 大田区大森北四丁目16番5号,1F,1階だれでもトイレ,"設備: 車椅子対応, オストメイト対応, おむつ交換台",#00cc00,139.727123,35.583336
子ども家庭支援センター大森,東京都 大田区大森北四丁目16番5号,2F,2階だれでもトイレ,"設備: 車椅子対応, おむつ交換台",#00cc00,139.727123,35.583336
子ども家庭支援センター大森,東京都 大田区大森北四丁目16番5号,3F,3階だれでもトイレ,"3階だれでもトイレは会議室利用者のみ使用可能。平日の開館時間中は、1階または2階のだれでもトイレを使用する | 設備: 車椅子対応, おむつ交換台",#00cc00,139.727123,35.583336
子ども家庭支援センター洗足池分室,東京都 大田区上池台二丁目35番18号,1F,車いす使用者対応トイレ（女子トイレ内）,"設備: 車椅子対応, おむつ交換台",#00cc00,139.691726,35.597933
子ども家庭支援センター洗足池分室,東京都 大田区上池台二丁目35番18号,1F,車いす使用者対応トイレ（男子トイレ内）,"設備: 車椅子対応, おむつ交換台",#00cc00,139.691736,35.597971
大田スタジアム,東京都 大田区東海一丁目2番10号,1F,優先トイレ,"設備: 車椅子対応, オストメイト対応, おむつ交換台",#00cc00,139.752758,35.588203
大田スタジアム,東京都 大田区東海一丁目2番10号,2F,優先トイレ,"設備: 車椅子対応, 大型ベッド",#00cc00,139.752866,35.587935
大田スタジアム,東京都 大田区東海一丁目2番10号,2F,優先トイレ,"設備: 車椅子対応, 大型ベッド",#00cc00,139.753425,35.588562
新蒲田一丁目複合施設,東京都 大田区新蒲田一丁目18番16号,B2F,地下2階車いす使用者用便房,"（新蒲田区民活動施設） | 設備: 車椅子対応, オストメイト対応, おむつ交換台",#00cc00,139.711292,35.557401
新蒲田一丁目複合施設,東京都 大田区新蒲田一丁目18番16号,3F,３階車いす使用者用便房,"（地域包括） | 設備: 車椅子対応, オストメイト対応, 大型ベッド, おむつ交換台",#00cc00,139.711292,35.557401
大森北四丁目複合施設,東京都 大田区大森北四丁目6番７号,B2F,バリアフリートイレ,"設備: 車椅子対応, オストメイト対応, おむつ交換台",#00cc00,139.7276598,35.58447833
大森北四丁目複合施設,東京都 大田区大森北四丁目6番７号,1F,バリアフリートイレ,"設備: 車椅子対応, オストメイト対応, おむつ交換台",#00cc00,139.7276598,35.58447833
大森北四丁目複合施設,東京都 大田区大森北四丁目6番７号,2F,バリアフリートイレ,"設備: 車椅子対応, オストメイト対応, 大型ベッド, おむつ交換台",#00cc00,139.7276598,35.58447833
大森北四丁目複合施設,東京都 大田区大森北四丁目6番７号,5F,バリアフリートイレ,"設備: 車椅子対応, オストメイト対応, 大型ベッド, おむつ交換台",#00cc00,139.7276598,35.58447833
地域包括支援センター南馬込,東京都 大田区南馬込三丁目13番12号,1F,男子便所,"設備: 車椅子対応, オストメイト対応",#00cc00,139.7193739,35.58633736
地域包括支援センター南馬込,東京都 大田区南馬込三丁目13番12号,1F,女子便所,"設備: 車椅子対応, オストメイト対応",#00cc00,139.7193739,35.58633736
昭和島運動場,東京都 大田区昭和島１丁目7番1号,1F,昭和島運動場トイレ,"設備: 車椅子対応, オストメイト対応, おむつ交換台",#00cc00,139.7479435,35.56979979