name,address,floor,toilet_name,note,color,lng,lat
渋谷合同庁舎,東京都 渋谷区千駄ヶ谷四丁目3番15号,7F,車椅子使用者対応トイレ,"設備: 車椅子対応, オストメイト対応, おむつ交換台",#00cc00,139.704326,35.679382
渋谷合同庁舎,東京都 渋谷区千駄ヶ谷四丁目3番15号,2F,車椅子使用者対応トイレ,"設備: 車椅子対応, オストメイト対応, おむつ交換台",#00cc00,139.704326,35.679382
東京ウィメンズプラザ,東京都 渋谷区神宮前五丁目53番67号,1F,１階トイレ,"設備: 車椅子対応, おむつ交換台",#00cc00,139.708327,35.66323
東京ウィメンズプラザ,東京都 渋谷区神宮前五丁目53番67号,2F,２階トイレ,"設備: 車椅子対応, おむつ交換台",#00cc00,139.708094,35.663357
東京ウィメンズプラザ,東京都 渋谷区神宮前五丁目53番67号,B1F,地下１階トイレ,"設備: 車椅子対応, おむつ交換台",#00cc00,139.708446,35.663148
東京体育館 (東京体育館),東京都 渋谷区千駄ヶ谷1丁目17番1号,B1F,車いす対応トイレ（B1北東）,"メインアリーナご利用者用 | 設備: 車椅子対応, 大型ベッド, おむつ交換台",#00cc00,139.712824,35.679959
東京体育館 (東京体育館),東京都 渋谷区千駄ヶ谷1丁目17番1号,B1F,車いす対応トイレ（B1南東）,"メインアリーナご利用者用 | 設備: 車椅子対応, 大型ベッド, おむつ交換台",#00cc00,139.712417,35.679385
東京体育館 (東京体育館),東京都 渋谷区千駄ヶ谷1丁目17番1号,B1F,車いす対応トイレ（B1南西）,"メインアリーナご利用者用 | 設備: 車椅子対応, 大型ベッド, おむつ交換台",#00cc00,139.712117,35.679596
東京体育館 (東京体育館),東京都 渋谷区千駄ヶ谷1丁目17番1号,B1F,車いす対応トイレ（B1北西）,"メインアリーナご利用者用 | 設備: 車椅子対応, 大型ベッド, おむつ交換台",#00cc00,139.712514,35.680115
東京体育館 (東京体育館),東京都 渋谷区千駄ヶ谷1丁目17番1号,1F,車いす対応トイレ（１F北選手更衣室前）,"メインアリーナご利用者用 | 設備: 車椅子対応, 大型ベッド, おむつ交換台",#00cc00,139.712824,35.679959
東京体育館 (東京体育館),東京都 渋谷区千駄ヶ谷1丁目17番1号,1F,車いす対応トイレ（１F南休憩スペース）,"メインアリーナご利用者用 | 設備: 車椅子対応, 大型ベッド, おむつ交換台",#00cc00,139.711931,35.679713
東京体育館 (東京体育館),東京都 渋谷区千駄ヶ谷1丁目17番1号,1F,車いす対応トイレ（１F北休憩スペース）,"メインアリーナご利用者用 | 設備: 車椅子対応, 大型ベッド, おむつ交換台",#00cc00,139.712317,35.68021
東京体育館 (東京体育館),東京都 渋谷区千駄ヶ谷1丁目17番1号,2F,車いす対応トイレ（２F北東）,"メインアリーナご利用者用 | 設備: 車椅子対応, オストメイト対応",#00cc00,139.713023,35.679962
東京体育館 (東京体育館),東京都 渋谷区千駄ヶ谷1丁目17番1号,2F,車いす対応トイレ（２F南東）,"メインアリーナご利用者用 | 設備: 車椅子対応, 大型ベッド, おむつ交換台",#00cc00,139.712532,35.679304
東京体育館 (東京体育館),東京都 渋谷区千駄ヶ谷1丁目17番1号,2F,車いす対応トイレ（２F南西）,"メインアリーナご利用者用 | 設備: 車椅子対応, 大型ベッド, おむつ交換台",#00cc00,139.711976,35.679591
東京体育館 (東京体育館),東京都 渋谷区千駄ヶ谷1丁目17番1号,2F,車いす対応トイレ（２F北西）,"メインアリーナご利用者用 | 設備: 車椅子対応, 大型ベッド, おむつ交換台",#00cc00,139.71247,35.680228
東京体育館 (東京体育館),東京都 渋谷区千駄ヶ谷1丁目17番1号,B2F,車いす対応トイレ（B2Fサブアリーナ前）,"サブアリーナご利用者用 | 設備: 車椅子対応, 大型ベッド, おむつ交換台",#00cc00,139.712714,35.679213
東京体育館 (東京体育館),東京都 渋谷区千駄ヶ谷1丁目17番1号,1F,車いす対応トイレ（１F会議室前）,"会議室〔陸上競技場含む〕ご利用者用 | 設備: 車椅子対応, 大型ベッド, おむつ交換台",#00cc00,139.712315,35.678997
東京体育館 (東京体育館),東京都 渋谷区千駄ヶ谷1丁目17番1号,1F,車いす対応トイレ（１Fメインエントランス）,"ご来館者用〔休館日を除く〕 | 設備: 車椅子対応, 大型ベッド, おむつ交換台",#00cc00,139.7118,35.679578
東京体育館 (東京体育館),東京都 渋谷区千駄ヶ谷1丁目17番1号,B1F,車いす対応トイレ（B1F25mプール）,プールご利用者用 | 設備: 車椅子対応,#00cc00,139.711802,35.679112
東京体育館 (東京体育館),東京都 渋谷区千駄ヶ谷1丁目17番1号,1F,車いす対応トイレ（１Fエレベーターホール前）,"プール、トレーニングルーム等ご利用者用 | 設備: 車椅子対応, オストメイト対応",#00cc00,139.711644,35.679206
東京体育館 (東京体育館),東京都 渋谷区千駄ヶ谷1丁目17番1号,1F,車いす対応トイレ（１Fエレベーターホール前）,"プール、トレーニングルーム等ご利用者用 | 設備: 車椅子対応, 大型ベッド, おむつ交換台",#00cc00,139.711644,35.679206
東京体育館 (東京体育館),東京都 渋谷区千駄ヶ谷1丁目17番1号,1F,車いす対応トイレ（１F50mプール左）,プールご利用者用 | 設備: 車椅子対応,#00cc00,139.711601,35.679082
東京体育館 (東京体育館),東京都 渋谷区千駄ヶ谷1丁目17番1号,1F,車いす対応トイレ（１F50mプール右）,プールご利用者用 | 設備: 車椅子対応,#00cc00,139.711601,35.679082
東京体育館 (東京体育館),東京都 渋谷区千駄ヶ谷1丁目17番1号,2F,車いす対応トイレ（２Fプール観客席）,プールご利用者用 | 設備: 車椅子対応,#00cc00,139.711662,35.679086
代々木公園,東京都 渋谷区代々木神園町2番地1号,1F,１０号多目的トイレ,"設備: 車椅子対応, オストメイト対応, おむつ交換台",#00cc00,139.693158,35.670022
代々木公園,東京都 渋谷区代々木神園町2番地1号,1F,１号多目的トイレ,"設備: 車椅子対応, オストメイト対応, おむつ交換台",#00cc00,139.692974,35.671229
代々木公園,東京都 渋谷区代々木神園町2番地1号,1F,2号多目的トイレ,"設備: 車椅子対応, オストメイト対応, おむつ交換台",#00cc00,139.691715,35.672381
代々木公園,東京都 渋谷区代々木神園町2番地1号,1F,3号多目的トイレ,"設備: 車椅子対応, オストメイト対応, おむつ交換台",#00cc00,139.693814,35.672915
代々木公園,東京都 渋谷区代々木神園町2番地1号,1F,５号多目的トイレ,"設備: 車椅子対応, オストメイト対応, おむつ交換台",#00cc00,139.696483,35.671731
代々木公園,東京都 渋谷区代々木神園町2番地1号,1F,６号多目的トイレ,"設備: 車椅子対応, オストメイト対応, おむつ交換台",#00cc00,139.698151,35.670498
代々木公園,東京都 渋谷区代々木神園町2番地1号,1F,７号多目的トイレ,"設備: 車椅子対応, オストメイト対応, おむつ交換台",#00cc00,139.700097,35.668967
代々木公園,東京都 渋谷区代々木神園町2番地1号,1F,８号多目的トイレ,"設備: 車椅子対応, オストメイト対応, おむつ交換台",#00cc00,139.695395,35.669148
代々木公園,東京都 渋谷区代々木神園町2番地1号,1F,サービスセンター多目的トイレ,"設備: 車椅子対応, オストメイト対応, おむつ交換台",#00cc00,139.691743,35.671779
代々木公園,東京都 渋谷区神南二丁目3番1号,1F,バスケットコート北側トイレ(女子）11号多目的トイレ,"設備: 車椅子対応, オストメイト対応, おむつ交換台",#00cc00,139.694879,35.667765
代々木公園,東京都 渋谷区神南二丁目3番1号,1F,バスケットコート北側トイレ(男子）11号多目的トイレ,"設備: 車椅子対応, オストメイト対応, おむつ交換台",#00cc00,139.694924,35.66781
代々木公園,東京都 渋谷区神南二丁目3番1号,1F,野外ステージ多目的トイレ,施設利用者のみ、年末年始休み | 設備: 車椅子対応,#00cc00,139.69671,35.667227
代々木公園,東京都 渋谷区神南二丁目3番1号,1F,陸上競技場横13号多目的トイレ,施設利用者のみ、整備日・年末年始休み | 設備: 車椅子対応,#00cc00,139.694916,35.666512
代々木公園,東京都 渋谷区神南二丁目3番1号,1F,１2号多目的トイレ,"設備: 車椅子対応, オストメイト対応, おむつ交換台",#00cc00,139.69684,35.667001
代々木公園,東京都 渋谷区神南二丁目3番１号,1F,陸上競技場フィールドハウス多目的トイレ,"施設利用者のみ、整備日・年末年始休み | 設備: 車椅子対応, オストメイト対応",#00cc00,139.694855,35.666314
代々木公園,東京都 渋谷区神南二丁目3番１号,1F,陸上競技場フィールドハウス多目的トイレ,"施設利用者のみ、整備日・年末年始休み | 設備: 車椅子対応, オストメイト対応",#00cc00,139.694855,35.666314
都営大江戸線代々木駅,東京都 渋谷区代々木一丁目35番5号,B1F,だれでもトイレ,"設備: 車椅子対応, オストメイト対応, おむつ交換台",#00cc00,139.70147,35.683961
東京都渋谷営業所,東京都 渋谷区千駄ケ谷四丁目3番15号,2F,バリアフリートイレ,"設備: 車椅子対応, オストメイト対応, おむつ交換台",#00cc00,139.704419,35.679511
千駄ヶ谷出張所,東京都 渋谷区千駄ヶ谷四丁目25番14号,1F,１階だれでもトイレ,"毎年12/29〜1/3休館 | 設備: 車椅子対応, おむつ交換台",#00cc00,139.705398,35.68103
神宮前公衆便所,東京都 渋谷区神宮前一丁目3番14号,1F,神宮前公衆便所,"設備: 車椅子対応, オストメイト対応, おむつ交換台",#00cc00,139.707977,35.672442
美竹分庁舎清掃事務所,東京都 渋谷区渋谷一丁目2番17号,1F,1階だれでもトイレ,"日曜日、年末年始休み | 設備: 車椅子対応, オストメイト対応",#00cc00,139.706222,35.661528
渋谷区役所本庁舎,東京都 渋谷区渋谷区宇田川町1番1号,1F,1階だれでもトイレ,"設備: 車椅子対応, オストメイト対応, おむつ交換台",#00cc00,139.697826,35.663797
渋谷区役所本庁舎,東京都 渋谷区渋谷区宇田川町1番1号,2F,2階だれでもトイレ,"設備: 車椅子対応, オストメイト対応, 大型ベッド",#00cc00,139.697439,35.663661
渋谷区役所本庁舎,東京都 渋谷区渋谷区宇田川町1番1号,3F,3階だれでもトイレ,"設備: 車椅子対応, オストメイト対応, 大型ベッド",#00cc00,139.698049,35.663745
渋谷区役所本庁舎,東京都 渋谷区渋谷区宇田川町1番1号,4F,4階だれでもトイレ,"設備: 車椅子対応, おむつ交換台",#00cc00,139.697848,35.663795
渋谷区役所本庁舎,東京都 渋谷区渋谷区宇田川町1番1号,5F,5階だれでもトイレ,設備: 車椅子対応,#00cc00,139.697847,35.663795
渋谷区役所本庁舎,東京都 渋谷区渋谷区宇田川町1番1号,6F,6階だれでもトイレ,設備: 車椅子対応,#00cc00,139.697847,35.663795
渋谷区役所本庁舎,東京都 渋谷区渋谷区宇田川町1番1号,7F,7階だれでもトイレ,設備: 車椅子対応,#00cc00,139.697845,35.663798
渋谷区役所本庁舎,東京都 渋谷区渋谷区宇田川町1番1号,8F,8階だれでもトイレ,設備: 車椅子対応,#00cc00,139.697848,35.663798
渋谷区役所本庁舎,東京都 渋谷区渋谷区宇田川町1番1号,9F,9階だれでもトイレ,設備: 車椅子対応,#00cc00,139.69785,35.663797
渋谷区役所本庁舎,東京都 渋谷区渋谷区宇田川町1番1号,10F,10階だれでもトイレ,設備: 車椅子対応,#00cc00,139.697849,35.663798
渋谷区役所本庁舎,東京都 渋谷区渋谷区宇田川町1番1号,11F,11階だれでもトイレ,設備: 車椅子対応,#00cc00,139.697848,35.663797
渋谷区役所本庁舎,東京都 渋谷区渋谷区宇田川町1番1号,12F,12階だれでもトイレ,設備: 車椅子対応,#00cc00,139.697849,35.663798
渋谷区役所本庁舎,東京都 渋谷区渋谷区宇田川町1番1号,13F,13階だれでもトイレ,"設備: 車椅子対応, オストメイト対応, おむつ交換台",#00cc00,139.69785,35.663797
渋谷区役所本庁舎,東京都 渋谷区渋谷区宇田川町1番1号,14F,14階だれでもトイレ,設備: 車椅子対応,#00cc00,139.697848,35.663798
渋谷区役所本庁舎,東京都 渋谷区渋谷区宇田川町1番1号,15F,15階だれでもトイレ,設備: 車椅子対応,#00cc00,139.697849,35.663798
北谷分庁舎（かんなみの杜・渋谷） (渋谷区福祉事務所),東京都 渋谷区神南一丁目8番6号,2F,だれでもトイレ,"設備: 車椅子対応, オストメイト対応, 大型ベッド",#00cc00,139.700807,35.664367
YCC 代々木八幡区民施設,東京都 渋谷区代々木五丁目1番15号,1F,1階だれでもトイレ,"毎月第２、第４水曜日休館日、毎年12/29〜1/3休館 | 設備: 車椅子対応, オストメイト対応, 大型ベッド, おむつ交換台",#00cc00,139.689399,35.67189
代々木八幡公衆便所,東京都 渋谷区代々木五丁目1番2号,1F,代々木八幡公衆便所,"設備: 車椅子対応, オストメイト対応, おむつ交換台",#00cc00,139.687981,35.671403
初台区民会館,東京都 渋谷区初台一丁目33番10号,1F,初台区民会館　１階だれでもトイレ,"毎週月曜日、第１日曜日休館、毎年12/29〜1/3休館 | 設備: 車椅子対応, おむつ交換台",#00cc00,139.684787,35.67951
本町区民会館,東京都 渋谷区本町四丁目9番7号,3F,３階南側だれでもトイレ,"毎週火曜日休館のため、本町出張所に連絡が必要、祝日は09:00〜21:00 | 設備: 車椅子対応, おむつ交換台",#00cc00,139.680723,35.68675
笹塚区民会館,東京都 渋谷区笹塚三丁目1番9号,3F,３階エレベータ横だれでもトイレ,"毎週火曜日、第４日曜日休館、毎年12/29〜1/3休館 | 設備: 車椅子対応, おむつ交換台",#00cc00,139.670233,35.67763
幡ヶ谷区民会館,東京都 渋谷区幡ヶ谷三丁目4番1号,1F,１階ホールホワイエだれでもトイレ,"毎週月曜日、第２日曜日休館、毎年12/29〜1/3休館 | 設備: 車椅子対応, 大型ベッド, おむつ交換台",#00cc00,139.676134,35.67981
地域交流センター新橋,東京都 渋谷区恵比寿一丁目27番10号,3F,3階だれでもトイレ,"毎週木曜日、毎週第２日曜日休館、毎年12/29〜1/3休館 | 設備: 車椅子対応, オストメイト対応, 大型ベッド",#00cc00,139.716381,35.64751
地域交流センター新橋,東京都 渋谷区恵比寿一丁目27番10号,B1F,B1階だれでもトイレ,"毎週木曜日、毎週第２日曜日休館、毎年12/29〜1/3休館 | 設備: 車椅子対応, オストメイト対応, 大型ベッド",#00cc00,139.716359,35.6476
地域交流センター恵比寿,東京都 渋谷区恵比寿西二丁目8番1号,1F,1階だれでもトイレ,"毎週火曜日、毎週第４日曜日休館、毎年12/29〜1/3休館 | 設備: 車椅子対応, オストメイト対応, おむつ交換台",#00cc00,139.707134,35.6499
地域交流センター恵比寿,東京都 渋谷区恵比寿西二丁目8番1号,B1F,B1階だれでもトイレ,"毎週火曜日、毎週第４日曜日休館、毎年12/29〜1/3休館 | 設備: 車椅子対応, オストメイト対応, おむつ交換台",#00cc00,139.707129,35.65002
地域交流センター大向,東京都 渋谷区松濤一丁目26番6号,B1F,地下一階だれでもトイレ,"毎年12/29〜1/3休館 | 設備: 車椅子対応, オストメイト対応, 大型ベッド, おむつ交換台",#00cc00,139.693066,35.65904
地域交流センター上原,東京都 渋谷区上原一丁目18番6号,3F,3階だれでもトイレ,"第２日曜日、祝日となる月曜日、毎年12/29〜1/3休館。また、祝日以外の月曜日は地域交流センターは休館のため上原出張所（2F)へ事前連絡が必要 | 設備: 車椅子対応, おむつ交換台",#00cc00,139.683038,35.66868
地域交流センター西原,東京都 渋谷区西原二丁目26番7号,B1F,地下１階だれでもトイレ,"毎週月曜日、第２・４日曜日休館、毎年12/29〜1/3休館 | 設備: 車椅子対応, オストメイト対応, おむつ交換台",#00cc00,139.678642,35.67444
地域交流センター代々木,東京都 渋谷区代々木三丁目51番8号,B1F,地域交流センター　地下１階だれでもトイレ,"毎週火曜日、第３日曜日休館、毎年12/29〜1/3休館 | 設備: 車椅子対応, おむつ交換台",#00cc00,139.695828,35.68199
地域交流センター二軒家,東京都 渋谷区本町三丁目35番4号,1F,１階だれでもトイレ,"毎週月曜日、第２日曜日休館、毎年12/29〜1/3休館 | 設備: 車椅子対応, オストメイト対応, おむつ交換台",#00cc00,139.681045,35.68931
地域交流センター二軒家,東京都 渋谷区本町三丁目35番4号,B1F,B1階だれでもトイレ,"毎週月曜日、第２日曜日休館、毎年12/29〜1/3休館 | 設備: 車椅子対応, おむつ交換台",#00cc00,139.68109,35.68928
地域交流センター本町,東京都 渋谷区本町六丁目6番2号,2F,２階だれでもトイレ,"毎週月曜日、第３日曜日休館、日曜日の利用可能時間をフレンズ本町の閉館時間に合わせました。本来の地域交流センター本町の閉館時間は17:30です。 | 設備: 車椅子対応, おむつ交換台",#00cc00,139.679338,35.68206
地域交流センター代々木の杜,東京都 渋谷区代々木二丁目35番1号,1F,１階だれでもトイレ,"毎週月曜日、第２週日曜日休館、毎年12/29〜1/3休館 | 設備: 車椅子対応, オストメイト対応, おむつ交換台",#00cc00,139.697577,35.68416
地域交流センター神宮前,東京都 渋谷区神宮前六丁目10番14号,4F,地域交流センター神宮前4Fだれでもトイレ,"毎週火曜日、第４週日曜日休館、毎年12/29〜1/3休館 | 設備: 車椅子対応, おむつ交換台",#00cc00,139.705137,35.66759
リフレッシュ氷川,東京都 渋谷区東一丁目26番23号,1F,1階だれでもトイレ,"毎週水曜日休館、毎年12/29〜1/3休館 | 設備: 車椅子対応, おむつ交換台",#00cc00,139.707356,35.65488
リフレッシュ氷川,東京都 渋谷区東一丁目26番23号,2F,2階だれでもトイレ,"毎週水曜日休館、毎年12/29〜1/3休館 | 設備: 車椅子対応, おむつ交換台",#00cc00,139.707352,35.65493
リフレッシュ氷川,東京都 渋谷区東一丁目26番23号,3F,3階だれでもトイレ,"毎週水曜日休館、毎年12/29〜1/3休館 | 設備: 車椅子対応, おむつ交換台",#00cc00,139.707384,35.65495
リフレッシュ氷川,東京都 渋谷区東一丁目26番23号,4F,4階だれでもトイレ,"毎週水曜日休館、毎年12/29〜1/3休館 | 設備: 車椅子対応, おむつ交換台",#00cc00,139.707439,35.65494
リフレッシュ氷川,東京都 渋谷区東一丁目26番23号,B1F,地階だれでもトイレ,"毎週水曜日休館、毎年12/29〜1/3休館 | 設備: 車椅子対応, おむつ交換台",#00cc00,139.707419,35.65493
笹塚駅前区民施設,東京都 渋谷区笹塚一丁目47番1号,4F,4階だれでもトイレ,"毎週月曜日、第２週木曜日休館、毎年12/29〜1/3休館 | 設備: 車椅子対応, おむつ交換台",#00cc00,139.667712,35.67354
地域交流センター笹塚,東京都 渋谷区笹塚一丁目27番1号,3F,3階だれでもトイレ,"毎週火曜日、第３日曜日休館、毎年12/29〜1/3休館 | 設備: 車椅子対応, オストメイト対応",#00cc00,139.66723,35.672264
渋谷区保健所　幡ヶ谷保健相談所,東京都 渋谷区幡ヶ谷三丁目39番1号,2F,2階西側だれでもトイレ,"設備: 車椅子対応, おむつ交換台",#00cc00,139.672176,35.679526
渋谷区保健所　幡ヶ谷保健相談所,東京都 渋谷区幡ヶ谷三丁目39番1号,3F,3階西側だれでもトイレ,"設備: 車椅子対応, おむつ交換台",#00cc00,139.672057,35.679423
恵比寿保健相談所,東京都 渋谷区恵比寿二丁目２７番１８号,2F,2階だれでもトイレ,"設備: 車椅子対応, おむつ交換台",#00cc00,139.719605,35.645319
渋谷区立中央図書館,東京都 渋谷区神宮前一丁目4番1号,1F,1階だれでもトイレ,"休館日（毎月の第１月曜・第３木曜、12/29〜1/3、特別整理期間）は利用不可 | 設備: 車椅子対応, おむつ交換台",#00cc00,139.70617,35.672509
渋谷区立中央図書館,東京都 渋谷区神宮前一丁目4番1号,2F,2階だれでもトイレ,"休館日（毎月の第１月曜・第３木曜、12/29〜1/3、特別整理期間）は利用不可 | 設備: 車椅子対応, おむつ交換台",#00cc00,139.706244,35.67242
渋谷区立中央図書館,東京都 渋谷区神宮前一丁目4番1号,3F,3階だれでもトイレ,"休館日（毎月の第１月曜・第３木曜、12/29〜1/3、特別整理期間）は利用不可 | 設備: 車椅子対応, おむつ交換台",#00cc00,139.706134,35.672551
渋谷区立中央図書館,東京都 渋谷区神宮前一丁目4番1号,4F,4階だれでもトイレ,"休館日（毎月の第１月曜・第３木曜、12/29〜1/3、特別整理期間）は利用不可 | 設備: 車椅子対応, おむつ交換台",#00cc00,139.706134,35.672551
渋谷区立中央図書館,東京都 渋谷区神宮前一丁目4番1号,5F,5階だれでもトイレ,"休館日（毎月の第１月曜・第３木曜、12/29〜1/3、特別整理期間）は利用不可 | 設備: 車椅子対応, オストメイト対応, 大型ベッド, おむつ交換台",#00cc00,139.706108,35.672584
渋谷区立臨川みんなの図書館,東京都 渋谷区広尾一丁目9番17号,1F,1階だれでもトイレ,"休館日（第2月曜日とその前週の火曜日、第4月曜日とその前週の火曜日、第２木曜日、年末年始（12/29〜1/3）、特別整理期間等は使用不可 | 設備: 車椅子対応, おむつ交換台",#00cc00,139.716472,35.649558
本町図書館,東京都 渋谷区本町一丁目33番5号,1F,1階だれでもトイレ,休館日（第2月曜日とその前週の火曜日、第4月曜日とその前週の火曜日、第２木曜日、年末年始（12/29〜1/3）、特別整理期間等は使用不可 | 設備: 車椅子対応,#00cc00,139.681624,35.680734
富ヶ谷図書館,東京都 渋谷区上原一丁目46番2号,1F,1階身障者用トイレ,休館日（第１月曜日とその翌週の火曜日、第３月曜日とその翌週の火曜日、第２木曜日、年末年始（12/29〜1/3）、特別整理期間等は使用不可 | 設備: 車椅子対応,#00cc00,139.687195,35.668396
西原図書館,東京都 渋谷区西原二丁目28番9号,2F,2階だれでもトイレ,"休館日（第１月曜日とその翌週の火曜日、第３月曜日とその翌週の火曜日、第２木曜日、年末年始（12/29〜1/3）、特別整理期間等は使用不可 | 設備: 車椅子対応, おむつ交換台",#00cc00,139.677831,35.67498
西原図書館,東京都 渋谷区西原二丁目28番9号,3F,3階だれでもトイレ,"休館日（第１月曜日とその翌週の火曜日、第３月曜日とその翌週の火曜日、第２木曜日、年末年始（12/29〜1/3）、特別整理期間等は使用不可 | 設備: 車椅子対応, おむつ交換台",#00cc00,139.67783,35.674979
渋谷区文化総合センター大和田,東京都 渋谷区桜丘町23番地21号,12F,プラネタリウム,"設備: 車椅子対応, 大型ベッド, おむつ交換台",#00cc00,139.699967,35.655522
渋谷区文化総合センター大和田,東京都 渋谷区桜丘町23番地21号,2F,2F（共用部）,"設備: 車椅子対応, おむつ交換台",#00cc00,139.699752,35.655456
渋谷区文化総合センター大和田,東京都 渋谷区桜丘町23番地21号,3F,ハチラボ,月曜が祝日の場合は翌平日が休館。12月29 日〜1月3日休館。展示替え、機器点検等で休館の場合あり。 | 設備: 車椅子対応,#00cc00,139.700049,35.65582
渋谷区文化総合センター大和田,東京都 渋谷区桜丘町23番地21号,4F,さくらホール1,"設備: 車椅子対応, 大型ベッド, おむつ交換台",#00cc00,139.700053,35.655376
渋谷区文化総合センター大和田,東京都 渋谷区桜丘町23番地21号,4F,さくらホール2,設備: 車椅子対応,#00cc00,139.699986,35.655166
渋谷区文化総合センター大和田,東京都 渋谷区桜丘町23番地21号,4F,練習室,"設備: 車椅子対応, 大型ベッド, おむつ交換台",#00cc00,139.700175,35.65571
渋谷区文化総合センター大和田,東京都 渋谷区桜丘町23番地21号,6F,伝承ホール,"設備: 車椅子対応, おむつ交換台",#00cc00,139.699974,35.655541
渋谷区文化総合センター大和田,東京都 渋谷区桜丘町23番地21号,8F,8F（共用部）,"設備: 車椅子対応, 大型ベッド, おむつ交換台",#00cc00,139.699957,35.655492
渋谷区文化総合センター大和田,東京都 渋谷区桜丘町23番地21号,B1F,多目的アリーナ,"設備: 車椅子対応, おむつ交換台",#00cc00,139.700114,35.655387
渋谷区文化総合センター大和田,東京都 渋谷区桜丘町23番地21号,LBF,LBF（共用部）,"設備: 車椅子対応, オストメイト対応, 大型ベッド, おむつ交換台",#00cc00,139.699838,35.655476
松濤美術館,東京都 渋谷区松濤二丁目14番14号,2F,2階だれでもトイレ,"開館日の開館時間中のみ使用でき、休館日は使用できません。開館時間は特別展とその他の展覧会で異なります。 | 設備: 車椅子対応, おむつ交換台",#00cc00,139.691778,35.658788
松濤美術館,東京都 渋谷区松濤二丁目14番14号,B1F,地下1階だれでもトイレ,"開館日の開館時間中のみ使用でき、休館日は使用できません。開館時間は特別展とその他の展覧会で異なります。 | 設備: 車椅子対応, おむつ交換台",#00cc00,139.691779,35.658788
白根郷土博物館・文学館,東京都 渋谷区東四丁目9番1号,1F,1階だれでもトイレ,"休館日→月曜日（月曜日が祝日に場合、火曜日）。 | 設備: 車椅子対応, オストメイト対応, おむつ交換台",#00cc00,139.712502,35.656358
LINE CUBE SHIBUYA（渋谷公会堂）,東京都 渋谷区宇田川町1番1号,1F,1F多機能トイレ,"設備: 車椅子対応, オストメイト対応, 大型ベッド",#00cc00,139.698629,35.664004
LINE CUBE SHIBUYA（渋谷公会堂）,東京都 渋谷区宇田川町1番1号,2F,2F多機能トイレ,"設備: 車椅子対応, おむつ交換台",#00cc00,139.698808,35.664052
LINE CUBE SHIBUYA（渋谷公会堂）,東京都 渋谷区宇田川町1番1号,4F,4F多機能トイレ,"設備: 車椅子対応, おむつ交換台",#00cc00,139.698808,35.664052
LINE CUBE SHIBUYA（渋谷公会堂）,東京都 渋谷区宇田川町1番1号,5F,5F多機能トイレ,"設備: 車椅子対応, おむつ交換台",#00cc00,139.698808,35.664052
鍋島松濤公園,東京都 渋谷区松濤二丁目10番7号,1F,鍋島松濤公園公園便所,"設備: 車椅子対応, オストメイト対応, おむつ交換台",#00cc00,139.691533,35.65965
代々木大山公園,東京都 渋谷区西原二丁目53番1号,1F,代々木大山公園公園便所,"設備: 車椅子対応, おむつ交換台",#00cc00,139.67513,35.671422
代々木ポニー公園,東京都 渋谷区代々木神園町4番地1号,1F,代々木ポニー公園公園便所,"設備: 車椅子対応, おむつ交換台",#00cc00,139.694924,35.678794
恵比寿南二公園,東京都 渋谷区恵比寿南二丁目11番1号,1F,恵比寿南二公園公園便所,"設備: 車椅子対応, おむつ交換台",#00cc00,139.708643,35.643436
神宮通公園,東京都 渋谷区神宮前六丁目22番8号,1F,神宮通公園公園便所,"設備: 車椅子対応, おむつ交換台",#00cc00,139.702053,35.664193
恵比寿南一公園,東京都 渋谷区恵比寿南一丁目26番1号,1F,恵比寿南一公園公園便所,"設備: 車椅子対応, おむつ交換台",#00cc00,139.711664,35.642596
恵比寿東公園,東京都 渋谷区恵比寿一丁目2番16号,1F,恵比寿東公園公園便所,"設備: 車椅子対応, オストメイト対応",#00cc00,139.711197,35.648172
恵比寿公園,東京都 渋谷区恵比寿西一丁目19番1号,1F,恵比寿公園公園便所,"設備: 車椅子対応, オストメイト対応, おむつ交換台",#00cc00,139.707108,35.647003
幡ヶ谷新道公園,東京都 渋谷区幡ヶ谷三丁目56番10号,1F,幡ヶ谷新道公園公園便所,"設備: 車椅子対応, オストメイト対応, おむつ交換台",#00cc00,139.674803,35.681897
幡ヶ谷第一公園,東京都 渋谷区幡ヶ谷一丁目11番2号,1F,幡ヶ谷第一公園公園便所,"設備: 車椅子対応, オストメイト対応, おむつ交換台",#00cc00,139.671922,35.674771
二軒家公園,東京都 渋谷区本町三丁目30番12号,1F,二軒家公園公園便所,"設備: 車椅子対応, おむつ交換台",#00cc00,139.682783,35.690443
はるのおがわ ｺﾐｭﾆﾃｨﾊﾟｰｸ,東京都 渋谷区代々木五丁目68番1号,1F,はるのおがわｺﾐｭﾆﾃｨﾊﾟｰｸ公園便所,"設備: 車椅子対応, オストメイト対応, おむつ交換台",#00cc00,139.691055,35.672238
代々木深町小公園,東京都 渋谷区富ヶ谷一丁目54番1号,1F,代々木深町小公園公園便所,"設備: 車椅子対応, オストメイト対応, おむつ交換台",#00cc00,139.690725,35.669324
幡ヶ谷第三公園,東京都 渋谷区幡ヶ谷三丁目36番8号,1F,幡ヶ谷第三公園公園便所,"設備: 車椅子対応, オストメイト対応, おむつ交換台",#00cc00,139.671526,35.678119
広尾北公園,東京都 渋谷区広尾四丁目1番40号,1F,広尾北公園公園便所,"設備: 車椅子対応, オストメイト対応, おむつ交換台",#00cc00,139.719885,35.656367
本町公園,東京都 渋谷区本町四丁目5番7号,1F,本町公園公園便所,設備: 車椅子対応,#00cc00,139.681244,35.68641
景丘公園,東京都 渋谷区恵比寿四丁目19番21号,1F,景丘公園公園便所,設備: 車椅子対応,#00cc00,139.713549,35.643795
代々木みどり公園,東京都 渋谷区代々木一丁目37番10号,1F,代々木みどり公園公園便所,"設備: 車椅子対応, おむつ交換台",#00cc00,139.70061,35.68318
代官山公園,東京都 渋谷区代官山町17番地10号,1F,代官山公園公園便所,"設備: 車椅子対応, おむつ交換台",#00cc00,139.703637,35.648649
本町さくら公園,東京都 渋谷区本町二丁目21番1号,1F,本町さくら公園公園便所,"設備: 車椅子対応, おむつ交換台",#00cc00,139.680431,35.68376
富ヶ谷三本杉公園,東京都 渋谷区富ヶ谷二丁目2番12号,1F,富ヶ谷三本杉公園公園便所,"設備: 車椅子対応, オストメイト対応, おむつ交換台",#00cc00,139.687158,35.666568
臨川四季の森,東京都 渋谷区広尾五丁目23番8号,1F,臨川四季の森公園便所,"設備: 車椅子対応, オストメイト対応, おむつ交換台",#00cc00,139.718951,35.648623
二軒家ふるさと公園,東京都 渋谷区本町三丁目35番8号,1F,二軒家ふるさと公園公園便所,"設備: 車椅子対応, おむつ交換台",#00cc00,139.680929,35.689363
玉川上水旧水路　初台緑道,東京都 渋谷区初台一丁目32番地,1F,玉川上水旧水路　初台緑道公園便所,設備: 車椅子対応,#00cc00,139.683628,35.679496
玉川上水旧水路　笹塚緑道,東京都 渋谷区笹塚一丁目29番地,1F,玉川上水旧水路　笹塚緑道公園便所,設備: 車椅子対応,#00cc00,139.666798,35.673373
幡ヶ谷ひだまり公園,東京都 渋谷区幡ヶ谷二丁目42番6号,1F,幡ヶ谷ひだまり公園公園便所,"設備: 車椅子対応, オストメイト対応, おむつ交換台",#00cc00,139.674386,35.6782
本町南児童遊園地,東京都 渋谷区本町一丁目56番6号,1F,本町南児童遊園地公園便所,"設備: 車椅子対応, おむつ交換台",#00cc00,139.684205,35.683107
広尾児童遊園地,東京都 渋谷区広尾五丁目16番14号,1F,広尾児童遊園地公園便所,"設備: 車椅子対応, おむつ交換台",#00cc00,139.720683,35.649568
並木橋公衆便所,東京都 渋谷区東一丁目27番22号,1F,並木橋公衆便所1,設備: 車椅子対応,#00cc00,139.706575,35.65497
並木橋公衆便所,東京都 渋谷区東一丁目27番22号,1F,並木橋公衆便所2,設備: 車椅子対応,#00cc00,139.706575,35.65497
本町一丁目児童遊園地,東京都 渋谷区本町一丁目26番6号,1F,本町一丁目児童遊園地公園便所,設備: 車椅子対応,#00cc00,139.679889,35.679556
代々木二丁目あおい公園,東京都 渋谷区代々木二丁目13番3号,1F,代々木二丁目あおい公園公園便所,"設備: 車椅子対応, おむつ交換台",#00cc00,139.696354,35.687076
宮下公園,東京都 渋谷区渋谷一丁目26番5号,4F,誰でもトイレ,"設備: 車椅子対応, オストメイト対応",#00cc00,139.70159,35.661609
宮下公園,東京都 渋谷区渋谷一丁目26番5号,4F,誰でもトイレ,"設備: 車椅子対応, おむつ交換台",#00cc00,139.70159,35.661609
渋谷区子育てネウボラ,東京都 渋谷区宇田川町5-6,2F,2階　だれでもトイレ,"設備: 車椅子対応, おむつ交換台",#00cc00,139.69821,35.662875
渋谷区子育てネウボラ,東京都 渋谷区宇田川町5-6,3F,3階　だれでもトイレ,"設備: 車椅子対応, おむつ交換台",#00cc00,139.69821,35.662875
渋谷区子育てネウボラ,東京都 渋谷区宇田川町5-6,4F,4階　だれでもトイレ,"設備: 車椅子対応, おむつ交換台",#00cc00,139.69821,35.662875
渋谷区子育てネウボラ,東京都 渋谷区宇田川町5-6,5F,5階　だれでもトイレ,"設備: 車椅子対応, オストメイト対応, 大型ベッド",#00cc00,139.69821,35.662875
渋谷区子育てネウボラ,東京都 渋谷区宇田川町5-6,6F,6階　だれでもトイレ,"設備: 車椅子対応, おむつ交換台",#00cc00,139.69821,35.662875
渋谷区子育てネウボラ,東京都 渋谷区宇田川町5-6,7F,7階　だれでもトイレ,"設備: 車椅子対応, オストメイト対応, 大型ベッド",#00cc00,139.69821,35.662875
渋谷区子育てネウボラ,東京都 渋谷区宇田川町5-6,8F,8階　だれでもトイレ,"設備: 車椅子対応, おむつ交換台",#00cc00,139.69821,35.662875
上原公園,東京都 渋谷区上原３丁目13-10,1F,上原公園便所,"設備: 車椅子対応, オストメイト対応, おむつ交換台",#00cc00,139.678614,35.666798
広尾東公園,東京都 渋谷区広尾4-2-27,1F,広尾東公園便所,"設備: 車椅子対応, おむつ交換台",#00cc00,139.721108,35.653329
七号通り公園,東京都 渋谷区幡ヶ谷2-53-5,1F,七号通り公園便所,"設備: 車椅子対応, オストメイト対応",#00cc00,139.674417,35.678883
西原一丁目公園,東京都 渋谷区西原1-29-1,1F,西原一丁目公園便所,"設備: 車椅子対応, オストメイト対応",#00cc00,139.679602,35.677626
表参道公衆便所,東京都 渋谷区神宮前四丁目12番1号,1F,表参道公衆便所（女性用）,"設備: 車椅子対応, おむつ交換台",#00cc00,139.70971,35.66672
表参道公衆便所,東京都 渋谷区神宮前四丁目12番1号,1F,表参道公衆便所（男性用）,"設備: 車椅子対応, おむつ交換台",#00cc00,139.70971,35.66672
渋谷駅東口公衆便所,東京都 渋谷区渋谷二丁目23番14号,地下1F,渋谷駅東口公衆便所,"だれでもトイレ | 設備: 車椅子対応, オストメイト対応",#00cc00,139.701847,35.659126
渋谷駅東口公衆便所,東京都 渋谷区渋谷二丁目23番14号,地下1F,渋谷駅東口公衆便所,みんなのトイレ,#00cc00,139.701847,35.659122
幡ヶ谷公衆便所,東京都 渋谷区幡ケ谷三丁目37番8号,1F,幡ヶ谷公衆便所,"設備: 車椅子対応, オストメイト対応",#00cc00,139.670536,35.677771
千駄ヶ谷駅前公衆便所,東京都 渋谷区千駄ヶ谷一丁目35番6号,1F,千駄ヶ谷駅前公衆便所,"設備: 車椅子対応, オストメイト対応, おむつ交換台",#00cc00,139.712097,35.680781
東三丁目公衆便所,東京都 渋谷区東三丁目27番1号,1F,東三丁目公衆便所,"設備: 車椅子対応, オストメイト対応",#00cc00,139.709152,35.64896
区役所前公衆便所,東京都 渋谷区神南一丁目5番11号,1F,区役所前公衆便所,"設備: 車椅子対応, オストメイト対応",#00cc00,139.699259,35.664843
神宮前一丁目公衆便所,東京都 渋谷区神宮前一丁目5番1号,1F,神宮前一丁目公衆便所,"設備: 車椅子対応, おむつ交換台",#00cc00,139.704958,35.671396
恵比寿駅西口公衆便所,東京都 渋谷区恵比寿南一丁目5番8号,1F,恵比寿西口公衆便所,"設備: 車椅子対応, 大型ベッド, おむつ交換台",#00cc00,139.709431,35.647435
渋谷駅東口公衆便所,東京都 渋谷区渋谷二丁目23番14号,B1F,渋谷駅東口公衆便所,"設備: 車椅子対応, オストメイト対応",#00cc00,139.703104,35.657942
幡ヶ谷社会教育館,東京都 渋谷区幡ヶ谷二丁目50番2号,1F,1階だれでもトイレ,設備: 車椅子対応,#00cc00,139.677279,35.67993
幡ヶ谷社会教育館,東京都 渋谷区幡ヶ谷二丁目50番2号,2F,2階だれでもトイレ,設備: 車椅子対応,#00cc00,139.677279,35.67993
幡ヶ谷社会教育館,東京都 渋谷区幡ヶ谷二丁目50番2号,3F,3階だれでもトイレ,設備: 車椅子対応,#00cc00,139.677279,35.67993
幡ヶ谷社会教育館,東京都 渋谷区幡ヶ谷二丁目50番2号,4F,4階だれでもトイレ,設備: 車椅子対応,#00cc00,139.677279,35.67993
恵比寿社会教育館,東京都 渋谷区恵比寿二丁目27番18号,1F,1階だれでもトイレ,"設備: 車椅子対応, おむつ交換台",#00cc00,139.719558,35.64532
長谷戸社会教育館,東京都 渋谷区恵比寿西一丁目23番4号,1F,1階だれでもトイレ,"設備: 車椅子対応, おむつ交換台",#00cc00,139.706509,35.647095
千駄ヶ谷社会教育館,東京都 渋谷区千駄ヶ谷一丁目6番5号,1F,1階だれでもトイレ,"設備: 車椅子対応, オストメイト対応, おむつ交換台",#00cc00,139.709928,35.678021
上原社会教育館,東京都 渋谷区上原三丁目13番8号,1F,1階だれでもトイレ,設備: 車椅子対応,#00cc00,139.678725,35.666525
渋谷区スポーツセンター,東京都 渋谷区西原一丁目40番18号,1F,1階廊下だれでもトイレ,"年末年始(12/29〜1/3)及び第1.3月曜日休館(祝日に重なった場合は翌日)　 | 設備: 車椅子対応, オストメイト対応, おむつ交換台",#00cc00,139.680992,35.675772
渋谷区スポーツセンター,東京都 渋谷区西原一丁目40番18号,1F,1階ﾌﾟｰﾙ女性更衣室内だれでもトイレ,年末年始(12/29〜1/3)及び第1.3月曜日休館(祝日に重なった場合は翌日)　 | 設備: 車椅子対応,#00cc00,139.680574,35.675785
渋谷区スポーツセンター,東京都 渋谷区西原一丁目40番18号,1F,１階ﾌﾟｰﾙ男性更衣室内だれでもトイレ,年末年始(12/29〜1/3)及び第1.3月曜日休館(祝日に重なった場合は翌日)　 | 設備: 車椅子対応,#00cc00,139.680583,35.675806
渋谷区スポーツセンター,東京都 渋谷区西原一丁目40番18号,2F,2階廊下だれでもトイレ,"年末年始(12/29〜1/3)及び第1.3月曜日休館(祝日に重なった場合は翌日)　 | 設備: 車椅子対応, オストメイト対応, おむつ交換台",#00cc00,139.68091,35.675797
渋谷区スポーツセンター,東京都 渋谷区西原一丁目40番18号,3F,3階廊下だれでもトイレ,"年末年始(12/29〜1/3)及び第1.3月曜日休館(祝日に重なった場合は翌日)　 | 設備: 車椅子対応, オストメイト対応, おむつ交換台",#00cc00,139.680945,35.675785
渋谷区代官山スポーツプラザ (代官山アドレス),東京都 渋谷区代官山町17番地9号,1F,1階多目的トイレ,"年末年始(12/28〜1/3)及び第2.4月曜日休館(祝日に重なった場合は翌日)　 | 設備: 車椅子対応, オストメイト対応",#00cc00,139.703721,35.649004
渋谷区代官山スポーツプラザ (代官山アドレス),東京都 渋谷区代官山町17番地9号,B1F,地下1階多目的トイレ,"年末年始(12/28〜1/3)及び第2.4月曜日休館(祝日に重なった場合は翌日)　 | 設備: 車椅子対応, オストメイト対応",#00cc00,139.703681,35.648926
渋谷区代官山スポーツプラザ (代官山アドレス),東京都 渋谷区代官山町17番地9号,B2F,地下2階多目的トイレ,"年末年始(12/28〜1/3)及び第2.4月曜日休館(祝日に重なった場合は翌日)　 | 設備: 車椅子対応, オストメイト対応",#00cc00,139.703704,35.648967
渋谷区代々木西原公園庭球場,東京都 渋谷区西原一丁目47番8号,1F,1階管理事務所だれでもトイレ,年末年始(12/29〜1/3)及び第1.3月曜日休館(祝日に重なった場合は翌日)　 | 設備: 車椅子対応,#00cc00,139.684707,35.673794
渋谷区猿楽トレーニングジム,東京都 渋谷区猿楽町12番地35号,B2F,だれでもトイレ,年末年始(12/29〜1/3)及び毎週月曜日休館祝日に重なった場合は翌日　 | 設備: 車椅子対応,#00cc00,139.701912,35.650441
渋谷区ひがし健康プラザ,東京都 渋谷区東三丁目14番13号,1F,1階だれでもトイレ,年末年始(12/29〜1/3)休館、第1.3火曜日時間変更(9:00〜19:00) | 設備: 車椅子対応,#00cc00,139.709624,35.650947
渋谷区ひがし健康プラザ,東京都 渋谷区東三丁目14番13号,2F,2階だれでもトイレ,"年末年始(12/29〜1/3)休館、第1.3火曜日時間変更(9:00〜19:00) | 設備: 車椅子対応, おむつ交換台",#00cc00,139.70968,35.651017
渋谷区ひがし健康プラザ,東京都 渋谷区東三丁目14番13号,3F,3階だれでもトイレ,年末年始(12/29〜1/3)休館、第1.3火曜日時間変更(9:00〜19:00) | 設備: 車椅子対応,#00cc00,139.70968,35.651017
渋谷区ひがし健康プラザ,東京都 渋谷区東三丁目14番13号,B1F,地下1階だれでもトイレ,年末年始(12/29〜1/3)休館、第1.3火曜日時間変更(9:00〜19:00) | 設備: 車椅子対応,#00cc00,139.709803,35.650887
渋谷区ひがし健康プラザ,東京都 渋谷区東三丁目14番13号,B2F,地下2階だれでもトイレ,年末年始(12/29〜1/3)休館、第1.3火曜日時間変更(9:00〜19:00) | 設備: 車椅子対応,#00cc00,139.70968,35.651017
総合ケアコミュニティ・せせらぎ,東京都 渋谷区西原一丁目40番10号,2F,2階だれでもトイレ,"設備: 車椅子対応, おむつ交換台",#00cc00,139.681807,35.675412
美竹の丘・しぶや,東京都 渋谷区渋谷一丁目18番9号,1F,1階だれでもトイレ（右側）,"設備: 車椅子対応, おむつ交換台",#00cc00,139.704505,35.661872
美竹の丘・しぶや,東京都 渋谷区渋谷一丁目18番9号,1F,1階だれでもトイレ（左側）,"設備: 車椅子対応, おむつ交換台",#00cc00,139.704498,35.661848
美竹の丘・しぶや,東京都 渋谷区渋谷一丁目18番9号,2F,2階だれでもトイレ,"設備: 車椅子対応, おむつ交換台",#00cc00,139.704769,35.661879
ケアコミュニティ・原宿の丘,東京都 渋谷区神宮前三丁目12番8号,2F,2階だれでもトイレ,設備: 車椅子対応,#00cc00,139.711135,35.669862
ケアコミュニティ・原宿の丘,東京都 渋谷区神宮前三丁目12番8号,3F,3階だれでもトイレ,設備: 車椅子対応,#00cc00,139.711135,35.669862
渋谷区立商工会館・消費者センター,東京都 渋谷区渋谷一丁目12番5号,2F,2階だれでもトイレ,"第２・４土曜、祝祭日、年末年始は休館のため、使用ができません。 | 設備: 車椅子対応, オストメイト対応, おむつ交換台",#00cc00,139.703742,35.660506
渋谷区立勤労福祉会館,東京都 渋谷区神南一丁目19番8号,1F,1階だれでもトイレ,"第２日曜日、祝日の月曜日、年末年始は休館のため使用できません。 | 設備: 車椅子対応, おむつ交換台",#00cc00,139.699577,35.662595
西原敬老館,東京都 渋谷区西原2-35-12,1F,１階だれでもトイレ,設備: 車椅子対応,#00cc00,139.674787,35.674116
はつらつセンター幡ヶ谷,東京都 渋谷区幡ヶ谷2-19-14,1F,１階だれでもトイレ,設備: 車椅子対応,#00cc00,139.6742,35.677378
はつらつセンター幡ヶ谷,東京都 渋谷区幡ヶ谷2-19-14,2F,2階だれでもトイレ,設備: 車椅子対応,#00cc00,139.6742,35.677378
はつらつセンター富ヶ谷,東京都 渋谷区富ヶ谷2-27-12,1F,1階だれでもトイレ,"設備: 車椅子対応, オストメイト対応, 大型ベッド",#00cc00,139.684547,35.664023
はつらつセンター参宮橋,東京都 渋谷区代々木4-4-1,2F,2階だれでもトイレ,"設備: 車椅子対応, オストメイト対応, 大型ベッド",#00cc00,139.693079,35.678781
はつらつセンターケアステーション本町,東京都 渋谷区本町2-9-17,1F,1階だれでもトイレ,"設備: 車椅子対応, おむつ交換台",#00cc00,139.68251,35.683075
かんなみの杜・渋谷,東京都 渋谷区神南一丁目８番６号,1F,(ピクトグラム表記のみ),"(ピクトグラム表記のみ) | 設備: 車椅子対応, オストメイト対応, おむつ交換台",#00cc00,139.700799,35.664248