name,address,floor,toilet_name,note,color,lng,lat
東京都庁第一本庁舎,東京都 新宿区西新宿二丁目8番1号,1F ,1階中央車いす使用者対応トイレ,"おむつ交換台は大型ベッドと兼用南側から中央に移設 | 設備: 車椅子対応, オストメイト対応, 大型ベッド, おむつ交換台",#00cc00,139.691468,35.689389
東京都庁第一本庁舎,東京都 新宿区西新宿二丁目8番1号,1F ,1階中央車いす使用者対応トイレ,"おむつ交換台は大型ベッドと兼用北側から中央に移設 | 設備: 車椅子対応, オストメイト対応, 大型ベッド, おむつ交換台",#00cc00,139.691446,35.689453
東京都庁第一本庁舎,東京都 新宿区西新宿二丁目8番1号,2F,2階中央車いす使用者対応トイレ,"設備: 車椅子対応, オストメイト対応, おむつ交換台",#00cc00,139.691613,35.689338
東京都庁第一本庁舎,東京都 新宿区西新宿二丁目8番1号,32F,32階中央車いす使用者対応トイレ,"おむつ交換台は大型ベッドと兼用北側から中央に移設 | 設備: 車椅子対応, オストメイト対応, 大型ベッド, おむつ交換台",#00cc00,139.691851,35.689561
東京都庁第一本庁舎,東京都 新宿区西新宿二丁目8番1号,32F,32階中央車いす使用者対応トイレ,南側から中央に移設 | 設備: 車椅子対応,#00cc00,139.691835,35.689638
東京都庁第一本庁舎,東京都 新宿区西新宿二丁目8番1号,3F,3階南側車いす使用者対応トイレ,"おむつ交換台は大型ベッドと兼用 | 設備: 車椅子対応, オストメイト対応, 大型ベッド",#00cc00,139.691531,35.689943
東京都庁第一本庁舎,東京都 新宿区西新宿二丁目8番1号,3F,3階北側車いす使用者対応トイレ,"おむつ交換台は大型ベッドと兼用 | 設備: 車椅子対応, オストメイト対応, 大型ベッド",#00cc00,139.691748,35.68903
東京都庁第一本庁舎,東京都 新宿区西新宿二丁目8番1号,B3F,B3階中央車いす使用者対応トイレ,"乳児用おむつ交換台、椅子確認済み | 設備: 車椅子対応, オストメイト対応, おむつ交換台",#00cc00,139.691693,35.689655
東京都庁第一本庁舎,東京都 新宿区西新宿二丁目8番1号,B2F,B2階中央車いす使用者対応トイレ,"設備: 車椅子対応, オストメイト対応, おむつ交換台",#00cc00,139.691693,35.689655
東京都庁第一本庁舎,東京都 新宿区西新宿二丁目8番1号,N45F,北45階車いす使用者対応トイレ,"年末年始（12月29日〜31日、１月２日及び３日）及び都庁舎点検日は休室 | 設備: 車椅子対応, オストメイト対応, 大型ベッド",#00cc00,139.691708,35.689626
東京都庁第一本庁舎,東京都 新宿区西新宿二丁目8番1号,N45F,北45階車いす使用者対応トイレ,"年末年始（12月29日〜31日、１月２日及び３日）及び都庁舎点検日は休室 | 設備: 車椅子対応, オストメイト対応, 大型ベッド",#00cc00,139.691632,35.689619
東京都庁第一本庁舎,東京都 新宿区西新宿二丁目8番1号,S45F,南45階車いす使用者対応トイレ,"年末年始（12月29日〜31日、１月２日及び３日）及び都庁舎点検日は休室 | 設備: 車椅子対応, オストメイト対応, 大型ベッド",#00cc00,139.691689,35.689334
東京都庁第一本庁舎,東京都 新宿区西新宿二丁目8番1号,S45F,南45階車いす使用者対応トイレ,"年末年始（12月29日〜31日、１月２日及び３日）及び都庁舎点検日は休室 | 設備: 車椅子対応, オストメイト対応, 大型ベッド",#00cc00,139.691774,35.68935
東京都庁第一本庁舎,東京都 新宿区西新宿二丁目8番1号,5F,5階北側車いす使用者対応トイレ,"設備: 車椅子対応, オストメイト対応, 大型ベッド, おむつ交換台",#00cc00,139.691701,35.689881
東京都庁第一本庁舎,東京都 新宿区西新宿二丁目8番1号,16F,16階中央車いす使用者対応トイレ,"設備: 車椅子対応, オストメイト対応",#00cc00,139.691595,35.68942
東京都庁第一本庁舎,東京都 新宿区西新宿二丁目8番1号,25F,25階北側車いす使用者対応トイレ,"設備: 車椅子対応, オストメイト対応",#00cc00,139.691623,35.68965
東京都庁第二本庁舎,東京都 新宿区西新宿二丁目8番1号,1F,1階南側車いす使用者対応トイレ,"おむつ交換台は大型ベッドと兼用 | 設備: 車椅子対応, オストメイト対応, 大型ベッド",#00cc00,139.691912,35.688377
東京都庁第二本庁舎,東京都 新宿区西新宿二丁目8番1号,1F,1階北側車いす使用者対応トイレ,"設備: 車椅子対応, おむつ交換台",#00cc00,139.691495,35.689787
東京都庁第二本庁舎,東京都 新宿区西新宿二丁目8番1号,2F,2階北側車いす使用者対応トイレ,"おむつ交換台は大型ベッドと兼用 | 設備: 車椅子対応, オストメイト対応, 大型ベッド",#00cc00,139.691792,35.688238
東京都庁第二本庁舎,東京都 新宿区西新宿二丁目8番1号,3F,3階中央車いす使用者対応トイレ,"設備: 車椅子対応, オストメイト対応",#00cc00,139.691762,35.68957
東京都庁第二本庁舎,東京都 新宿区西新宿二丁目8番1号,4F,4階中央車いす使用者対応トイレ,"設備: 車椅子対応, オストメイト対応",#00cc00,139.692045,35.687991
東京都庁第二本庁舎,東京都 新宿区西新宿二丁目8番1号,B2,B2階中央車いす使用者対応トイレ,設備: 車椅子対応,#00cc00,139.692062,35.68798
東京都庁第二本庁舎,東京都 新宿区西新宿二丁目8番1号,B3,B3階中央車いす使用者対応トイレ,設備: 車椅子対応,#00cc00,139.692135,35.688007
東京都庁第二本庁舎,東京都 新宿区西新宿二丁目8番1号,10F,10階中央車いす使用者対応トイレ,"設備: 車椅子対応, オストメイト対応",#00cc00,139.691955,35.687987
東京都庁第二本庁舎,東京都 新宿区西新宿二丁目8番1号,17F,17階中央車いす使用者対応トイレ,"設備: 車椅子対応, オストメイト対応",#00cc00,139.691955,35.687987
東京都庁第二本庁舎,東京都 新宿区西新宿二丁目8番1号,25F,25階中央車いす使用者対応トイレ,"設備: 車椅子対応, オストメイト対応",#00cc00,139.691955,35.687987
東京都庁第二本庁舎,東京都 新宿区西新宿二丁目8番1号,B1F,B1中央車いす使用者対応トイレ,"内部のみ案内 | 設備: 車椅子対応, 大型ベッド",#00cc00,139.691983,35.688
東京都議会議事堂,東京都 新宿区西新宿二丁目8番1号,1F,1階南側車いす使用者対応トイレ,"設備: 車椅子対応, 大型ベッド",#00cc00,139.693385,35.689561
東京都議会議事堂,東京都 新宿区西新宿二丁目8番1号,1F,1階北側車いす使用者対応トイレ,"設備: 車椅子対応, オストメイト対応, おむつ交換台",#00cc00,139.693315,35.689908
東京都議会議事堂,東京都 新宿区西新宿二丁目8番1号,2F,2階南側車いす使用者対応トイレ,"設備: 車椅子対応, おむつ交換台",#00cc00,139.693158,35.689258
東京都議会議事堂,東京都 新宿区西新宿二丁目8番1号,2F,2階北側車いす使用者対応トイレ,"設備: 車椅子対応, オストメイト対応",#00cc00,139.69326,35.690037
東京都議会議事堂,東京都 新宿区西新宿二丁目8番1号,6F,6階南側車いす使用者対応トイレ,"設備: 車椅子対応, オストメイト対応",#00cc00,139.6931,35.689249
東京都議会議事堂,東京都 新宿区西新宿二丁目8番1号,7F,7階南側車いす使用者対応トイレ,"設備: 車椅子対応, おむつ交換台",#00cc00,139.693416,35.689565
東京都議会議事堂,東京都 新宿区西新宿二丁目8番1号,7F,7階北側車いす使用者対応トイレ,設備: 車椅子対応,#00cc00,139.693301,35.689973
東京都議会議事堂,東京都 新宿区西新宿二丁目8番1号,B1FS,B1階南側車いす使用者対応トイレ,設備: 車椅子対応,#00cc00,139.692936,35.689806
東京都議会議事堂,東京都 新宿区西新宿二丁目8番1号,B1F,B1階南側車いす使用者対応トイレ,"設備: 車椅子対応, 大型ベッド",#00cc00,139.692975,35.689573
東京都議会議事堂,東京都 新宿区西新宿二丁目8番1号,B1F,B1階北側車いす使用者対応トイレ,"設備: 車椅子対応, オストメイト対応",#00cc00,139.692127,35.689714
新宿都税事務所,東京都 新宿区西新宿七丁目5番8号,1F,車椅子使用者対応トイレ,"設備: 車椅子対応, オストメイト対応",#00cc00,139.698553,35.696788
東京都消費生活総合センター (セントラルプラザ),東京都 新宿区神楽河岸1番地1号,15F,15階だれでもトイレ,設備: 車椅子対応,#00cc00,139.743846,35.700849
東京都消費生活総合センター (セントラルプラザ),東京都 新宿区神楽河岸1番地1号,16F,16階だれでもトイレ,設備: 車椅子対応,#00cc00,139.743846,35.700849
東京都消費生活総合センター (セントラルプラザ),東京都 新宿区神楽河岸1番地1号,17F,17階だれでもトイレ,設備: 車椅子対応,#00cc00,139.743846,35.700849
東京都健康安全研究センター (本館),東京都 新宿区百人町三丁目24番1号,1F,本館1階車椅子使用者対応トイレ,"１階正面玄関入口に受付があり警備員が常駐していますので、ご利用時は声をかけてください。 | 設備: 車椅子対応, オストメイト対応, おむつ交換台",#00cc00,139.697759,35.706094
小田急第一生命ビル,東京都 新宿区西新宿二丁目7番1号,19F,公益財団法人東京都福祉保健財団多目的トイレ,"設備: 車椅子対応, オストメイト対応, おむつ交換台",#00cc00,139.69099,35.691471
地方独立行政法人東京都立病院機構　東京都立大久保病院,東京都 新宿区歌舞伎町二丁目44番1号,1F,１階だれでもトイレ,"設備: 車椅子対応, オストメイト対応, おむつ交換台",#00cc00,139.701453,35.696685
戸山公園,東京都 新宿区大久保三丁目5番,1F,第1号多目的トイレ,設備: おむつ交換台,#00cc00,139.704339,35.705155
戸山公園,東京都 新宿区戸山三丁目1番,1F,第3号多目的トイレ,"設備: 車椅子対応, オストメイト対応, おむつ交換台",#00cc00,139.715819,35.706302
戸山公園,東京都 新宿区戸山三丁目3番1号,1F,第4号多目的トイレ,"設備: 車椅子対応, オストメイト対応, おむつ交換台",#00cc00,139.714018,35.705523
戸山公園,東京都 新宿区大久保三丁目5番,1F,サービスセンター内多目的トイレ,"設備: 車椅子対応, オストメイト対応, おむつ交換台",#00cc00,139.704583,35.705372
戸山公園,東京都 新宿区大久保三丁目5番,1F,第2号トイレ,"設備: 車椅子対応, オストメイト対応, おむつ交換台",#00cc00,139.704339,35.705155
都営新宿線新宿三丁目駅,東京都 新宿区新宿三丁目3番2号,B1F,だれでもトイレＡ,"設備: 車椅子対応, オストメイト対応, 大型ベッド",#00cc00,139.706753,35.691041
都営新宿線新宿三丁目駅,東京都 新宿区新宿三丁目3番2号,B1F,だれでもトイレＢ,"設備: 車椅子対応, オストメイト対応, 大型ベッド",#00cc00,139.706753,35.691041
都営新宿線曙橋駅,東京都 新宿区住吉町7番地1号,B1F,だれでもトイレ,"設備: 車椅子対応, オストメイト対応, 大型ベッド, おむつ交換台",#00cc00,139.722627,35.692413
都営大江戸線新宿駅,東京都 新宿区新宿七丁目27番3号,B4F,だれでもトイレ,"設備: 車椅子対応, オストメイト対応, おむつ交換台",#00cc00,139.699274,35.687992
都営大江戸線新宿西口駅,東京都 新宿区西新宿一丁目3番17号,B3F,だれでもトイレ,"設備: 車椅子対応, オストメイト対応, おむつ交換台",#00cc00,139.699147,35.693315
都営大江戸線東新宿駅,東京都 新宿区新宿七丁目27番3号,B2F,だれでもトイレ,"設備: 車椅子対応, オストメイト対応, おむつ交換台",#00cc00,139.707721,35.697868
都営大江戸線若松河田駅,東京都 新宿区河田町10番地10号,B1F,だれでもトイレ,"設備: 車椅子対応, オストメイト対応, おむつ交換台",#00cc00,139.718351,35.69928
都営大江戸線牛込柳町駅,東京都 新宿区原町2番地32号,B1F,だれでもトイレ,"設備: 車椅子対応, オストメイト対応, おむつ交換台",#00cc00,139.725492,35.699466
都営大江戸線牛込神楽坂駅,東京都 新宿区箪笥町15番地,B1F,だれでもトイレ,"設備: 車椅子対応, オストメイト対応, おむつ交換台",#00cc00,139.736183,35.70105
都営大江戸線国立競技場駅,東京都 新宿区霞ヶ丘町10番地3号,B1F,だれでもトイレ,"設備: 車椅子対応, オストメイト対応, おむつ交換台",#00cc00,139.715056,35.679826
都営大江戸線都庁前駅,東京都 新宿区西新宿二丁目8番1号,B2F,女性用だれでもトイレ,"設備: 車椅子対応, オストメイト対応",#00cc00,139.693005,35.690619
都営大江戸線都庁前駅,東京都 新宿区西新宿二丁目8番1号,B2F,男性用だれでもトイレ,"設備: 車椅子対応, オストメイト対応",#00cc00,139.693005,35.690619
都営大江戸線西新宿五丁目駅,東京都 新宿区西新宿五丁目25番9号,B1F,だれでもトイレ,"設備: 車椅子対応, オストメイト対応, おむつ交換台",#00cc00,139.684683,35.689905
都営大江戸線中井駅,東京都 新宿区上落合二丁目20番8号,B1F,だれでもトイレ,"設備: 車椅子対応, オストメイト対応, おむつ交換台",#00cc00,139.686204,35.713874
都営大江戸線落合南長崎駅,東京都 新宿区西落合三丁目1番18号,B1F,だれでもトイレ,"設備: 車椅子対応, オストメイト対応, おむつ交換台",#00cc00,139.683421,35.723537
新宿消防署西新宿出張所,東京都 新宿区西新宿三丁目7番38号,2F,多目的トイレ,"設備: 車椅子対応, オストメイト対応, おむつ交換台",#00cc00,139.689836,35.686154
新宿区役所本庁舎,東京都 新宿区歌舞伎町一丁目４番１号,6F,簡易型車いす使用者用トイレ（女性用）,・土曜日、日曜日、祝日及び12月29日〜1月3日は、閉庁日のため使用不可。・火曜日は一部窓口が業務受付時間を延長するため、本庁舎（1、2、6階）及び第二分庁舎分館（1階）のトイレが19時まで使用可能。・毎月第4日曜日は休日窓口開設のため、9時〜17時の間、本庁舎（1階）のトイレが使用可能。 | 設備: 車椅子対応,#00cc00,139.703457,35.693979
新宿区役所本庁舎,東京都 新宿区歌舞伎町一丁目４番１号,6F,簡易型車いす使用者用トイレ（男性用）,・土曜日、日曜日、祝日及び12月29日〜1月3日は、閉庁日のため使用不可。・火曜日は一部窓口が業務受付時間を延長するため、本庁舎（1、2、6階）及び第二分庁舎分館（1階）のトイレが19時まで使用可能。・毎月第4日曜日は休日窓口開設のため、9時〜17時の間、本庁舎（1階）のトイレが使用可能。 | 設備: 車椅子対応,#00cc00,139.703425,35.693879
新宿区役所本庁舎,東京都 新宿区歌舞伎町一丁目４番１号,1F,本庁舎1階バリアフリートイレ（女子トイレ側）,"・土曜日、日曜日、祝日及び12月29日〜1月3日は、閉庁日のため使用不可。・火曜日は一部窓口が業務受付時間を延長するため、本庁舎（1、2、6階）及び第二分庁舎分館（1階）のトイレが19時まで使用可能。・毎月第4日曜日は休日窓口開設のため、9時〜17時の間、本庁舎（1階）のトイレが使用可能。 | 設備: 車椅子対応, オストメイト対応, 大型ベッド",#00cc00,139.703457,35.693979
新宿区役所本庁舎,東京都 新宿区歌舞伎町一丁目４番１号,1F,本庁舎1階バリアフリートイレ（男子トイレ側）,"・土曜日、日曜日、祝日及び12月29日〜1月3日は、閉庁日のため使用不可。・火曜日は一部窓口が業務受付時間を延長するため、本庁舎（1、2、6階）及び第二分庁舎分館（1階）のトイレが19時まで使用可能。・毎月第4日曜日は休日窓口開設のため、9時〜17時の間、本庁舎（1階）のトイレが使用可能。 | 設備: 車椅子対応, オストメイト対応",#00cc00,139.703425,35.693879
新宿区役所本庁舎,東京都 新宿区歌舞伎町一丁目４番１号,2F,本庁舎2階簡易型車いす使用者用トイレ（女性用）,・土曜日、日曜日、祝日及び12月29日〜1月3日は、閉庁日のため使用不可。・火曜日は一部窓口が業務受付時間を延長するため、本庁舎（1、2、6階）及び第二分庁舎分館（1階）のトイレが19時まで使用可能。・毎月第4日曜日は休日窓口開設のため、9時〜17時の間、本庁舎（1階）のトイレが使用可能。 | 設備: 車椅子対応,#00cc00,139.703457,35.693979
新宿区役所本庁舎,東京都 新宿区歌舞伎町一丁目４番１号,2F,本庁舎2階簡易型車いす使用者用トイレ（男性用）,・土曜日、日曜日、祝日及び12月29日〜1月3日は、閉庁日のため使用不可。・火曜日は一部窓口が業務受付時間を延長するため、本庁舎（1、2、6階）及び第二分庁舎分館（1階）のトイレが19時まで使用可能。・毎月第4日曜日は休日窓口開設のため、9時〜17時の間、本庁舎（1階）のトイレが使用可能。 | 設備: 車椅子対応,#00cc00,139.703425,35.693879
新宿区役所第一分庁舎 (新宿区役所第一分庁舎),東京都 新宿区歌舞伎町一丁目5番1号,1F,第一分庁舎1階車いす使用者用トイレ（男性用）,"・土曜日、日曜日、祝日及び12月29日〜1月3日は、閉庁日のため使用不可。・火曜日は一部窓口が業務受付時間を延長するため、本庁舎（1、2、6階）及び第二分庁舎分館（1階）のトイレが19時まで使用可能。・毎月第4日曜日は休日窓口開設のため、9時〜17時の間、本庁舎（1階）のトイレが使用可能。 | 設備: 車椅子対応, オストメイト対応",#00cc00,139.703371,35.693452
新宿区役所第一分庁舎 (新宿区役所第一分庁舎),東京都 新宿区歌舞伎町一丁目5番1号,1F,第一分庁舎1階車いす使用者用トイレ（女性用）,"・土曜日、日曜日、祝日及び12月29日〜1月3日は、閉庁日のため使用不可。・火曜日は一部窓口が業務受付時間を延長するため、本庁舎（1、2、6階）及び第二分庁舎分館（1階）のトイレが19時まで使用可能。・毎月第4日曜日は休日窓口開設のため、9時〜17時の間、本庁舎（1階）のトイレが使用可能。 | 設備: 車椅子対応, オストメイト対応",#00cc00,139.703351,35.693433
新宿区役所第二分庁舎 (新宿区役所第二分庁舎),東京都 新宿区新宿五丁目18番21号,2F,第二分庁舎2階バリアフリートイレ,"・土曜日、日曜日、祝日及び12月29日〜1月3日は、閉庁日のため使用不可。・火曜日は一部窓口が業務受付時間を延長するため、本庁舎（1、2、6階）及び第二分庁舎分館（1階）のトイレが19時まで使用可能。・毎月第4日曜日は休日窓口開設のため、9時〜17時の間、本庁舎（1階）のトイレが使用可能。 | 設備: 車椅子対応, オストメイト対応, 大型ベッド, おむつ交換台",#00cc00,139.706065,35.694219
新宿区役所第二分庁舎 (新宿区役所第二分庁舎),東京都 新宿区新宿五丁目18番21号,3F,第二分庁舎3階バリアフリートイレ,"・土曜日、日曜日、祝日及び12月29日〜1月3日は、閉庁日のため使用不可。・火曜日は一部窓口が業務受付時間を延長するため、本庁舎（1、2、6階）及び第二分庁舎分館（1階）のトイレが19時まで使用可能。・毎月第4日曜日は休日窓口開設のため、9時〜17時の間、本庁舎（1階）のトイレが使用可能。 | 設備: 車椅子対応, オストメイト対応, 大型ベッド, おむつ交換台",#00cc00,139.706065,35.694219
新宿区役所第二分庁舎分館 (新宿区役所第二分庁舎分館),東京都 新宿区新宿五丁目18番21号,1F,第二分庁舎分館1階バリアフリートイレ,"・土曜日、日曜日、祝日及び12月29日〜1月3日は、閉庁日のため使用不可。・火曜日は一部窓口が業務受付時間を延長するため、本庁舎（1、2、6階）及び第二分庁舎分館（1階）のトイレが19時まで使用可能。・毎月第4日曜日は休日窓口開設のため、9時〜17時の間、本庁舎（1階）のトイレが使用可能。 | 設備: 車椅子対応, オストメイト対応, 大型ベッド, おむつ交換台",#00cc00,139.705958,35.694033
新宿区役所第二分庁舎分館 (新宿区役所第二分庁舎分館),東京都 新宿区新宿五丁目18番21号,2F,第二分庁舎分館2階バリアフリートイレ,"・土曜日、日曜日、祝日及び12月29日〜1月3日は、閉庁日のため使用不可。・火曜日は一部窓口が業務受付時間を延長するため、本庁舎（1、2、6階）及び第二分庁舎分館（1階）のトイレが19時まで使用可能。・毎月第4日曜日は休日窓口開設のため、9時〜17時の間、本庁舎（1階）のトイレが使用可能。 | 設備: 車椅子対応, オストメイト対応, 大型ベッド, おむつ交換台",#00cc00,139.705958,35.694033
新宿区箪笥町特別出張所等区民施設,東京都 新宿区箪笥町15番地,1F,1階だれでもトイレ,"簡易型オストメイト対応設備設置 | 設備: 車椅子対応, オストメイト対応",#00cc00,139.734053,35.700583
新宿区箪笥町特別出張所等区民施設,東京都 新宿区箪笥町15番地,4F,4階だれでもトイレ,"設備: 車椅子対応, おむつ交換台",#00cc00,139.734201,35.700538
新宿区箪笥町特別出張所等区民施設,東京都 新宿区箪笥町15番地,2F,2階だれでもトイレ,設備: 車椅子対応,#00cc00,139.7342751,35.70056844
新宿区榎町特別出張所,東京都 新宿区早稲田町85番地,1F,1階だれでもトイレ,"設備: 車椅子対応, おむつ交換台",#00cc00,139.72679,35.705407
若松町特別出張所,東京都 新宿区若松町12番地6号,1F,1階だれでもトイレ,"出張所の閉庁時間は17:00だが、トイレについては同建物内の若松地域センターと共有のため21:45まで利用可能となっている。 | 設備: 車椅子対応, オストメイト対応, おむつ交換台",#00cc00,139.716425,35.698903
新宿区大久保特別出張所,東京都 新宿区大久保二丁目12番7号,1F,1階だれでもトイレ,"年末年始（１２月２９日〜１月３日）及び、５月・８月・１１月・２月の第三日曜日は全館休館となるため利用不可。 | 設備: 車椅子対応, オストメイト対応, おむつ交換台",#00cc00,139.706711,35.701587
落合第一特別出張所等区民施設,東京都 新宿区下落合四丁目6番7号,1F,１階だれでもトイレ,"休館日：12/29〜1/3及び5・8・11・2月の第3日曜日 | 設備: 車椅子対応, オストメイト対応",#00cc00,139.695018,35.718615
落合第一特別出張所等区民施設,東京都 新宿区下落合四丁目6番7号,3F,３階だれでもトイレ,"休館日：12/29〜1/3及び5・8・11・2月の第3日曜日 | 設備: 車椅子対応, おむつ交換台",#00cc00,139.695041,35.718673
落合第一特別出張所等区民施設,東京都 新宿区下落合四丁目6番7号,4F,４階だれでもトイレ,"休館日：12/29〜1/3及び5・8・11・2月の第3日曜日 | 設備: 車椅子対応, おむつ交換台",#00cc00,139.695077,35.718735
落合第一特別出張所等区民施設,東京都 新宿区下落合四丁目6番7号,B1F,地下１階だれでもトイレ,休館日：12/29〜1/3及び5・8・11・2月の第3日曜日 | 設備: 車椅子対応,#00cc00,139.695104,35.718757
落合第二特別出張所等区民施設,東京都 新宿区中落合四丁目17番13号,1F,1階北側だれでもトイレ,"休館日　2・5・8・11月の第４日曜日及び12月29日〜1月3日　 | 設備: 車椅子対応, オストメイト対応, 大型ベッド, おむつ交換台",#00cc00,139.683074,35.719898
落合第二特別出張所等区民施設,東京都 新宿区中落合四丁目17番13号,2F,2階北側だれでもトイレ,"休館日　2・5・8・11月の第四日曜日及び12月29日〜1月3日 | 設備: 車椅子対応, オストメイト対応, 大型ベッド, おむつ交換台",#00cc00,139.683074,35.719898
落合第二特別出張所等区民施設,東京都 新宿区中落合四丁目17番13号,3F,3階北側だれでもトイレ,"休館日　2・5・8・11月の第４日曜日及び12月29日〜1月3日 | 設備: 車椅子対応, オストメイト対応, 大型ベッド, おむつ交換台",#00cc00,139.683074,35.719898
柏木特別出張所,東京都 新宿区北新宿二丁目3番7号,1F,1階多目的トイレ,"地域センターと共用のため、センターの開館時間で記入　※5、8、11、2月第２日曜日及び12月29日〜1月3日は休館のため使用不可 | 設備: 車椅子対応, オストメイト対応, おむつ交換台",#00cc00,139.690272,35.698647
新宿区角筈特別出張所等区民施設,東京都 新宿区西新宿四丁目33番7号,1F,1階エントランスだれでもトイレ,"設備: 車椅子対応, オストメイト対応, おむつ交換台",#00cc00,139.689148,35.686278
新宿区角筈特別出張所等区民施設,東京都 新宿区西新宿四丁目33番7号,7F,7階地域センターだれでもトイレ,設備: 車椅子対応,#00cc00,139.689088,35.686199
産業会館（BIZ新宿） (産業会館（BIZ新宿）),東京都 新宿区西新宿六丁目8番2号,1F,1階多目的トイレ,"設備: 車椅子対応, オストメイト対応, おむつ交換台",#00cc00,139.690306,35.693548
産業会館（BIZ新宿） (産業会館（BIZ新宿）),東京都 新宿区西新宿六丁目8番2号,3F,3階多目的トイレ,設備: 車椅子対応,#00cc00,139.690386,35.693499
戸塚特別出張所 (戸塚特別出張所等区民施設),東京都 新宿区高田馬場二丁目18番１号,2F,2F多機能トイレ,"設備: 車椅子対応, オストメイト対応, 大型ベッド",#00cc00,139.70505,35.714405
戸塚特別出張所 (戸塚特別出張所等区民施設),東京都 新宿区高田馬場二丁目18番１号,3F,3F多機能トイレ,"設備: 車椅子対応, オストメイト対応, 大型ベッド",#00cc00,139.70505,35.714405
新宿区榎町地域センター,東京都 新宿区早稲田町85番地,2F,2階だれでもトイレ,"設備: 車椅子対応, オストメイト対応, おむつ交換台",#00cc00,139.726675,35.705471
新宿区榎町地域センター,東京都 新宿区早稲田町85番地,3F,3階だれでもトイレ,"設備: 車椅子対応, おむつ交換台",#00cc00,139.726675,35.705471
新宿区榎町地域センター,東京都 新宿区早稲田町85番地,4F,4階だれでもトイレ,"設備: 車椅子対応, おむつ交換台",#00cc00,139.726675,35.705471
新宿区榎町地域センター,東京都 新宿区早稲田町85番地,B1F,地下1階だれでもトイレ,"設備: 車椅子対応, おむつ交換台",#00cc00,139.726824,35.705458
若松地域センター,東京都 新宿区若松町12番地6号,2F,2階だれでもトイレ,設備: 車椅子対応,#00cc00,139.716425,35.698903
戸塚地域センター,東京都 新宿区高田馬場二丁目18番1号,1F,1F多機能トイレ,"設備: 車椅子対応, オストメイト対応",#00cc00,139.705064,35.714395
戸塚地域センター,東京都 新宿区高田馬場二丁目18番1号,4F,4F多機能トイレ,"設備: 車椅子対応, オストメイト対応, 大型ベッド",#00cc00,139.705051,35.714437
戸塚地域センター,東京都 新宿区高田馬場二丁目18番1号,5F,5F多機能トイレ,"設備: 車椅子対応, オストメイト対応",#00cc00,139.705051,35.714437
戸塚地域センター,東京都 新宿区高田馬場二丁目18番1号,6F,6F多機能トイレ,"設備: 車椅子対応, オストメイト対応, 大型ベッド",#00cc00,139.705051,35.714437
戸塚地域センター,東京都 新宿区高田馬場二丁目18番1号,7F,7F多機能トイレ,"設備: 車椅子対応, オストメイト対応, 大型ベッド",#00cc00,139.705131,35.714471
戸塚地域センター,東京都 新宿区高田馬場二丁目18番1号,B1F,B1多機能トイレ,"設備: 車椅子対応, オストメイト対応, 大型ベッド",#00cc00,139.705107,35.714473
新宿区落合保健センター (落合第一特別出張所等区民施設),東京都 新宿区下落合四丁目6番7号,2F,多目的トイレ,"設備: 車椅子対応, おむつ交換台",#00cc00,139.695051,35.718633
柏木地域センター,東京都 新宿区北新宿二丁目3番7号,B1F,地下１階多目的トイレ,"設備: 車椅子対応, おむつ交換台",#00cc00,139.690337,35.69845
新宿区立新宿NPO協働推進センター,東京都 新宿区高田馬場四丁目36番12号,2F,２階だれでもトイレ,"設備: 車椅子対応, オストメイト対応, 大型ベッド, おむつ交換台",#00cc00,139.696322,35.709826
新宿区立新宿NPO協働推進センター,東京都 新宿区高田馬場四丁目36番12号,4F,４階だれでもトイレ,"設備: 車椅子対応, オストメイト対応, おむつ交換台",#00cc00,139.696441,35.709654
戸山生涯学習館,東京都 新宿区戸山二丁目11番101号,1F,戸山生涯学習館1階多機能トイレ,"設備: 車椅子対応, オストメイト対応, 大型ベッド",#00cc00,139.714268,35.701969
戸山生涯学習館,東京都 新宿区戸山二丁目11番101号,2F,戸山生涯学習館2階多機能トイレ,"設備: 車椅子対応, オストメイト対応",#00cc00,139.714129,35.701951
住吉町生涯学習館,東京都 新宿区住吉町13番地3号,B1F,住吉町生涯学習館B1階だれでもトイレ,設備: 車椅子対応,#00cc00,139.719803,35.694595
四谷保健センター等,東京都 新宿区四谷三栄町10番16号,1F,1階多目的トイレ,"設備: 車椅子対応, おむつ交換台",#00cc00,139.724357,35.688745
四谷保健センター等,東京都 新宿区四谷三栄町10番16号,4F,4階多目的トイレ,"設備: 車椅子対応, おむつ交換台",#00cc00,139.724287,35.68885
東新宿保健センター,東京都 新宿区新宿七丁目26番4号,1F,だれでもトイレ,"休館日なし | 設備: 車椅子対応, オストメイト対応, 大型ベッド",#00cc00,139.709683,35.698169
牛込保健センター等 (牛込保健センター仮庁舎),東京都 新宿区矢来町６番地,1F,1F多目的トイレ,"設備: 車椅子対応, オストメイト対応, 大型ベッド, おむつ交換台",#00cc00,139.730934,35.701109
新宿区立中央図書館,東京都 新宿区大久保三丁目1番1号,1F,１階カウンター前だれでもトイレ,"12/29〜1/3は休館日のため利用不可。その他、図書館休館日は利用不可。図書館のみの建物のため、休館日は利用できません。月曜が祝日の場合は翌日が休館日になるなど、不定期休もあるため、利用時は開館日カレンダー等でご確認ください。 | 設備: 車椅子対応, オストメイト対応, 大型ベッド, おむつ交換台",#00cc00,139.707086,35.705287
新宿区立中央図書館,東京都 新宿区大久保三丁目1番1号,1F,１階参考調査室前だれでもトイレ,"12/29〜1/3は休館日のため利用不可。その他、図書館休館日は利用不可。図書館のみの建物のため、休館日は利用できません。月曜が祝日の場合は翌日が休館日になるなど、不定期休もあるため、利用時は開館日カレンダー等でご確認ください。 | 設備: 車椅子対応, オストメイト対応, おむつ交換台",#00cc00,139.707455,35.705277
新宿区立中央図書館,東京都 新宿区大久保三丁目1番1号,2F,２階だれでもトイレ,"12/29〜1/3は休館日のため利用不可。その他、図書館休館日は利用不可。図書館のみの建物のため、休館日は利用できません。月曜が祝日の場合は翌日が休館日になるなど、不定期休もあるため、利用時は開館日カレンダー等でご確認ください。 | 設備: 車椅子対応, おむつ交換台",#00cc00,139.707086,35.705287
新宿区立中央図書館,東京都 新宿区大久保三丁目1番1号,3F,３階だれでもトイレ,"12/29〜1/3は休館日のため利用不可。その他、図書館休館日は利用不可。図書館のみの建物のため、休館日は利用できません。月曜が祝日の場合は翌日が休館日になるなど、不定期休もあるため、利用時は開館日カレンダー等でご確認ください。 | 設備: 車椅子対応, おむつ交換台",#00cc00,139.707086,35.705287
新宿区立中央図書館,東京都 新宿区大久保三丁目1番1号,4F,４階だれでもトイレ,"12/29〜1/3は休館日のため利用不可。その他、図書館休館日は利用不可。図書館のみの建物のため、休館日は利用できません。月曜が祝日の場合は翌日が休館日になるなど、不定期休もあるため、利用時は開館日カレンダー等でご確認ください。 | 設備: 車椅子対応, おむつ交換台",#00cc00,139.707261,35.705199
新宿区立下落合図書館,東京都 新宿区下落合一丁目9番8号,1F,１階だれでもトイレ,"12/29〜1/3は休館日のため利用不可。その他、図書館休館日は利用不可。月曜が祝日の場合は翌々日が休館日になるなど、不定期休もあるため、利用時は開館日カレンダー等でご確認ください。 | 設備: 車椅子対応, オストメイト対応, おむつ交換台",#00cc00,139.698939,35.715992
新宿区立下落合図書館,東京都 新宿区下落合一丁目9番8号,2F,２階だれでもトイレ,"12/29〜1/3は休館日のため利用不可。その他、図書館休館日は利用不可。月曜が祝日の場合は翌々日が休館日になるなど、不定期休もあるため、利用時は開館日カレンダー等でご確認ください。 | 設備: 車椅子対応, オストメイト対応, おむつ交換台",#00cc00,139.698904,35.71599
新宿歴史博物館,東京都 新宿区四谷三栄町12番地16号,1F,１階誰でもトイレ,"設備: 車椅子対応, おむつ交換台",#00cc00,139.725569,35.689929
新宿歴史博物館,東京都 新宿区四谷三栄町12番地16号,2F,２階誰でもトイレ,設備: 車椅子対応,#00cc00,139.725569,35.68996
新宿区立漱石山房記念館 (新宿区立漱石山房記念館),東京都 新宿区早稲田南町7番地,1F,1階西側だれでもトイレ,"設備: 車椅子対応, オストメイト対応, おむつ交換台",#00cc00,139.725377,35.703926
新宿区立漱石山房記念館 (新宿区立漱石山房記念館),東京都 新宿区早稲田南町7番地,2F,2階東側だれでもトイレ,"設備: 車椅子対応, おむつ交換台",#00cc00,139.72537,35.703956
新宿区立漱石山房記念館 (新宿区立漱石山房記念館),東京都 新宿区早稲田南町7番地,1F,1階公園側だれでもトイレ,"設備: 車椅子対応, オストメイト対応, おむつ交換台",#00cc00,139.7256237,35.7039634
高田馬場創業支援センター・新宿消費生活センター分館,東京都 新宿区高田馬場一丁目32番10号,3F,3階だれでもトイレ,"設備: 車椅子対応, オストメイト対応, おむつ交換台",#00cc00,139.703672,35.710838
高田馬場創業支援センター・新宿消費生活センター分館,東京都 新宿区高田馬場一丁目32番10号,2F,2階車椅子使用者用便房,設備: 車椅子対応,#00cc00,139.703672,35.710838
区民ギャラリー,東京都 新宿区西新宿二丁目11番4号,1F,区民ギャラリー1F　だれでもトイレ,設備: 車椅子対応,#00cc00,139.688699,35.690996
新宿区立中村彝アトリエ記念館 (新宿区立中村彝アトリエ記念館),東京都 新宿区下落合三丁目5番7号,1F,管理棟誰でもトイレ,"設備: 車椅子対応, オストメイト対応, おむつ交換台",#00cc00,139.701299,35.720925
四谷区民センター (四谷区民センター),東京都 新宿区内藤町87番地,11F,11階だれでもトイレ,"通常は施錠しているため、ご利用の際は11階受付までお声がけください。 | 設備: 車椅子対応, オストメイト対応, おむつ交換台",#00cc00,139.714565,35.687564
四谷区民センター (四谷区民センター),東京都 新宿区内藤町87番地,1F,1階だれでもトイレ,"設備: 車椅子対応, オストメイト対応",#00cc00,139.714565,35.687564
四谷区民センター (四谷区民センター),東京都 新宿区内藤町87番地,2F,2階だれでもトイレ,"設備: 車椅子対応, おむつ交換台",#00cc00,139.714565,35.687564
四谷区民センター (四谷区民センター),東京都 新宿区内藤町87番地,7F,7階だれでもトイレ,"設備: 車椅子対応, おむつ交換台",#00cc00,139.714565,35.687564
四谷区民センター (四谷区民センター),東京都 新宿区内藤町87番地,8F,8階だれでもトイレ,設備: 車椅子対応,#00cc00,139.7144155,35.68762394
新宿文化センター,東京都 新宿区新宿六丁目14番1号,1F,一階ホワイエ東側だれでもトイレ,館内改修工事のため、令和7年9月30日（予定）まで使用不可 | 設備: 車椅子対応,#00cc00,139.709058,35.695372
新宿文化センター,東京都 新宿区新宿六丁目14番1号,1F,一階ロビー西側だれでもトイレ（オストメイト有）,"館内改修工事のため、令和7年9月30日（予定）まで使用不可 便器左側の手すりは可動式 | 設備: 車椅子対応, オストメイト対応, おむつ交換台",#00cc00,139.709825,35.695598
新宿文化センター,東京都 新宿区新宿六丁目14番1号,1F,一階楽屋下手車イストイレ,館内改修工事のため、令和7年9月30日（予定）まで使用不可 | 設備: 車椅子対応,#00cc00,139.709612,35.695364
新宿文化センター,東京都 新宿区新宿六丁目14番1号,3F,三階ホワイエ西側だれでもトイレ,館内改修工事のため、令和7年9月30日（予定）まで使用不可 | 設備: 車椅子対応,#00cc00,139.709683,35.695706
新宿文化センター,東京都 新宿区新宿六丁目14番1号,4F,四階ELVホールだれでもトイレ,館内改修工事のため、令和7年9月30日（予定）まで使用不可 | 設備: 車椅子対応,#00cc00,139.709528,35.695528
新宿文化センター,東京都 新宿区新宿六丁目14番1号,B1F,地下１階展示室東側だれでもトイレ,館内改修工事のため、令和7年9月30日（予定）まで使用不可 | 設備: 車椅子対応,#00cc00,139.709545,35.695542
新宿区立白銀公園,東京都 新宿区白銀町3番地,1F,バリアフリートイレ,"設備: 車椅子対応, オストメイト対応, おむつ交換台",#00cc00,139.737378,35.703781
新宿区立大久保公園,東京都 新宿区歌舞伎町二丁目43番地,1F,バリアフリートイレ,"設備: 車椅子対応, オストメイト対応, おむつ交換台",#00cc00,139.701536,35.697273
新宿区立西戸山公園（東側）,東京都 新宿区百人町四丁目1番地,1F,バリアフリートイレ（3号地）,"設備: 車椅子対応, オストメイト対応, おむつ交換台",#00cc00,139.701667,35.708318
新宿区立西戸山公園（西側）,東京都 新宿区百人町四丁目1番地,1F,バリアフリートイレ（1号地）,"設備: 車椅子対応, オストメイト対応, おむつ交換台",#00cc00,139.698554,35.707577
新宿区立鶴巻南公園,東京都 新宿区早稲田町78番地,1F,バリアフリートイレ,設備: 車椅子対応,#00cc00,139.723413,35.706078
新宿区立北柏木公園,東京都 新宿区北新宿四丁目12番地,1F,バリアフリートイレ,"設備: 車椅子対応, おむつ交換台",#00cc00,139.692862,35.707384
新宿区立新小川公園,東京都 新宿区新小川町3番地,1F,バリアフリートイレ,"設備: 車椅子対応, オストメイト対応",#00cc00,139.742101,35.704778
新宿区立みなみもと町公園,東京都 新宿区南元町20番地,1F,バリアフリートイレ,設備: 車椅子対応,#00cc00,139.725883,35.68082
新宿区立おとめ山公園,東京都 新宿区下落合二丁目10番地,1F,バリアフリートイレ,"設備: 車椅子対応, オストメイト対応, おむつ交換台",#00cc00,139.700994,35.718526
新宿区立おとめ山公園,東京都 新宿区下落合二丁目10番地,1F,バリアフリートイレ,"設備: 車椅子対応, オストメイト対応, おむつ交換台",#00cc00,139.70298,35.717477
新宿区立戸山東公園,東京都 新宿区戸山一丁目19番地,1F,バリアフリートイレ,"設備: 車椅子対応, オストメイト対応, おむつ交換台",#00cc00,139.718303,35.703554
新宿区立清水川橋公園,東京都 新宿区下落合一丁目1番地,1F,バリアフリートイレ,"設備: 車椅子対応, オストメイト対応, おむつ交換台",#00cc00,139.704045,35.716068
新宿区立葛ヶ谷公園,東京都 新宿区西落合二丁目1番地,1F,バリアフリートイレ,"設備: 車椅子対応, オストメイト対応, おむつ交換台",#00cc00,139.677816,35.723256
新宿区立佐伯公園,東京都 新宿区中落合二丁目4番地,1F,バリアフリートイレ,"月曜日が休日にあたる場合は、火曜日が使用できなくなります。年末年始（12月29日〜1月3日）は利用できません。 | 設備: 車椅子対応, オストメイト対応, おむつ交換台",#00cc00,139.693707,35.720997
新宿区立新宿中央公園,東京都 新宿区西新宿二丁目11番地,1F,バリアフリートイレ,"設備: 車椅子対応, オストメイト対応, おむつ交換台",#00cc00,139.688158,35.690907
新宿区立新宿中央公園,東京都 新宿区西新宿二丁目11番地,1F,バリアフリートイレ,"設備: 車椅子対応, オストメイト対応, おむつ交換台",#00cc00,139.689938,35.686802
新宿区立新宿中央公園,東京都 新宿区西新宿二丁目11番地,1F,バリアフリートイレ,"設備: 車椅子対応, オストメイト対応, おむつ交換台",#00cc00,139.688865,35.689359
新宿区立新宿中央公園,東京都 新宿区西新宿二丁目11番地,1F,バリアフリートイレ,"設備: 車椅子対応, オストメイト対応, おむつ交換台",#00cc00,139.689562,35.691541
新宿区立新宿中央公園,東京都 新宿区西新宿二丁目11番地,1F,バリアフリートイレ,設備: 車椅子対応,#00cc00,139.690624,35.688975
新宿区立新宿中央公園,東京都 新宿区西新宿二丁目11番地,1F,バリアフリートイレ,"設備: 車椅子対応, オストメイト対応, おむつ交換台",#00cc00,139.689737,35.690354
新宿区立抜弁天北公園,東京都 新宿区新宿七丁目3番地,1F,バリアフリートイレ,"設備: 車椅子対応, オストメイト対応",#00cc00,139.713773,35.699387
新宿区立かば公園,東京都 新宿区中落合二丁目16番地,1F,バリアフリートイレ,"設備: 車椅子対応, オストメイト対応",#00cc00,139.693471,35.718574
新宿区立富久さくら公園,東京都 新宿区富久町21番地,1F,バリアフリートイレ,"設備: 車椅子対応, オストメイト対応, おむつ交換台",#00cc00,139.714102,35.69314
新宿区立柏木どんぐり公園,東京都 新宿区北新宿二丁目19番地,1F,バリアフリートイレ,"設備: 車椅子対応, オストメイト対応, おむつ交換台",#00cc00,139.688828,35.697125
新宿区立みずき児童遊園,東京都 新宿区西早稲田二丁目12番地,1F,バリアフリートイレ,"設備: 車椅子対応, オストメイト対応",#00cc00,139.713142,35.70799
新宿区立津の守坂児童遊園,東京都 新宿区四谷坂町11番地,1F,バリアフリートイレ,"設備: 車椅子対応, オストメイト対応",#00cc00,139.725327,35.691601
新宿区立妙正寺川公園,東京都 新宿区西落合二丁目2020番地、中野区松が丘一丁目33番地,1F,バリアフリートイレ,設備: 車椅子対応,#00cc00,139.675146,35.720416
新宿区立山伏公園,東京都 新宿区北山伏町1番地,1F,バリアフリートイレ,"設備: 車椅子対応, オストメイト対応, おむつ交換台",#00cc00,139.730726,35.699372
新宿区立新左門児童遊園,東京都 新宿区左門町19番地,1F,バリアフリートイレ,"設備: 車椅子対応, オストメイト対応, おむつ交換台",#00cc00,139.72071,35.684523
新宿区立須賀公園,東京都 新宿区須賀町8番地,1F,バリアフリートイレ,"設備: 車椅子対応, オストメイト対応, おむつ交換台",#00cc00,139.723114,35.684998
新宿区立なんど児童遊園,東京都 新宿区納戸町19番地,1F,バリアフリートイレ,"※注:パウチ・尿瓶洗浄水洗 | 設備: 車椅子対応, おむつ交換台",#00cc00,139.733077,35.698049
新宿区立四谷見附公園,東京都 新宿区四谷1-12,1F,バリアフリートイレ,"設備: 車椅子対応, オストメイト対応, おむつ交換台",#00cc00,139.728389,35.683663
新宿区立西大久保公園,東京都 新宿区大久保1-17,1F,バリアフリートイレ,"設備: 車椅子対応, オストメイト対応, おむつ交換台",#00cc00,139.702215,35.699305
新宿区立花園西公園,東京都 新宿区新宿1-32,1F,バリアフリートイレ,"設備: 車椅子対応, オストメイト対応, おむつ交換台",#00cc00,139.711356,35.690633
新宿区立あかね公園,東京都 新宿区西落合1-31,1F,バリアフリートイレ,設備: 車椅子対応,#00cc00,139.679733,35.719944
新宿区立中根坂東公園,東京都 新宿区納戸町44,1F,バリアフリートイレ,"設備: 車椅子対応, オストメイト対応, おむつ交換台",#00cc00,139.73258,35.696424
新宿区立甘泉園公園,東京都 新宿区西早稲田三丁目5番地,1F,バリアフリートイレ,"設備: 車椅子対応, おむつ交換台",#00cc00,139.71656,35.71192
新宿区立落合公園,東京都 新宿区中井一丁目14番地,1F,バリアフリートイレ,設備: 車椅子対応,#00cc00,139.680818,35.714959
新宿区立北新宿公園,東京都 新宿区北新宿三丁目20番地,1F,バリアフリートイレ,設備: 車椅子対応,#00cc00,139.688662,35.702568
新宿区立花園公園,東京都 新宿区新宿1丁目21番地,1F,バリアフリートイレ,設備: 車椅子対応,#00cc00,139.713293,35.688971
新宿区立やよい公園,東京都 新宿区中落合3−14,1F,バリアフリートイレ,"設備: 車椅子対応, オストメイト対応, おむつ交換台",#00cc00,139.689805,35.721804
新宿区立高田馬場公園,東京都 新宿区高田馬場四丁目22番,1F,バリアフリートイレ,"設備: 車椅子対応, オストメイト対応, おむつ交換台",#00cc00,139.701029,35.710865
みょうが坂児童遊園,東京都 新宿区四谷四丁目23番,1F,バリアフリートイレ,"設備: 車椅子対応, オストメイト対応, おむつ交換台",#00cc00,139.715962,35.690455
戸塚公園トイレ,東京都 新宿区高田馬場３丁目４０番,1F,バリアフリートイレ,"設備: 車椅子対応, オストメイト対応, おむつ交換台",#00cc00,139.6961089,35.71301527
西早稲田児童遊園トイレ,東京都 新宿区西早稲田三丁目２０番,1F,バリアフリートイレ,"設備: 車椅子対応, オストメイト対応, おむつ交換台",#00cc00,139.7117687,35.71193516
新宿区立合羽坂上公衆便所,東京都 新宿区市谷仲之町4番地,1F,バリアフリートイレ,設備: 車椅子対応,#00cc00,139.724625,35.695436
新宿区立矢来交番脇公衆便所,東京都 新宿区東榎町2番地,1F,バリアフリートイレ,設備: 車椅子対応,#00cc00,139.730659,35.704582
新宿区立御苑前公衆便所,東京都 新宿区内藤町87番地,1F,バリアフリートイレ,公衆便所の位置は建物正面入り口の右側（手前）です。 | 設備: 車椅子対応,#00cc00,139.714153,35.687495
新宿区立太宗寺内公衆便所,東京都 新宿区新宿二丁目9番地,1F,バリアフリートイレ,"設備: 車椅子対応, オストメイト対応, おむつ交換台",#00cc00,139.709148,35.690183
新宿区立新宿駅東南口公衆便所,東京都 新宿区新宿三丁目37番地,1F,バリアフリートイレ,"設備: 車椅子対応, おむつ交換台",#00cc00,139.701485,35.689634
新宿区立戸山公衆便所,東京都 新宿区戸山二丁目33番地,1F,バリアフリートイレ,設備: 車椅子対応,#00cc00,139.709328,35.700947
新宿区立四村橋脇公衆便所,東京都 新宿区西落合二丁目19番地,1F,バリアフリートイレ,"　７月１日〜　７月３１日（全日）　７：００〜１９：００、　８月１日〜　９月３０日（全日）　８：００〜１８：００、１０月１日〜１１月３０日（全日）　９：００〜１７：００、１２月１日〜　１月３１日（全日）　８：００〜１６：００。年末年始（１２月２９日〜１月３日）は閉鎖のため利用不可 | 設備: 車椅子対応, オストメイト対応, おむつ交換台",#00cc00,139.676475,35.720169
新宿区立新宿西口地下第二公衆便所,東京都 新宿区西新宿一丁目西口地下街,B1F,バリアフリートイレ,設備: 車椅子対応,#00cc00,139.698093,35.692167
新宿区立西武新宿駅前公衆便所,東京都 新宿区歌舞伎町一丁目30番地,1F,バリアフリートイレ,設備: 車椅子対応,#00cc00,139.70015,35.695471
新宿区立富久町公衆便所,東京都 新宿区富久町２,1F,バリアフリートイレ,"設備: 車椅子対応, オストメイト対応, おむつ交換台",#00cc00,139.71843,35.691654
新宿スポーツセンター,東京都 新宿区大久保三丁目5番1号,1F,新宿スポーツセンター1Fだれでもトイレ1,"設備: 車椅子対応, オストメイト対応, おむつ交換台",#00cc00,139.705425,35.707119
新宿スポーツセンター,東京都 新宿区大久保三丁目5番1号,1F,新宿スポーツセンター1Fだれでもトイレ2,"設備: 車椅子対応, オストメイト対応, おむつ交換台",#00cc00,139.705526,35.707121
新宿スポーツセンター,東京都 新宿区大久保三丁目5番1号,2F,新宿スポーツセンター2Fだれでもトイレ1,"設備: 車椅子対応, おむつ交換台",#00cc00,139.705425,35.707119
新宿スポーツセンター,東京都 新宿区大久保三丁目5番1号,2F,新宿スポーツセンター2Fだれでもトイレ2,"設備: 車椅子対応, おむつ交換台",#00cc00,139.705526,35.707121
新宿スポーツセンター,東京都 新宿区大久保三丁目5番1号,3F,新宿スポーツセンター3Fだれでもトイレ1,"設備: 車椅子対応, おむつ交換台",#00cc00,139.705425,35.707119
新宿スポーツセンター,東京都 新宿区大久保三丁目5番1号,3F,新宿スポーツセンター3Fだれでもトイレ2,"設備: 車椅子対応, おむつ交換台",#00cc00,139.705526,35.707121
新宿スポーツセンター,東京都 新宿区大久保三丁目5番1号,4F,新宿スポーツセンター4Fだれでもトイレ1,"設備: 車椅子対応, おむつ交換台",#00cc00,139.705425,35.707119
新宿スポーツセンター,東京都 新宿区大久保三丁目5番1号,4F,新宿スポーツセンター4Fだれでもトイレ2,"設備: 車椅子対応, おむつ交換台",#00cc00,139.705526,35.707121
新宿スポーツセンター,東京都 新宿区大久保三丁目5番1号,5F,新宿スポーツセンター5Fだれでもトイレ1,"設備: 車椅子対応, おむつ交換台",#00cc00,139.705425,35.707119
新宿スポーツセンター,東京都 新宿区大久保三丁目5番1号,5F,新宿スポーツセンター5Fだれでもトイレ2,"設備: 車椅子対応, おむつ交換台",#00cc00,139.705526,35.707121
新宿コズミックセンター,東京都 新宿区大久保三丁目1番2号,1F,コズミック１階だれでもトイレ,"設備: 車椅子対応, オストメイト対応, おむつ交換台",#00cc00,139.708356,35.704832
新宿コズミックセンター,東京都 新宿区大久保三丁目1番2号,2F,コズミック2階だれでもトイレ,"設備: 車椅子対応, おむつ交換台",#00cc00,139.708356,35.704832
新宿コズミックセンター,東京都 新宿区大久保三丁目1番2号,3F,コズミック3階だれでもトイレ,設備: 車椅子対応,#00cc00,139.708356,35.704832
新宿コズミックセンター,東京都 新宿区大久保三丁目1番2号,4F,コズミック4階だれでもトイレ,設備: 車椅子対応,#00cc00,139.708283,35.704832
新宿コズミックセンター,東京都 新宿区大久保三丁目1番2号,5F,コズミック5階だれでもトイレ,設備: 車椅子対応,#00cc00,139.708283,35.704832
新宿コズミックセンター,東京都 新宿区大久保三丁目1番2号,6F,コズミック6階だれでもトイレ,設備: 車椅子対応,#00cc00,139.708283,35.704832
新宿コズミックセンター,東京都 新宿区大久保三丁目1番2号,7F,コズミック7階だれでもトイレ,設備: 車椅子対応,#00cc00,139.708283,35.704832
新宿コズミックセンター,東京都 新宿区大久保三丁目1番2号,8F,コズミック8階だれでもトイレ,"設備: 車椅子対応, おむつ交換台",#00cc00,139.708385,35.704851
新宿コズミックセンター,東京都 新宿区大久保三丁目1番2号,B1F,コズミックB1階だれでもトイレ,"設備: 車椅子対応, おむつ交換台",#00cc00,139.708356,35.704832
大久保スポーツプラザ,東京都 新宿区大久保三丁目7番42号,3F,大久保スポーツプラザ3階多目的トイレ,多目的トイレ名の表示あり。車椅子ピクトグラムあり | 設備: 車椅子対応,#00cc00,139.702056,35.706423
新宿区社会福祉協議会,東京都 新宿区高田馬場一丁目17番20号,1F,1階多目的トイレ,"設備: 車椅子対応, オストメイト対応, おむつ交換台",#00cc00,139.707388,35.711685
新宿区立障害者福祉センター,東京都 新宿区戸山一丁目22番2号,1F,1階多目的トイレ,"設備: 車椅子対応, オストメイト対応",#00cc00,139.717513,35.703725
新宿区立障害者福祉センター,東京都 新宿区戸山一丁目22番2号,2F,2階多目的トイレ,"設備: 車椅子対応, オストメイト対応",#00cc00,139.717513,35.703725
新宿区立障害者福祉センター,東京都 新宿区戸山一丁目22番2号,B1F,B1階多目的トイレ,設備: 車椅子対応,#00cc00,139.717513,35.703725
新宿区立障害者福祉センター,東京都 新宿区戸山一丁目22番2号,1F,1階多目的トイレ,"設備: 車椅子対応, オストメイト対応, 大型ベッド, おむつ交換台",#00cc00,139.717451,35.70370182
新宿区立障害者福祉センター,東京都 新宿区戸山一丁目22番2号,2F,2階多目的トイレ,"設備: 車椅子対応, オストメイト対応",#00cc00,139.717451,35.70370182
新宿区立障害者福祉センター,東京都 新宿区戸山一丁目22番2号,1F,1階多目的トイレ,"設備: 車椅子対応, オストメイト対応, おむつ交換台",#00cc00,139.717451,35.70370182
新宿区立高田馬場第一児童館,東京都 新宿区高田馬場三丁目18番21号,1F,1階ひろば室前多目的トイレ,設備: 車椅子対応,#00cc00,139.697779,35.714165
新宿区立高田馬場第一児童館,東京都 新宿区高田馬場三丁目18番21号,1F,1階乳幼児ルーム前親子トイレ,設備: 車椅子対応,#00cc00,139.697882,35.714199
新宿区立西落合児童館,東京都 新宿区西落合一丁目31番24号,3F,3階だれでもトイレ,"年末年始（12／29‾１／3）は休館のため使用不可 | 設備: 車椅子対応, おむつ交換台",#00cc00,139.679662,35.719759
新宿区立西落合児童館,東京都 新宿区西落合一丁目31番24号,2F,2階だれでもトイレ,"落合三世代交流サロンに有 | 設備: 車椅子対応, オストメイト対応, おむつ交換台",#00cc00,139.679572,35.719752
新宿区立富久町児童館,東京都 新宿区富久町22番地地21号,3F,3階地域開放室前多目的トイレ,"年末年始（12／29‾１／3）は休館のため使用不可。夜間、地域開放室利用がある場合は最大22時まで使用可 | 設備: 車椅子対応, おむつ交換台",#00cc00,139.715617,35.694099
薬王寺児童館,東京都 新宿区市谷薬王寺町20番40号,1F,1階だれでもトイレ,"年末年始（12／29‾１／3）は休館のため使用不可 | 設備: 車椅子対応, オストメイト対応, 大型ベッド, おむつ交換台",#00cc00,139.72473,35.69624
男女共同参画推進センター (男女共同参画推進センター),東京都 新宿区荒木町16番地,1F,多目的トイレ,設備: 車椅子対応,#00cc00,139.724819,35.691495
新宿区立子ども総合センター,東京都 新宿区新宿七丁目3番29号,1F,1階だれでもトイレ,"設備: 車椅子対応, オストメイト対応, おむつ交換台",#00cc00,139.712376,35.700993
新宿区立子ども総合センター,東京都 新宿区新宿七丁目3番29号,2F,2階だれでもトイレ,"設備: 車椅子対応, オストメイト対応, おむつ交換台",#00cc00,139.712376,35.700993
新宿区立子ども総合センター,東京都 新宿区新宿七丁目3番29号,3F,3階だれでもトイレ,"設備: 車椅子対応, オストメイト対応, おむつ交換台",#00cc00,139.712376,35.700993
新宿区立信濃町子ども家庭支援センター,東京都 新宿区信濃町20番地,4F,4階多機能トイレ,"年末年始（12／29‾１／3）は休館のため使用不可 | 設備: 車椅子対応, オストメイト対応, おむつ交換台",#00cc00,139.720193,35.683421
新宿区立榎町子ども家庭支援センター (榎町子ども家庭支援センター),東京都 新宿区榎町36番地,3F,3階だれでもトイレ,年末年始（12／29‾１／3）は休館のため使用不可 | 設備: 車椅子対応,#00cc00,139.727756,35.704541
環境学習情報センター,東京都 新宿区西新宿二丁目11番4号（新宿公園内）,2F,２階だれでもトイレ,"設備: 車椅子対応, おむつ交換台",#00cc00,139.688575,35.691064
新宿リサイクル活動センター,東京都 新宿区高田馬場四丁目10番2号,1F,1階多目的便所,"月曜日が祝日の場合は利用可、ただし翌平日が休館のため使用不可。（年末年始（12月29日〜１月３日）は使用不可。 | 設備: 車椅子対応, オストメイト対応, 大型ベッド, おむつ交換台",#00cc00,139.702954,35.712737
新宿リサイクル活動センター,東京都 新宿区高田馬場四丁目10番2号,2F,2階多目的便所,"月曜日が祝日の場合は利用可、ただし翌平日が休館のため使用不可。（年末年始（12月29日〜１月3日）は使用不可。 | 設備: 車椅子対応, おむつ交換台",#00cc00,139.702954,35.712737
西早稲田リサイクル活動センター,東京都 新宿区西早稲田三丁目19番5号,1F,多目的便所,"月曜日が祝日の場合は利用可、ただし翌平日が使用不可となる。年末年始（12月29日〜1月3日）は使用不可。 | 設備: 車椅子対応, おむつ交換台",#00cc00,139.712392,35.710974
新宿清掃事務所 (新宿清掃事務所),東京都 新宿区下落合二丁目1番1号,1F,１階南側身障者便所,設備: 車椅子対応,#00cc00,139.704627,35.71666
新宿区立防災センター,東京都 新宿区市ヶ谷仲之町2丁目42号,1F,1F多目的トイレ,"年末年始（12月29日〜1月3日）は全館休館となるため利用不可。 | 設備: 車椅子対応, オストメイト対応, おむつ交換台",#00cc00,139.723957,35.693921
新宿区立四谷スポーツスクエア,東京都 新宿区四谷一丁目6番4号,B1F,地下１階多機能トイレ,"設備: 車椅子対応, オストメイト対応, 大型ベッド",#00cc00,139.728411,35.687906
新宿区立四谷スポーツスクエア,東京都 新宿区四谷一丁目6番4号,B2F,地下２階多機能トイレ,"設備: 車椅子対応, オストメイト対応, 大型ベッド",#00cc00,139.728411,35.687906
新宿区立西新宿児童館,東京都 新宿区西新宿4-35-28,1F,多目的トイレ,設備: 車椅子対応,#00cc00,139.686902,35.686343
落合第二高齢者総合相談センター (キャンパスエール上落合),東京都 新宿区上落合２−２２−１９　２階,2F,多目的,"設備: 車椅子対応, オストメイト対応, おむつ交換台",#00cc00,139.686776,35.713989
薬王寺地域ささえあい館,東京都 新宿区市谷薬王寺町20番40号,1F,車いす使用者対応トイレ,"設備: 車椅子対応, オストメイト対応, 大型ベッド, おむつ交換台",#00cc00,139.724684,35.696143
高田馬場シニア活動館,東京都 新宿区高田馬場3丁目39番29号,1F,車いす使用者対応トイレ,"設備: 車椅子対応, オストメイト対応, おむつ交換台",#00cc00,139.695974,35.712123
信濃町シニア活動館,東京都 新宿区信濃町20番地,3F,車いす使用者対応トイレ,"設備: 車椅子対応, オストメイト対応",#00cc00,139.720151,35.683392
戸山シニア活動館,東京都 新宿区戸山2丁目27番2号,1F,車いす使用者対応トイレ,"設備: 車椅子対応, オストメイト対応, おむつ交換台",#00cc00,139.710812,35.704544
西新宿シニア活動館,東京都 新宿区西新宿4丁目8番35号,1F,車いす使用者対応トイレ,"設備: 車椅子対応, オストメイト対応",#00cc00,139.684398,35.688673
西早稲田地域交流館,東京都 新宿区西早稲田1丁目22番2号,1F,車いす使用者対応トイレ,設備: 車椅子対応,#00cc00,139.717379,35.711617
山吹町地域交流館,東京都 新宿区山吹町342番地,1F,車いす使用者対応トイレ,設備: 車椅子対応,#00cc00,139.729673,35.707946
北新宿地域交流館,東京都 新宿区北新宿2丁目3番7号,1F,車いす使用者対応トイレ,設備: 車椅子対応,#00cc00,139.690229,35.698541
本塩町地域交流館,東京都 新宿区四谷本塩町4番9号,1F,車いす使用者対応トイレ,設備: 車椅子対応,#00cc00,139.72934,35.688491