name,address,floor,toilet_name,note,color,lng,lat
杉並都税事務所,東京都 杉並区成田東五丁目39番11号,1F,車椅子使用者対応トイレ,"設備: 車椅子対応, オストメイト対応, おむつ交換台",#00cc00,139.6343111,35.6997545
玉川上水緑道,東京都 杉並区久我山1丁目６番,1F,旧岩通ガーデン(仮）トイレ,"設備: 車椅子対応, オストメイト対応, おむつ交換台",#00cc00,139.598738,35.683177
和田堀公園,東京都 杉並区松ノ木一丁目1番,1F,11号多目的トイレ,"設備: 車椅子対応, おむつ交換台",#00cc00,139.644324,35.686177
和田堀公園,東京都 杉並区堀ノ内一丁目16番,1F,14号多目的トイレ,"設備: 車椅子対応, オストメイト対応, おむつ交換台",#00cc00,139.647528,35.68647
和田堀公園,東京都 杉並区大宮二丁目23番,1F,9号多目的トイレ,設備: 車椅子対応,#00cc00,139.640202,35.683919
和田堀公園,東京都 杉並区大宮二丁目26番,1F,第一競技場北多目的トイレ,"設備: 車椅子対応, おむつ交換台",#00cc00,139.642044,35.685016
和田堀公園,東京都 杉並区堀ノ内一丁目15番,1F,第二競技場西多目的トイレ,"設備: 車椅子対応, オストメイト対応, おむつ交換台",#00cc00,139.647239,35.685231
和田堀公園,東京都 杉並区堀ノ内一丁目15番,1F,第二競技場東多目的トイレ,"設備: 車椅子対応, オストメイト対応, おむつ交換台",#00cc00,139.648777,35.68456
善福寺公園,東京都 杉並区善福寺三丁目18番18号,1F,3号トイレ,,#00cc00,139.591038,35.715095
善福寺公園,東京都 杉並区善福寺二丁目31番,1F,4号トイレ,設備: 車椅子対応,#00cc00,139.591559,35.713782
善福寺川緑地,東京都 杉並区成田西三丁目14番,1F,3号多目的トイレ,"イベント時等のみ | 設備: 車椅子対応, オストメイト対応, おむつ交換台",#00cc00,139.629848,35.692867
善福寺川緑地,東京都 杉並区成田西一丁目30番,1F,5号多目的トイレ,設備: 車椅子対応,#00cc00,139.632223,35.690553
善福寺川緑地,東京都 杉並区成田東二丁目7番,1F,6号多目的トイレ,設備: 車椅子対応,#00cc00,139.632694,35.687682
善福寺川緑地,東京都 杉並区成田東二丁目7番,1F,7号多目的トイレ,設備: 車椅子対応,#00cc00,139.635009,35.686292
善福寺川緑地,東京都 杉並区成田西三丁目1番,1F,尾崎橋北側多目的トイレ,設備: 車椅子対応,#00cc00,139.633296,35.692532
高井戸公園,東京都 杉並区久我山2-19-43,1F,１号トイレ,"設備: 車椅子対応, オストメイト対応, おむつ交換台",#00cc00,139.603839,35.684703
高井戸公園,東京都 杉並区久我山2-19-43,1F,２号トイレ,"設備: 車椅子対応, オストメイト対応, おむつ交換台",#00cc00,139.60379,35.68467
高井戸公園,東京都 杉並区久我山2-2-1,1F,４号トイレ（ｻｰﾋﾞｽｾﾝﾀｰ外側）,"設備: 車椅子対応, オストメイト対応, おむつ交換台",#00cc00,139.603575,35.681746
高井戸公園,東京都 杉並区久我山2-2-1,1F,３号トイレ（球技場横）,"設備: 車椅子対応, オストメイト対応, おむつ交換台",#00cc00,139.605266,35.682333
東京都水道局和泉庁舎（西部支所）,東京都 杉並区和泉三丁目8番10号,2F,だれでもトイレ,"設備: 車椅子対応, おむつ交換台",#00cc00,139.646118,35.675394
杉並消防署永福出張所,東京都 杉並区下高井戸二丁目21番37号,1F,だれでもトイレ,"設備: 車椅子対応, おむつ交換台",#00cc00,139.641531,35.669038
荻窪消防署下井草出張所,東京都 杉並区下井草三丁目30番10号,1F,多機能トイレ,"設備: 車椅子対応, オストメイト対応, おむつ交換台",#00cc00,139.624086,35.722496
杉並消防署　高円寺出張所,東京都 杉並区高円寺南五丁目３３番８号,1F,誰でもトイレ,"設備: 車椅子対応, オストメイト対応",#00cc00,139.655129,35.705284
杉並区役所本庁舎 (杉並区役所),東京都 杉並区阿佐谷南一丁目15番1号,1F,中棟１階バリアフリートイレ,"設備: 車椅子対応, 大型ベッド",#00cc00,139.63618,35.699742
杉並区役所本庁舎 (杉並区役所),東京都 杉並区阿佐谷南一丁目15番1号,2F,中棟２階バリアフリートイレ,"設備: 車椅子対応, おむつ交換台",#00cc00,139.63618,35.699742
杉並区役所本庁舎 (杉並区役所),東京都 杉並区阿佐谷南一丁目15番1号,3F,中棟３階バリアフリートイレ,"設備: 車椅子対応, おむつ交換台",#00cc00,139.636207,35.699865
杉並区役所本庁舎 (杉並区役所),東京都 杉並区阿佐谷南一丁目15番1号,4F,中棟４階バリアフリートイレ,"設備: 車椅子対応, オストメイト対応",#00cc00,139.636207,35.699865
杉並区役所本庁舎 (杉並区役所),東京都 杉並区阿佐谷南一丁目15番1号,5F,中棟５階バリアフリートイレ,"設備: 車椅子対応, おむつ交換台",#00cc00,139.636207,35.699865
杉並区役所本庁舎 (杉並区役所),東京都 杉並区阿佐谷南一丁目15番1号,B2F,中棟地下２階バリアフリートイレ,"設備: 車椅子対応, おむつ交換台",#00cc00,139.63618,35.699742
杉並区役所分庁舎 (杉並区役所分庁舎),東京都 杉並区成田東四丁目36番13号,1F,分庁舎バリアフリートイレ,設備: 車椅子対応,#00cc00,139.637514,35.69849
井草区民事務所,東京都 杉並区下井草四丁目30番2号,1F,１階だれでもトイレ,"設備: 車椅子対応, おむつ交換台",#00cc00,139.618898,35.723391
杉並区立井草地域区民センター,東京都 杉並区下井草五丁目7番22号,1F,1階バリアフリートイレ,"設備: 車椅子対応, オストメイト対応",#00cc00,139.616497,35.720601
杉並区立井草地域区民センター,東京都 杉並区下井草五丁目7番22号,2F,2階バリアフリートイレ,設備: 車椅子対応,#00cc00,139.616484,35.720559
杉並区立井草地域区民センター,東京都 杉並区下井草五丁目7番22号,B1F,地下1階バリアフリートイレ,設備: 車椅子対応,#00cc00,139.616497,35.720601
杉並区立四宮区民集会所,東京都 杉並区上井草二丁目28番13号,1F,多目的トイレ,設備: 車椅子対応,#00cc00,139.608675,35.72287
杉並区立八成区民集会所,東京都 杉並区井草一丁目3番2号,1F,多目的トイレ,"設備: 車椅子対応, おむつ交換台",#00cc00,139.621799,35.724397
荻窪地域区民センター,東京都 杉並区荻窪二丁目34番20号,1F,1階だれでもトイレ,"大規模改修工事に伴い、令和6年11月1から令和8年6月30日(予定)まで休館 | 設備: 車椅子対応, オストメイト対応",#00cc00,139.618972,35.698583
荻窪地域区民センター,東京都 杉並区荻窪二丁目34番20号,2F,2階だれでもトイレ,"大規模改修工事に伴い、令和6年11月1から令和8年6月30日(予定)まで休館 | 設備: 車椅子対応, 大型ベッド",#00cc00,139.618972,35.698583
荻窪地域区民センター,東京都 杉並区荻窪二丁目34番20号,B2F,地下2階だれでもトイレ,"大規模改修工事に伴い、令和6年11月1から令和8年6月30日(予定)まで休館 | 設備: 車椅子対応, おむつ交換台",#00cc00,139.618979,35.698517
本天沼区民集会所 (コミュニティふ らっと本天沼),東京都 杉並区本天沼二丁目12番10号,1F,1階だれでもトイレ,"設備: 車椅子対応, オストメイト対応, おむつ交換台",#00cc00,139.624282,35.712585
杉並区立梅里区民集会所,東京都 杉並区梅里二丁目34番20号,1F,1階バリアフリートイレ,設備: 車椅子対応,#00cc00,139.641493,35.69635
コミュニティふらっと馬橋,東京都 杉並区高円寺南三丁目29番5号,1F,1階バリアフリートイレ,"設備: 車椅子対応, オストメイト対応, おむつ交換台",#00cc00,139.64391,35.701983
高円寺北区民集会所,東京都 杉並区高円寺北三丁目25番9号,1F,だれでもトイレ,第2・4月曜日、12月28日〜1月4日は休館日で、使用不可になります。 | 設備: 車椅子対応,#00cc00,139.648395,35.707648
高井戸市民センター,東京都 杉並区高井戸東三丁目7番5号,1F,１階だれでもトイレ,"設備: 車椅子対応, オストメイト対応, 大型ベッド",#00cc00,139.616663,35.683622
高井戸市民センター,東京都 杉並区高井戸東三丁目7番5号,1F,1階温水プールだれでもトイレ,設備: 車椅子対応,#00cc00,139.616687,35.683862
高井戸市民センター,東京都 杉並区高井戸東三丁目7番5号,2F,２階だれでもトイレ,"設備: 車椅子対応, おむつ交換台",#00cc00,139.616663,35.683622
高井戸市民センター,東京都 杉並区高井戸東三丁目7番5号,3F,３階だれでもトイレ,"設備: 車椅子対応, 大型ベッド",#00cc00,139.616663,35.683622
上高井戸区民集会所,東京都 杉並区上高井戸一丁目15番5号,1F,だれでもトイレ,設備: 車椅子対応,#00cc00,139.612538,35.671111
久我山会館,東京都 杉並区久我山三丁目23番20号,1F,身体障害者用トイレ,"設備: 車椅子対応, オストメイト対応",#00cc00,139.599444,35.686645
浜田山会館,東京都 杉並区浜田山一丁目36番3号,1F,１階だれでもトイレ,"設備: 車椅子対応, オストメイト対応",#00cc00,139.630101,35.680502
永福和泉地域区民センター,東京都 杉並区和泉三丁目8番18号,1F,１階だれでもトイレ,"設備: 車椅子対応, オストメイト対応",#00cc00,139.645909,35.675696
永福和泉地域区民センター,東京都 杉並区和泉三丁目8番18号,2F,2階だれでもトイレ,"設備: 車椅子対応, おむつ交換台",#00cc00,139.645909,35.675696
永福和泉地域区民センター,東京都 杉並区和泉三丁目8番18号,3F,3階だれでもトイレ,"設備: 車椅子対応, おむつ交換台",#00cc00,139.645909,35.675696
永福和泉地域区民センター,東京都 杉並区和泉三丁目8番18号,B1F,地下1階だれでもトイレ,設備: 車椅子対応,#00cc00,139.645909,35.675696
コミュニティふらっと方南,東京都 杉並区方南一丁目27番8号,1F,1階ユニバーサルトイレ,"設備: 車椅子対応, 大型ベッド, おむつ交換台",#00cc00,139.658833,35.67666
下高井戸区民集会所,東京都 杉並区下高井戸三丁目26番1号,1F,1階だれでもトイレ,設備: 車椅子対応,#00cc00,139.636027,35.672319
方南会館,東京都 杉並区和泉四丁目42番5号,B1F,地下1階だれでもトイレ,設備: 車椅子対応,#00cc00,139.656028,35.68099
方南会館,東京都 杉並区和泉四丁目42番5号,1F,1階だれでもトイレ,R7.2月末まで工事中 | 設備: 車椅子対応,#00cc00,139.656028,35.68099
ゆうゆう荻窪館,東京都 杉並区南荻窪二丁目25番17号,1F,1階だれでもトイレ,併設施設：荻窪保育園 | 設備: 車椅子対応,#00cc00,139.612592,35.698765
ゆうゆう高円寺南館,東京都 杉並区高円寺南四丁目44番11号,4F,ゆうゆう高円寺南館だれでもトイレ,"毎月第3日曜日、年末年始（12月28日から1月4日） は休館日です。 | 設備: 車椅子対応, オストメイト対応",#00cc00,139.651186,35.70498
ゆうゆう梅里堀ノ内館,東京都 杉並区堀ノ内三丁目37番4号,1F,1階だれでもトイレ,設備: 車椅子対応,#00cc00,139.649793,35.693246
ゆうゆう久我山館,東京都 杉並区久我山五丁目8番8号,1F,1階だれでもトイレ,"併設施設：久我山保育園 | 設備: 車椅子対応, おむつ交換台",#00cc00,139.60154,35.688484
ゆうゆう久我山館,東京都 杉並区久我山五丁目8番8号,1F,1階だれでもトイレ,併設施設：久我山保育園 | 設備: 車椅子対応,#00cc00,139.60154,35.688484
ゆうゆう上荻窪館,東京都 杉並区上荻三丁目29番5号,1F,だれでもトイレ,"1階はケア24上荻、上荻会議室と併設です。2階のゆうゆう館入口まではスロープの利用となります。 | 設備: 車椅子対応, オストメイト対応",#00cc00,139.607857,35.708699
ゆうゆう下高井戸館,東京都 杉並区下高井戸四丁目19番6号,2F,2階だれでもトイレ,"本建物1階は、下高井戸児童館と併設となっております。 | 設備: 車椅子対応, おむつ交換台",#00cc00,139.630435,35.673153
ゆうゆう堀ノ内松ノ木館,東京都 杉並区松ノ木二丁目38番6号,2F,2階だれでもトイレ,エレベーターの使用ができます。 | 設備: 車椅子対応,#00cc00,139.642696,35.69207
コミュニティふらっと阿佐谷,東京都 杉並区阿佐谷北二丁目18番17号,1F,1階バリアフリートイレ,"設備: 車椅子対応, オストメイト対応, おむつ交換台",#00cc00,139.633824,35.706018
ゆうゆう四宮館,東京都 杉並区上井草二丁目28番3号,2F,2階女子トイレ内誰でもトイレ,"併設施設：四宮保育園。2階のゆうゆう館の入口まではスロープ利用となります。 | 設備: 車椅子対応, オストメイト対応",#00cc00,139.608797,35.72274
ゆうゆう今川館,東京都 杉並区今川四丁目12番10号,2F,2階だれでもトイレ,"併設施設：今川図書館 | 設備: 車椅子対応, おむつ交換台",#00cc00,139.599698,35.715679
西荻地域区民センター (西荻地域区民センター・勤労福祉会館),東京都 杉並区桃井四丁目3番2号,B2F,車椅子使用者対応トイレ,"設備: 車椅子対応, オストメイト対応, 大型ベッド",#00cc00,139.602083,35.712566
西荻地域区民センター (西荻地域区民センター・勤労福祉会館),東京都 杉並区桃井四丁目3番2号,B1F,車椅子使用者対応トイレ,"設備: 車椅子対応, オストメイト対応, おむつ交換台",#00cc00,139.602123,35.712522
西荻地域区民センター (西荻地域区民センター・勤労福祉会館),東京都 杉並区桃井四丁目3番2号,1F,車椅子使用者対応トイレ,"設備: 車椅子対応, オストメイト対応, 大型ベッド",#00cc00,139.602073,35.712501
西荻地域区民センター (西荻地域区民センター・勤労福祉会館),東京都 杉並区桃井四丁目3番2号,2F,車椅子使用者対応トイレ,"設備: 車椅子対応, オストメイト対応, おむつ交換台",#00cc00,139.602144,35.712538
西荻地域区民センター (西荻地域区民センター・勤労福祉会館),東京都 杉並区桃井四丁目3番2号,3F,車椅子使用者対応トイレ,"設備: 車椅子対応, オストメイト対応, 大型ベッド",#00cc00,139.602188,35.712531
ゆうゆう西田館,東京都 杉並区荻窪１−５６−３,1F,誰でもトイレ,設備: 車椅子対応,#00cc00,139.626919,35.695049
ゆうゆう西田館,東京都 杉並区荻窪１−５６−３,2F,誰でもトイレ,設備: 車椅子対応,#00cc00,139.62692,35.695049
コミュニティふらっと永福,東京都 杉並区永福三丁目51番17号３階,3F,バリアフリートイレ,"設備: 車椅子対応, オストメイト対応, 大型ベッド, おむつ交換台",#00cc00,139.637966,35.678388
児童青少年センター,東京都 杉並区荻窪1-56-3,1F,誰でもトイレ,"設備: 車椅子対応, おむつ交換台",#00cc00,139.627551,35.694545
天沼児童館,東京都 杉並区天沼1-6-25,1F,誰でもトイレ,設備: 車椅子対応,#00cc00,139.627155,35.705703
上高井戸児童館,東京都 杉並区高井戸東1-18-5,2F,誰でもトイレ,設備: 車椅子対応,#00cc00,139.619563,35.682707
荻窪児童館,東京都 杉並区荻窪2-40-2,1F,誰でもトイレ,"設備: 車椅子対応, おむつ交換台",#00cc00,139.622221,35.697751
桃井児童館,東京都 杉並区桃井2-10-9,1F,誰でもトイレ,"設備: 車椅子対応, おむつ交換台",#00cc00,139.610794,35.712021
堀ノ内東児童館,東京都 杉並区堀ノ内3-49-19,1F,誰でもトイレ,"設備: 車椅子対応, おむつ交換台",#00cc00,139.654003,35.692428
阿佐谷児童館,東京都 杉並区阿佐谷北1-1-1,1F,誰でもトイレ,"設備: 車椅子対応, オストメイト対応, おむつ交換台",#00cc00,139.641279,35.705347
下高井戸児童館,東京都 杉並区下高井戸4-19-6,1F,誰でもトイレ,"設備: 車椅子対応, オストメイト対応, おむつ交換台",#00cc00,139.630378,35.673171
子ども・子育てプラザ下井草,東京都 杉並区下井草3-13-9,2F,誰でもトイレ,"設備: 車椅子対応, おむつ交換台",#00cc00,139.624615,35.719411
高井戸児童館,東京都 杉並区高井戸西2-5-10,1F,誰でもトイレ,"設備: 車椅子対応, おむつ交換台",#00cc00,139.611754,35.68398
子ども・子育てプラザ和泉,東京都 杉並区和泉2-36-14,1F,誰でもトイレ,"設備: 車椅子対応, おむつ交換台",#00cc00,139.651225,35.67516
子ども・子育てプラザ成田西,東京都 杉並区成田西3-10-38,1F,誰でもトイレ,"設備: 車椅子対応, おむつ交換台",#00cc00,139.630665,35.691206
善福寺北児童館,東京都 杉並区善福寺3-13-10,1F,誰でもトイレ,"設備: 車椅子対応, おむつ交換台",#00cc00,139.592783,35.717736
四宮森児童館,東京都 杉並区上井草2-41-11,1F,誰でもトイレ,設備: 車椅子対応,#00cc00,139.608237,35.724309
子ども・子育てプラザ高円寺,東京都 杉並区高円寺南2-52-2,1F,誰でもトイレ,"設備: 車椅子対応, おむつ交換台",#00cc00,139.651742,35.702099
和田中央児童館,東京都 杉並区和田1-38-18,1F,誰でもトイレ,"設備: 車椅子対応, おむつ交換台",#00cc00,139.661142,35.692445
西荻南児童館,東京都 杉並区西荻南3-5-23,1F,誰でもトイレ,"設備: 車椅子対応, おむつ交換台",#00cc00,139.601832,35.701505
馬橋児童館,東京都 杉並区高円寺北4-2-17,1F,誰でもトイレ,設備: 車椅子対応,#00cc00,139.643467,35.705866
子ども・子育てプラザ天沼,東京都 杉並区天沼3-19-16,1F,誰でもトイレ,"設備: 車椅子対応, オストメイト対応, おむつ交換台",#00cc00,139.620965,35.710189
西荻南区民集会所,東京都 杉並区西荻北一丁目9番5号,1F,車椅子使用者対応トイレ,"設備: 車椅子対応, おむつ交換台",#00cc00,139.608874,35.704752
コミュニティふらっと成田,東京都 杉並区成田西１丁目２８番１８号,B1F,バリアフリートイレ,"設備: 車椅子対応, オストメイト対応, 大型ベッド, おむつ交換台",#00cc00,139.631301,35.690434
コミュニティふらっと東原,東京都 杉並区下井草1丁目23番23号,1F,バリアフリートイレ,"設備: 車椅子対応, おむつ交換台",#00cc00,139.631718,35.715742
セシオン杉並,東京都 杉並区梅里一丁目22番32号,B1F,バリアフリートイレ,"設備: 車椅子対応, オストメイト対応, 大型ベッド",#00cc00,139.653553,35.696671
セシオン杉並,東京都 杉並区梅里一丁目22番32号,1F,バリアフリートイレ(エントランス側),"設備: 車椅子対応, オストメイト対応, 大型ベッド",#00cc00,139.653553,35.696671
セシオン杉並,東京都 杉並区梅里一丁目22番32号,1F,バリアフリートイレ(ホール側),"ホール使用者のみ使用可 | 設備: 車椅子対応, オストメイト対応, 大型ベッド",#00cc00,139.653553,35.696671
セシオン杉並,東京都 杉並区梅里一丁目22番32号,2F,バリアフリートイレ,"設備: 車椅子対応, 大型ベッド",#00cc00,139.653553,35.696671
セシオン杉並,東京都 杉並区梅里一丁目22番32号,3F,バリアフリートイレ,"設備: 車椅子対応, 大型ベッド",#00cc00,139.653553,35.696671
阿佐谷地域区民センター,東京都 杉並区阿佐谷北一丁目1番1号,1F,バリアフリートイレ,"設備: 車椅子対応, オストメイト対応, 大型ベッド",#00cc00,139.641231,35.705339
阿佐谷地域区民センター,東京都 杉並区阿佐谷北一丁目1番1号,2F,バリアフリートイレ,"設備: 車椅子対応, オストメイト対応, おむつ交換台",#00cc00,139.641231,35.705339
阿佐谷地域区民センター,東京都 杉並区阿佐谷北一丁目1番1号,3F,バリアフリートイレ,"設備: 車椅子対応, 大型ベッド",#00cc00,139.641231,35.705339
杉並保健所,東京都 杉並区荻窪五丁目20番1号,1F,１階車いす便所,"設備: 車椅子対応, おむつ交換台",#00cc00,139.620081,35.702353
杉並保健所,東京都 杉並区荻窪五丁目20番1号,2F,２階車いす便所,"設備: 車椅子対応, オストメイト対応, おむつ交換台",#00cc00,139.620272,35.702239
杉並保健所,東京都 杉並区荻窪五丁目20番1号,4F,４階車いす便所,"設備: 車椅子対応, おむつ交換台",#00cc00,139.620242,35.702246
杉並保健所,東京都 杉並区荻窪五丁目20番1号,5F,５階車いす便所,"設備: 車椅子対応, 大型ベッド, おむつ交換台",#00cc00,139.620278,35.702193
高井戸保健センター,東京都 杉並区高井戸東三丁目20番3号,1F,だれでもトイレ,"設備: 車椅子対応, オストメイト対応",#00cc00,139.620572,35.685166
高円寺保健センター,東京都 杉並区高円寺南三丁目24番15号,1F,高円寺保健センター１階トイレ,"土曜日、日曜日、祝日、年末年始（12月29日から1月3日） は休館日です。 | 設備: 車椅子対応, オストメイト対応",#00cc00,139.645761,35.701538
上井草保健センター,東京都 杉並区上井草三丁目8番19号,1F,1階だれでもトイレ,"土曜日、日曜日、祝日、年末年始（12月29日から1月3日）は休業日です。 | 設備: 車椅子対応, オストメイト対応",#00cc00,139.601459,35.719004
和泉保健センター,東京都 杉並区和泉四丁目50番6号,1F,誰でもトイレ,"土日、祝日、年末年始（12/29〜1/3）は休業日です。 | 設備: 車椅子対応, オストメイト対応",#00cc00,139.655862,35.682669
和泉保健センター,東京都 杉並区和泉四丁目50番6号,2F,誰でもトイレ,土日、祝日、年末年始（12/29〜1/3）は休業日です。 | 設備: おむつ交換台,#00cc00,139.655862,35.682669
杉並区立高円寺図書館,東京都 杉並区高円寺南二丁目36番25号,1F,バリアフリートイレ(男女共用・All Gender),"設備: 車椅子対応, オストメイト対応, 大型ベッド",#00cc00,139.65415,35.700484
杉並区立宮前図書館,東京都 杉並区宮前五丁目5番27号,1F,だれでもトイレ,"設備: 車椅子対応, オストメイト対応, 大型ベッド, おむつ交換台",#00cc00,139.599076,35.693294
杉並区立成田図書館,東京都 杉並区成田東三丁目28番5号,1F,だれでもトイレ,設備: 車椅子対応,#00cc00,139.637375,35.694991
杉並区立西荻図書館,東京都 杉並区西荻北二丁目33番9号,1F,だれでもトイレ,"設備: 車椅子対応, オストメイト対応, おむつ交換台",#00cc00,139.605864,35.707723
杉並区立阿佐谷図書館,東京都 杉並区阿佐谷北三丁目36番14号,1F,だれでもトイレ,"設備: 車椅子対応, おむつ交換台",#00cc00,139.63333,35.71171
杉並区立南荻窪図書館,東京都 杉並区南荻窪一丁目10番2号,1F,１階東障がい者用トイレ,設備: 車椅子対応,#00cc00,139.614609,35.695114
杉並区立下井草図書館,東京都 杉並区下井草三丁目26番5号,1F,身障者トイレ,※１２月２９日、３０日は、午前９時〜午後５時となります。 | 設備: 車椅子対応,#00cc00,139.623236,35.720816
杉並区立高井戸図書館,東京都 杉並区高井戸東一丁目28番1号,1F,１階だれでもトイレ,"設備: 車椅子対応, おむつ交換台",#00cc00,139.622884,35.681635
杉並区立方南図書館,東京都 杉並区方南一丁目51番2号,1F,1階多目的トイレ,"下記の日程は方南図書館が閉館しているため、多目的トイレは利用できません。・毎月第１月曜日、第３木曜日・年末年始（１２月３１日〜１月４日）・特別整理のための４日間（毎年７月頃）※状況により変更になる場合があります。 | 設備: 車椅子対応, オストメイト対応, 大型ベッド",#00cc00,139.660197,35.679046
杉並区立今川図書館 (杉並区立今川図書館・杉並区立ゆうゆう今川館),東京都 杉並区今川四丁目12番10号,1F,1階だれでもトイレ,"設備: 車椅子対応, オストメイト対応, 大型ベッド, おむつ交換台",#00cc00,139.599881,35.71573
杉並区立今川図書館 (杉並区立今川図書館・杉並区立ゆうゆう今川館),東京都 杉並区今川四丁目12番10号,2F,２階だれでもトイレ,"設備: 車椅子対応, 大型ベッド, おむつ交換台",#00cc00,139.599867,35.715668
杉並区立中央図書館,東京都 杉並区荻窪三丁目40番23号,1F,バリアフリートイレ,"設備: 車椅子対応, オストメイト対応, 大型ベッド, おむつ交換台",#00cc00,139.626914,35.701766
杉並区立永福図書館,東京都 杉並区永福三丁目51番17号,2F,だれでもトイレ,"設備: 車椅子対応, オストメイト対応, おむつ交換台",#00cc00,139.637911,35.678541
杉並芸術会館（座・高円寺）,東京都 杉並区高円寺北二丁目1番2号,B1F,地下1階バリアフリートイレ,"音声案内は、トイレの内部にあり。 | 設備: 車椅子対応, オストメイト対応, 大型ベッド",#00cc00,139.653892,35.705944
荻窪区民事務所・産業振興センター (Daiwa荻窪タワー２階),東京都 杉並区上荻一丁目2番1号,2F,2階だれでもトイレ,○荻窪区民事務所と産業振興センターは同じフロアに位置しているため共通して使用している。○休館日：日・祝日・年末年始（12月29日〜1月3日） | 設備: 車椅子対応,#00cc00,139.622993,35.704742
郷土博物館,東京都 杉並区大宮１−２０−８,1F,だれでもトイレ,設備: 車椅子対応,#00cc00,139.645477,35.685927
郷土博物館分館 (杉並区立郷土博物館分館（西棟）),東京都 杉並区天沼3丁目23番1号,1F,だれでもトイレ,"設備: 車椅子対応, おむつ交換台",#00cc00,139.621186,35.708866
郷土博物館分館 (杉並区立郷土博物館分館（東棟）),東京都 杉並区天沼3丁目23番1号,1F,表記なし（ピクトグラムのみ）,"設備: 車椅子対応, オストメイト対応, おむつ交換台",#00cc00,139.621558,35.708694
杉並公会堂,東京都 杉並区上荻一丁目23番15号,1F,1階バリアフリートイレ,"令和６年１月９日から大規模修繕工事のため休館 | 設備: 車椅子対応, オストメイト対応, 大型ベッド",#00cc00,139.616435,35.706632
杉並公会堂,東京都 杉並区上荻一丁目23番15号,B1F,地下1階バリアフリートイレ,"令和６年１月９日から大規模修繕工事のため休館 | 設備: 車椅子対応, おむつ交換台",#00cc00,139.616455,35.706498
方南公園,東京都 杉並区方南二丁目28番24号,1F,方南公園だれでもトイレ,"公園案内板に誘導点字あり | 設備: 車椅子対応, オストメイト対応",#00cc00,139.658226,35.686174
梅里公園,東京都 杉並区梅里一丁目1番55号,1F,梅里公園だれでもトイレ,設備: 車椅子対応,#00cc00,139.653998,35.695662
梅里公園,東京都 杉並区梅里一丁目1番55号,1F,堀ノ内公衆便所（男性用）,設備: 車椅子対応,#00cc00,139.654079,35.694842
梅里公園,東京都 杉並区梅里一丁目1番55号,1F,堀ノ内公衆便所（女性用）,設備: 車椅子対応,#00cc00,139.654038,35.694864
済美公園,東京都 杉並区堀ノ内一丁目27番40号,1F,済美公園だれでもトイレ,"設備: 車椅子対応, オストメイト対応",#00cc00,139.6491,35.688079
桃園川緑道,東京都 杉並区高円寺南一丁目34番10号,1F,桃園川緑道だれでもトイレ,設備: 車椅子対応,#00cc00,139.648575,35.702931
本天沼南公園,東京都 杉並区本天沼二丁目3番10号,1F,本天沼南公園だれでもトイレ,"設備: 車椅子対応, オストメイト対応",#00cc00,139.62776,35.712389
松渓公園,東京都 杉並区荻窪一丁目39番1号,1F,松渓公園だれでもトイレ,"設備: 車椅子対応, オストメイト対応",#00cc00,139.621974,35.694985
成宗公園,東京都 杉並区成田東五丁目15番12号,1F,成宗公園だれでもトイレ,"設備: 車椅子対応, オストメイト対応",#00cc00,139.628303,35.702132
大田黒公園,東京都 杉並区荻窪三丁目33番12号,1F,大田黒公園だれでもトイレ,"設備: 車椅子対応, おむつ交換台",#00cc00,139.624553,35.700814
与謝野公園,東京都 杉並区南荻窪四丁目3番22号,1F,与謝野公園だれでもトイレ,"設備: 車椅子対応, オストメイト対応",#00cc00,139.615712,35.698797
馬橋公園,東京都 杉並区高円寺北四丁目35番5号,1F,馬橋公園だれでもトイレ,"夜間、不正使用防止のため16:50以降の使用を停止との張り紙あり | 設備: 車椅子対応, おむつ交換台",#00cc00,139.643046,35.709574
馬橋公園,東京都 杉並区高円寺北四丁目35番5号,1F,馬橋公園だれでもトイレ（管理棟）,"夜間、不正使用防止のため16:50以降の使用を停止との張り紙あり | 設備: 車椅子対応, オストメイト対応, おむつ交換台",#00cc00,139.644603,35.70955666
蚕糸の森公園,東京都 杉並区和田三丁目55番30号,1F,蚕糸の森公園だれでもトイレ,"設備: 車椅子対応, おむつ交換台",#00cc00,139.656034,35.697684
塚山公園,東京都 杉並区下高井戸五丁目23番11号,1F,塚山公園だれでもトイレ,設備: 車椅子対応,#00cc00,139.624696,35.675022
兵庫橋公園,東京都 杉並区久我山三丁目5番37号,1F,兵庫橋公園だれでもトイレ,"設備: 車椅子対応, オストメイト対応, おむつ交換台",#00cc00,139.59396,35.685441
井草森公園,東京都 杉並区井草四丁目12番1号,1F,井草森公園だれでもトイレ,"設備: 車椅子対応, おむつ交換台",#00cc00,139.612321,35.726707
柏の宮公園,東京都 杉並区浜田山二丁目5番1号,1F,柏の宮公園1階だれでもトイレ,"設備: 車椅子対応, おむつ交換台",#00cc00,139.625627,35.678921
柏の宮公園,東京都 杉並区浜田山二丁目5番1号,2F,柏の宮公園2階だれでもトイレ,"設備: 車椅子対応, おむつ交換台",#00cc00,139.626387,35.677565
天沼弁天池公園,東京都 杉並区天沼三丁目23番1号,1F,天沼弁天池公園だれでもトイレ,設備: 車椅子対応,#00cc00,139.621582,35.708726
定塚橋公園,東京都 杉並区堀ノ内二丁目1番28号,1F,定塚橋公園だれでもトイレ,"設備: 車椅子対応, おむつ交換台",#00cc00,139.653914,35.685363
新町鳥居先公園,東京都 杉並区今川四丁目11番7号,1F,新町鳥居先公園だれでもトイレ,"設備: 車椅子対応, オストメイト対応",#00cc00,139.599448,35.715766
角川庭園・幻戯山房,東京都 杉並区荻窪三丁目14番22号,1F,角川庭園・幻戯山房だれでもトイレ,"設備: 車椅子対応, オストメイト対応",#00cc00,139.624569,35.698873
松渓橋公園,東京都 杉並区荻窪二丁目40番1号,1F,松渓橋公園だれでもトイレ,"設備: 車椅子対応, オストメイト対応, おむつ交換台",#00cc00,139.622911,35.69711
三井の森公園,東京都 杉並区高井戸東一丁目28番2号,1F,三井の森公園だれでもトイレ,"設備: 車椅子対応, オストメイト対応, おむつ交換台",#00cc00,139.623148,35.679864
Aさんの庭,東京都 杉並区阿佐谷北五丁目45番13号,1F,Aさんの庭だれでもトイレ,"利用可能期間 3月、4月、9月、10月は0700_1800 | 設備: 車椅子対応, オストメイト対応",#00cc00,139.640567,35.711288
やなぎ橋公園,東京都 杉並区高井戸西一丁目31番5号,1F,やなぎ橋公園だれでもトイレ,"設備: 車椅子対応, オストメイト対応",#00cc00,139.613655,35.682545
桃井原っぱ公園,東京都 杉並区桃井三丁目8番1号,1F,桃井原っぱ公園だれでもトイレ,"設備: 車椅子対応, オストメイト対応, おむつ交換台",#00cc00,139.607199,35.714419
桃井原っぱ公園,東京都 杉並区桃井三丁目8番1号,1F,桃井原っぱ公園だれでもトイレ,"設備: 車椅子対応, オストメイト対応, おむつ交換台",#00cc00,139.608063,35.713467
高円寺北一みどり公園,東京都 杉並区高円寺北一丁目28番2号,1F,高円寺北一みどり公園だれでもトイレ,"設備: 車椅子対応, オストメイト対応",#00cc00,139.657963,35.708303
和田さくらの坂公園,東京都 杉並区和田一丁目54番28号,1F,和田さくらの坂公園だれでもトイレ,"設備: 車椅子対応, オストメイト対応",#00cc00,139.66485,35.694244
大谷戸けやき緑地,東京都 杉並区荻窪三丁目7番51号,1F,大谷戸けやき緑地だれでもトイレ,"設備: 車椅子対応, オストメイト対応",#00cc00,139.626554,35.696835
成田西ふれあい農業公園,東京都 杉並区成田西三丁目18番9号,1F,成田西ふれあい農業公園だれでもトイレ,"公園案内板に誘導点字あり | 設備: 車椅子対応, オストメイト対応, おむつ交換台",#00cc00,139.623662,35.691454
下高井戸おおぞら公園,東京都 杉並区下高井戸二丁目28番23号,1F,下高井戸おおぞら公園だれでもトイレ,"設備: 車椅子対応, オストメイト対応, おむつ交換台",#00cc00,139.637116,35.670762
下高井戸おおぞら公園,東京都 杉並区下高井戸二丁目28番23号,2F,下高井戸おおぞら公園だれでもトイレ,"設備: 車椅子対応, オストメイト対応, おむつ交換台",#00cc00,139.636928,35.670813
荻窪つどい公園,東京都 杉並区荻窪四丁目15番27号,1F,荻窪つどい公園だれでもトイレ,"公園案内板に誘導点字あり | 設備: 車椅子対応, オストメイト対応, おむつ交換台",#00cc00,139.62233,35.700114
高円寺北公園,東京都 杉並区高円寺北三丁目20番15号,1F,高円寺北公衆便所,設備: 車椅子対応,#00cc00,139.649017,35.707367
山葉名いこいの森,東京都 杉並区上井草四丁目6番10号,1F,山葉名いこいの森だれでもトイレ,"設備: 車椅子対応, オストメイト対応",#00cc00,139.594262,35.718452
荻窪公園,東京都 杉並区荻窪二丁目27番8号,1F,荻窪公園だれでもトイレ,"設備: 車椅子対応, オストメイト対応, おむつ交換台",#00cc00,139.620089,35.697717
下井草どかん公園,東京都 杉並区下井草三丁目13番21号,1F,下井草どかん公園だれでもトイレ,"設備: 車椅子対応, オストメイト対応, おむつ交換台",#00cc00,139.624969,35.719399
べんてんばし公園,東京都 杉並区和泉四丁目17番29号,1F,べんてんばし公園だれでもトイレ,"設備: 車椅子対応, オストメイト対応, おむつ交換台",#00cc00,139.652761,35.680909
たかはら公園,東京都 杉並区高円寺北一丁目10番1号,1F,たかはら公園だれでもトイレ,"設備: 車椅子対応, オストメイト対応, おむつ交換台",#00cc00,139.658039,35.705963
和泉二丁目公園,東京都 杉並区和泉二丁目45番10号,1F,和泉二丁目公園だれでもトイレ,"設備: 車椅子対応, オストメイト対応, おむつ交換台",#00cc00,139.649549,35.677117
今川一丁目公園,東京都 杉並区今川一丁目19番8号,1F,今川一丁目公園だれでもトイレ,"設備: 車椅子対応, オストメイト対応, おむつ交換台",#00cc00,139.61371,35.718445
和田中央公園,東京都 杉並区和田一丁目38番19号,1F,和田中央公園だれでもトイレ,"設備: 車椅子対応, オストメイト対応, おむつ交換台",#00cc00,139.66148,35.692238
久我山丘のある公園,東京都 杉並区久我山一丁目8番30号,1F,久我山丘のある公園だれでもトイレ,"設備: 車椅子対応, オストメイト対応, おむつ交換台",#00cc00,139.595699,35.684301
阿佐谷けやき公園,東京都 杉並区阿佐谷北1丁目1番1号,1F,バリアフリートイレ,"設備: 車椅子対応, オストメイト対応",#00cc00,139.641064,35.705484
阿佐谷けやき公園,東京都 杉並区阿佐谷北1丁目1番1号,1F,バリアフリートイレ,設備: 車椅子対応,#00cc00,139.641064,35.705484
東高円寺公衆便所,東京都 杉並区高円寺南一丁目13番8号,1F,東高円寺公衆便所,設備: 車椅子対応,#00cc00,139.65498,35.699661
桃井公園,東京都 杉並区桃井一丁目19番6号,1F,桃井公衆便所,設備: 車椅子対応,#00cc00,139.612153,35.71147
高円寺中央公園,東京都 杉並区高円寺南四丁目31番7号,1F,高円寺中央公衆便所,設備: 車椅子対応,#00cc00,139.651725,35.703711
妙正寺公園,東京都 杉並区清水三丁目21番21号,1F,妙正寺公衆便所,設備: 車椅子対応,#00cc00,139.618897,35.716912
阿佐ヶ谷駅南口公衆便所,東京都 杉並区阿佐谷南三丁目36番1号,1F,阿佐ヶ谷駅南口公衆便所,"設備: 車椅子対応, 大型ベッド",#00cc00,139.636224,35.704277
西永福公衆便所,東京都 杉並区永福三丁目36番1号,1F,西永福公衆便所,"設備: 車椅子対応, おむつ交換台",#00cc00,139.63573,35.678574
松庵梅林公園,東京都 杉並区松庵二丁目23番1号,1F,バリアフリートイレ,"設備: 車椅子対応, オストメイト対応, おむつ交換台",#00cc00,139.59296,35.699309
切通し公園,東京都 杉並区上井草四丁目3番10号,1F,バリアフリートイレ,"設備: 車椅子対応, オストメイト対応, おむつ交換台",#00cc00,139.597047,35.717603
大宮前公園,東京都 杉並区宮前三丁目15番10号,1F,バリアフリートイレ,"設備: 車椅子対応, オストメイト対応, おむつ交換台",#00cc00,139.606013,35.696807
杉並障害者福祉会館,東京都 杉並区高井戸東四丁目10番5号,1F,1階多目的便所,"設備: 車椅子対応, オストメイト対応, 大型ベッド",#00cc00,139.617823,35.689619
杉並障害者福祉会館,東京都 杉並区高井戸東四丁目10番5号,2F,2階多目的便所,設備: 車椅子対応,#00cc00,139.617847,35.68961
杉並障害者福祉会館,東京都 杉並区高井戸東四丁目10番5号,3F,3階多目的便所,"設備: 車椅子対応, オストメイト対応",#00cc00,139.617847,35.68961
杉並障害者福祉会館,東京都 杉並区高井戸東四丁目10番5号,4F,4階多目的便所,設備: 車椅子対応,#00cc00,139.617818,35.68964
和田障害者交流館・和田区民集会所併設施設,東京都 杉並区和田二丁目31番21号,1F,１階女性用トイレ（交流館）,第1月曜日・ 第3月曜日、年末年始（12月28日から1月4日）は休館日です。 | 設備: 車椅子対応,#00cc00,139.657651,35.691082
和田障害者交流館・和田区民集会所併設施設,東京都 杉並区和田二丁目31番21号,1F,１階男性用トイレ（交流館）,"毎月第1・第3月曜日、年末年始（12月28日から1月4日）は休館日です。 | 設備: 車椅子対応, オストメイト対応",#00cc00,139.657629,35.691077
和田障害者交流館・和田区民集会所併設施設,東京都 杉並区和田二丁目31番21号,1F,１階男性用トイレ（集会所）,毎月第1・第3月曜日、年末年始（12月28日から1月4日）は休館日です。 | 設備: 車椅子対応,#00cc00,139.658031,35.69116
杉並福祉事務所高円寺事務所・高円寺障害者交流館,東京都 杉並区高円寺南二丁目24番18号,1F,1階南側バリアフリートイレ,"毎月第3月曜日（休日にあたる場合はその翌日）、年末年始（12月28日から1月4日） は休館日です。 | 設備: 車椅子対応, オストメイト対応",#00cc00,139.649164,35.700589
杉並福祉事務所高円寺事務所・高円寺障害者交流館,東京都 杉並区高円寺南二丁目24番18号,1F,１階北側バリアフリートイレ,"毎月第3月曜日（休日にあたる場合はその翌日）、年末年始（12月28日から1月4日） は休館日です。 | 設備: 車椅子対応, 大型ベッド",#00cc00,139.649161,35.700567
杉並福祉事務所高円寺事務所・高円寺障害者交流館,東京都 杉並区高円寺南二丁目24番18号,2F,２階バリアフリートイレ,"土日、祝日、年末年始（12/29〜1/3）は休館日です。 | 設備: 車椅子対応, おむつ交換台",#00cc00,139.649157,35.700548
杉並福祉事務所高円寺事務所・高円寺障害者交流館,東京都 杉並区高円寺南二丁目24番18号,3F,３階バリアフリートイレ,土日、祝日、年末年始（12/29〜1/3）は休館日です。 | 設備: 車椅子対応,#00cc00,139.649174,35.700545
杉並福祉事務所高円寺事務所・高円寺障害者交流館,東京都 杉並区高円寺南二丁目24番18号,B1F,地下１階バリアフリートイレ,毎月第3月曜日（休日にあたる場合はその翌日）、年末年始（12月28日から1月4日） は休館日です。 | 設備: 車椅子対応,#00cc00,139.649181,35.700586
ウェルファーム杉並複合施設棟,東京都 杉並区天沼三丁目19番16号,1F,ウェルファーム（子育てプラザ）,"毎月第一日曜、祝日、年末年始（12/29〜1/3）は休業日 | 設備: 車椅子対応, オストメイト対応, おむつ交換台",#00cc00,139.620935,35.710242
ウェルファーム杉並複合施設棟,東京都 杉並区天沼三丁目19番16号,1F,ウェルファーム杉並１階,"土日、祝日、年末年始（12/29〜1/3）は休業日です。 | 設備: 車椅子対応, オストメイト対応, おむつ交換台",#00cc00,139.620495,35.710189
ウェルファーム杉並複合施設棟,東京都 杉並区天沼三丁目19番16号,2F,ウェルファーム杉並２階,"土日、祝日、年末年始（12/29〜1/3）は休業日です。 | 設備: 車椅子対応, オストメイト対応, おむつ交換台",#00cc00,139.620495,35.710189
ウェルファーム杉並複合施設棟,東京都 杉並区天沼三丁目19番16号,3F,ウェルファーム杉並３階,"土日、祝日、年末年始（12/29〜1/3）は休業日です。 | 設備: 車椅子対応, オストメイト対応, おむつ交換台",#00cc00,139.620495,35.710189
ウェルファーム杉並複合施設棟,東京都 杉並区天沼三丁目19番16号,4F,ウェルファーム杉並４階,"第二・第四・第五月曜日は、天沼区民集会所が開いているため、だれでもトイレは21時まで使用できます。※館内のいずれの施設も祝日（天沼区民集会所は開館）、年末年始（12/29〜1/3。天沼区民集会所は12/28〜1/4）は休館です。 | 設備: 車椅子対応, オストメイト対応, 大型ベッド",#00cc00,139.62067,35.709895
高井戸福祉事務所,東京都 杉並区高井戸東三丁目26番10号,1F,1階バリアフリートイレ,"設備: 車椅子対応, オストメイト対応, 大型ベッド",#00cc00,139.616283,35.685749
高井戸福祉事務所,東京都 杉並区高井戸東三丁目26番10号,2F,2階バリアフリートイレ,"設備: 車椅子対応, おむつ交換台",#00cc00,139.61615,35.685724
産業商工会館,東京都 杉並区阿佐谷南三丁目2番19号,1F,1階だれでもトイレ,"設備: 車椅子対応, おむつ交換台",#00cc00,139.635357,35.701774
上井草スポーツセンター (TAC杉並区上井草スポーツセンター),東京都 杉並区上井草3-34-1,1F,多目的トイレ,"設備: 車椅子対応, オストメイト対応",#00cc00,139.602232,35.724002
上井草スポーツセンター (TAC杉並区上井草スポーツセンター),東京都 杉並区上井草3-34-1,2F,障がい者用トイレ,設備: 車椅子対応,#00cc00,139.602412,35.723535
上井草スポーツセンター (TAC杉並区上井草スポーツセンター),東京都 杉並区上井草3-34-1,B1F,障がい者用トイレ,設備: 車椅子対応,#00cc00,139.60226,35.724093
荻窪体育館,東京都 杉並区荻窪3−47−2,1F,だれでもトイレ,"※盲人用誘導路マットあり | 設備: 車椅子対応, おむつ交換台",#00cc00,139.626753,35.702689
荻窪体育館,東京都 杉並区荻窪3−47−2,B1F,だれでもトイレ,"※盲人用誘導路マットあり | 設備: 車椅子対応, おむつ交換台",#00cc00,139.627155,35.702614
高円寺体育館 (高円寺みんなの体育館),東京都 杉並区高円寺南二丁目36番31号,2F,だれでもトイレ,設備: 車椅子対応,#00cc00,139.65418,35.699863
妙正寺体育館 (TAC杉並区妙正寺体育館),東京都 杉並区清水3-20-12,1F,1Fトイレ,"設備: 車椅子対応, オストメイト対応, おむつ交換台",#00cc00,139.617717,35.718439
妙正寺体育館 (TAC杉並区妙正寺体育館),東京都 杉並区清水3-20-12,B1F,B1Fトイレ,"設備: 車椅子対応, おむつ交換台",#00cc00,139.617744,35.71848
永福体育館 (TAC杉並区永福体育館),東京都 杉並区永福1-7-6,1F,誰でもトイレ,"年末年始（12/28〜1/4）および毎月第2水曜日は休館日につき使用できません。 | 設備: 車椅子対応, オストメイト対応, おむつ交換台",#00cc00,139.643223,35.669665
大宮前体育館,東京都 杉並区南荻窪２−１−１,1F,誰でもトイレ,"設備: 車椅子対応, オストメイト対応, おむつ交換台",#00cc00,139.610757,35.696667
大宮前体育館,東京都 杉並区南荻窪２−１−１,B1F,誰でもトイレ,設備: 車椅子対応,#00cc00,139.610664,35.697117
大宮前体育館,東京都 杉並区南荻窪２−１−１,B2F,誰でもトイレ,設備: 車椅子対応,#00cc00,139.610526,35.696978
和田堀公園プール,東京都 杉並区大宮２−２−１０,1F,車いすトイレ,7/1〜9/10　9時〜18時　ナイター営業はなし。 | 設備: 車椅子対応,#00cc00,139.641456,35.681911
和田堀公園野球場,東京都 杉並区大宮１−６,駐車場,誰でもトイレ,"設備: 車椅子対応, オストメイト対応, おむつ交換台",#00cc00,139.642681,35.683462
杉並区農福連携農園（管理棟）,東京都 杉並区井草3丁目１９番２３号,1F,誰でもトイレ,"設備: 車椅子対応, 大型ベッド",#00cc00,139.61711,35.727318
杉並区農福連携農園（倉庫棟）,東京都 杉並区井草3丁目１９番２３号,1F,誰でもトイレ,"設備: 車椅子対応, オストメイト対応, 大型ベッド",#00cc00,139.61711,35.727318