name,address,floor,toilet_name,note,color,lng,lat
墨田都税事務所,東京都 墨田区業平一丁目7番4号,1F,車椅子使用者対応トイレ,"設備: 車椅子対応, オストメイト対応, おむつ交換台",#00cc00,139.809143,35.70787
東京都江戸東京博物館,東京都 墨田区横網一丁目4番1号,1F,エレベータ側,"大規模改修の為、令和４年４月１日〜令和７年度中（予定）まで休館中。 | 設備: 車椅子対応, オストメイト対応, おむつ交換台",#00cc00,139.7957,35.69647
東京都江戸東京博物館,東京都 墨田区横網一丁目4番1号,1F,外裏側,"大規模改修の為、令和４年４月１日〜令和７年度中（予定）まで休館中。 | 設備: 車椅子対応, オストメイト対応",#00cc00,139.7958,35.69691
東京都江戸東京博物館,東京都 墨田区横網一丁目4番1号,1F,救護室側,"大規模改修の為、令和４年４月１日〜令和７年度中（予定）まで休館中。 | 設備: 車椅子対応, オストメイト対応, おむつ交換台",#00cc00,139.7958,35.69665
東京都江戸東京博物館,東京都 墨田区横網一丁目4番1号,3F,チケット売場横,"大規模改修の為、令和４年４月１日〜令和７年度中（予定）まで休館中。 | 設備: 車椅子対応, オストメイト対応, おむつ交換台",#00cc00,139.7957,35.69677
東京都江戸東京博物館,東京都 墨田区横網一丁目4番1号,5F,5階西側エスカレータ横,"大規模改修の為、令和４年４月１日〜令和７年度中（予定）まで休館中。 | 設備: 車椅子対応, オストメイト対応, おむつ交換台",#00cc00,139.7956,35.69675
東京都江戸東京博物館,東京都 墨田区横網一丁目4番1号,5F,案内所裏側,"大規模改修の為、令和４年４月１日〜令和７年度中（予定）まで休館中。 | 設備: 車椅子対応, オストメイト対応, おむつ交換台",#00cc00,139.7958,35.69627
東京都江戸東京博物館,東京都 墨田区横網一丁目4番1号,5F,東側水飲み処横,"大規模改修の為、令和４年４月１日〜令和７年度中（予定）まで休館中。 | 設備: 車椅子対応, オストメイト対応, おむつ交換台",#00cc00,139.7965,35.69623
東京都江戸東京博物館,東京都 墨田区横網一丁目4番1号,6F,6階西側エスカレータ横,"大規模改修の為、令和４年４月１日〜令和７年度中（予定）まで休館中。 | 設備: 車椅子対応, オストメイト対応, おむつ交換台",#00cc00,139.7957,35.69676
東京都江戸東京博物館,東京都 墨田区横網一丁目4番1号,7F,和食処前,"大規模改修の為、令和４年４月１日〜令和７年度中（予定）まで休館中。 | 設備: 車椅子対応, オストメイト対応, おむつ交換台",#00cc00,139.7956,35.69639
地方独立行政法人東京都立病院機構　東京都立墨東病院 (病棟),東京都 墨田区江東橋四丁目23番15号,1F,１階多目的トイレ,"設備: 車椅子対応, 大型ベッド, おむつ交換台",#00cc00,139.818952,35.694554
東白鬚公園,東京都 墨田区堤通二丁目2番2号,1F,公園中央トイレ,"設備: 車椅子対応, オストメイト対応, おむつ交換台",#00cc00,139.813864,35.733624
東白鬚公園,東京都 墨田区堤通二丁目2番2号,1F,公園南トイレ,"設備: 車椅子対応, オストメイト対応, おむつ交換台",#00cc00,139.811966,35.72915
東白鬚公園,東京都 墨田区堤通二丁目2番1号,1F,公園北トイレ,"設備: 車椅子対応, オストメイト対応, おむつ交換台",#00cc00,139.81688,35.737694
横網町公園,東京都 墨田区横網二丁目3番25号,1F,復興記念館便所,"2019年2月1日から2月28日は工事のため閉館 | 設備: 車椅子対応, おむつ交換台",#00cc00,139.796874,35.699951
横網町公園,東京都 墨田区横網二丁目3番25号,1F,西門トイレ,"設備: 車椅子対応, オストメイト対応, おむつ交換台",#00cc00,139.795551,35.699272
向島百花園,東京都 墨田区東向島三丁目18番3号,1F,入口横トイレ,"通常虫聞きの会は8月最終週の木〜日4日間、月見の会は中秋の名月とその前後1日の3日間実施 | 設備: 車椅子対応, オストメイト対応",#00cc00,139.815271,35.724189
向島百花園,東京都 墨田区東向島三丁目18番3号,1F,児童遊園,"設備: 車椅子対応, オストメイト対応, おむつ交換台",#00cc00,139.815293,35.724158
都営浅草線本所吾妻橋駅,東京都 墨田区吾妻橋三丁目7番16号先,B1F,だれでもトイレ,"設備: 車椅子対応, オストメイト対応, おむつ交換台",#00cc00,139.804465,35.708358
都営浅草線本所吾妻橋駅,東京都 墨田区吾妻橋三丁目7番16号先（南行コンコース）,B1F,だれでもトイレ,"設備: 車椅子対応, オストメイト対応, 大型ベッド",#00cc00,139.804475,35.708419
都営新宿線菊川駅,東京都 墨田区菊川三丁目16番2号,B1F,だれでもトイレ,"設備: 車椅子対応, オストメイト対応, 大型ベッド",#00cc00,139.80556,35.688422
都営大江戸線両国駅,東京都 墨田区横網一丁目4番29号,B1F,だれでもトイレ,"設備: 車椅子対応, オストメイト対応, おむつ交換台",#00cc00,139.797477,35.696873
東京都水道局墨田営業所 (東京都水道局墨田営業所庁舎),東京都 墨田区千歳二丁目2番11号,1F,１階だれでもトイレ,"設備: 車椅子対応, オストメイト対応, おむつ交換台",#00cc00,139.795839,35.690458
本所消防署錦糸町出張所,東京都 墨田区江東橋一丁目16番5号,1F,誰でもトイレ,"設備: 車椅子対応, オストメイト対応, おむつ交換台",#00cc00,139.8098216,35.69609471
墨田区役所,東京都 墨田区吾妻橋一丁目23番20号,12F,１２階車いす対応トイレ,第２・第４日曜日は一部開館　祝日、年末年始は休館 | 設備: 車椅子対応,#00cc00,139.801307,35.710644
墨田区役所,東京都 墨田区吾妻橋一丁目23番20号,15F,１５階車いす対応トイレ,第２・第４日曜日は一部開館　祝日、年末年始は休館 | 設備: 車椅子対応,#00cc00,139.801307,35.710644
墨田区役所,東京都 墨田区吾妻橋一丁目23番20号,18F,１８階車いす対応トイレ,第２・第４日曜日は一部開館　祝日、年末年始は休館 | 設備: 車椅子対応,#00cc00,139.801307,35.710644
墨田区役所,東京都 墨田区吾妻橋一丁目23番20号,1F,１階だれでもトイレ,"第２・第４日曜日は一部開館　祝日、年末年始は休館 | 設備: 車椅子対応, オストメイト対応, 大型ベッド, おむつ交換台",#00cc00,139.801334,35.710539
墨田区役所,東京都 墨田区吾妻橋一丁目23番20号,1F,１階車いす対応トイレ,"第２・第４日曜日は一部開館　祝日、年末年始は休館 | 設備: 車椅子対応, おむつ交換台",#00cc00,139.801307,35.710644
墨田区役所,東京都 墨田区吾妻橋一丁目23番20号,2F,２階車いす対応トイレ,第２・第４日曜日は一部開館　祝日、年末年始は休館 | 設備: 車椅子対応,#00cc00,139.801307,35.710644
墨田区役所,東京都 墨田区吾妻橋一丁目23番20号,3F,３階車いす対応トイレ,第２・第４日曜日は一部開館　祝日、年末年始は休館 | 設備: 車椅子対応,#00cc00,139.801307,35.710644
墨田区役所,東京都 墨田区吾妻橋一丁目23番20号,7F,７階車いす対応トイレ,第２・第４日曜日は一部開館　祝日、年末年始は休館 | 設備: 車椅子対応,#00cc00,139.801307,35.710644
横川出張所,東京都 墨田区横川五丁目10番1号111,1F,1階車いす対応トイレ,祝日、年末年始は休館  | 設備: 車椅子対応,#00cc00,139.816389,35.705927
八広地域プラザ,東京都 墨田区八広四丁目35番17号,1F,１階だれでもトイレ,"第３月曜日は休館（祝日の場合は翌日が休館） | 設備: 車椅子対応, オストメイト対応, おむつ交換台",#00cc00,139.829337,35.723478
八広地域プラザ,東京都 墨田区八広四丁目35番17号,2F,２階だれでもトイレ,"第３月曜日は休館（祝日の場合は翌日が休館） | 設備: 車椅子対応, オストメイト対応, おむつ交換台",#00cc00,139.829296,35.723403
本所地域プラザ,東京都 墨田区本所一丁目13番4号,1F,１階だれでもトイレ,"第３月曜日は休館（祝日の場合は翌日が休館） | 設備: 車椅子対応, オストメイト対応",#00cc00,139.798797,35.703099
本所地域プラザ,東京都 墨田区本所一丁目13番4号,3F,３階だれでもトイレ,第３月曜日は休館（祝日の場合は翌日が休館） | 設備: 車椅子対応,#00cc00,139.798797,35.703099
横川コミュニティ会館,東京都 墨田区横川五丁目9番1号,2F,２階だれでもトイレ,"休館日　第３木曜日、年末年始 | 設備: 車椅子対応, おむつ交換台",#00cc00,139.817496,35.705118
横川コミュニティ会館,東京都 墨田区横川五丁目9番1号,3F,３階だれでもトイレ,"休館日　第３木曜日、年末年始 | 設備: 車椅子対応, おむつ交換台",#00cc00,139.817404,35.705118
横川コミュニティ会館,東京都 墨田区横川五丁目9番1号,4F,４階だれでもトイレ,"休館日　第３木曜日、年末年始 | 設備: 車椅子対応, おむつ交換台",#00cc00,139.817404,35.705076
梅若橋コミュニティ会館,東京都 墨田区堤通二丁目9番1号,1F,１階だれでもトイレ,"休館日　第３木曜日、年末年始 | 設備: 車椅子対応, おむつ交換台",#00cc00,139.816656,35.735354
梅若橋コミュニティ会館,東京都 墨田区堤通二丁目9番1号,2F,２階だれでもトイレ,"休館日　第３木曜日、年末年始 | 設備: 車椅子対応, おむつ交換台",#00cc00,139.816656,35.735354
東駒形コミュニティ会館,東京都 墨田区東駒形四丁目14番1号,1F,１階だれでもトイレ,"休館日　第３木曜日、年末年始 | 設備: 車椅子対応, おむつ交換台",#00cc00,139.807771,35.705476
ひきふね図書館,東京都 墨田区京島一丁目36番5号,2F,２階だれでもトイレ1,"祝日は9：00〜17：00まで開館　毎月第３木曜日、特別整理期間、年末年始は休館 | 設備: 車椅子対応, オストメイト対応, 大型ベッド, おむつ交換台",#00cc00,139.819673,35.717059
ひきふね図書館,東京都 墨田区京島一丁目36番5号,2F,２階だれでもトイレ2,"祝日は9:00〜17:00まで開館　毎月第３木曜日、特別整理期間、年末年始は休館（こどもとしょしつは平日9:00〜18:00まで） | 設備: 車椅子対応, 大型ベッド, おむつ交換台",#00cc00,139.819261,35.716857
ひきふね図書館,東京都 墨田区京島一丁目36番5号,3F,３階だれでもトイレ,"祝日は9：00〜17：00まで開館　毎月第３木曜日、特別整理期間、年末年始は休館 | 設備: 車椅子対応, 大型ベッド, おむつ交換台",#00cc00,139.819467,35.717003
ひきふね図書館,東京都 墨田区京島一丁目36番5号,4F,４階だれでもトイレ,"祝日は9：00〜17：00まで開館　毎月第３木曜日、特別整理期間、年末年始は休館 | 設備: 車椅子対応, 大型ベッド, おむつ交換台",#00cc00,139.819467,35.717003
ひきふね図書館,東京都 墨田区京島一丁目36番5号,5F,５階だれでもトイレ,"祝日は9：00〜17：00まで開館　毎月第３木曜日、特別整理期間、年末年始は休館 | 設備: 車椅子対応, 大型ベッド, おむつ交換台",#00cc00,139.819466,35.717026
緑図書館,東京都 墨田区緑二丁目24番5号,1F,１階だれでもトイレ,"祝日は9:00〜17:00まで開館　毎月第３木曜日、特別整理期間、年末年始は休館 | 設備: 車椅子対応, オストメイト対応",#00cc00,139.80047,35.695773
八広図書館,東京都 墨田区八広五丁目10番1-104号,1F,１階だれでもトイレ,"祝日は9：00〜17：00まで開館　毎月第３木曜日、特別整理期間、年末年始は休館 | 設備: 車椅子対応, おむつ交換台",#00cc00,139.825816,35.724764
立花図書館,東京都 墨田区立花六丁目8番1-101号,1F,１階だれでもトイレ,"祝日は9：00〜17：00まで開館　毎月第３木曜日、特別整理期間、年末年始は休館 | 設備: 車椅子対応, おむつ交換台",#00cc00,139.834938,35.710646
みどりコミュニティセンター,東京都 墨田区緑三丁目7番3号,1F,１階だれでもトイレ,"第３月曜日は休館（休日の場合は翌日が休館） | 設備: 車椅子対応, おむつ交換台",#00cc00,139.803237,35.693553
みどりコミュニティセンター,東京都 墨田区緑三丁目7番3号,2F,２階だれでもトイレ,"第３月曜日は休館（休日の場合は翌日が休館） | 設備: 車椅子対応, おむつ交換台",#00cc00,139.803237,35.693553
みどりコミュニティセンター,東京都 墨田区緑三丁目7番3号,3F,３階だれでもトイレ,"第３月曜日は休館（休日の場合は翌日が休館） | 設備: 車椅子対応, おむつ交換台",#00cc00,139.803237,35.693553
みどりコミュニティセンター,東京都 墨田区緑三丁目7番3号,5F,５階だれでもトイレ,"第３月曜日は休館（休日の場合は翌日が休館） | 設備: 車椅子対応, おむつ交換台",#00cc00,139.803237,35.693553
みどりコミュニティセンター,東京都 墨田区緑三丁目7番3号,6F,６階だれでもトイレ,"第３月曜日は休館（休日の場合は翌日が休館） | 設備: 車椅子対応, おむつ交換台",#00cc00,139.803237,35.693553
すみだスポーツ健康センター,東京都 墨田区東墨田一丁目6番1号,1F,１階車いす対応トイレ,祝日も開館（日曜日と同じ営業時間） | 設備: 車椅子対応,#00cc00,139.830695,35.716461
すみだスポーツ健康センター,東京都 墨田区東墨田一丁目6番1号,2F,２階車いす対応トイレ,祝日も開館（日曜日と同じ営業時間） | 設備: 車椅子対応,#00cc00,139.830372,35.716509
すみだ郷土文化資料館,東京都 墨田区向島二丁目3番5号,3F,３階車いす対応トイレ,設備: 車椅子対応,#00cc00,139.805844,35.713875
すみだ生涯学習センター,東京都 墨田区東向島二丁目38番7号,1F,１階車いす対応トイレ,"第４月曜日は9-17時のみ利用可能（休日の場合は翌日） | 設備: 車椅子対応, おむつ交換台",#00cc00,139.818603,35.721243
すみだ生涯学習センター,東京都 墨田区東向島二丁目38番7号,2F,２階車いす対応トイレ,"第４月曜日は休館（休日の場合は翌日が休館） | 設備: 車椅子対応, おむつ交換台",#00cc00,139.818474,35.721144
すみだ生涯学習センター,東京都 墨田区東向島二丁目38番7号,3F,３階車いす対応トイレ,"第４月曜日は休館（休日の場合は翌日が休館） | 設備: 車椅子対応, おむつ交換台",#00cc00,139.818474,35.721144
すみだ生涯学習センター,東京都 墨田区東向島二丁目38番7号,4F,４階車いす対応トイレ1,"第４月曜日は休館（休日の場合は翌日が休館） | 設備: 車椅子対応, おむつ交換台",#00cc00,139.818474,35.721144
すみだ北斎美術館,東京都 墨田区亀沢二丁目7番2号,1F,１階だれでもトイレ,"月曜日が祝日または振替休日の場合はその翌平日が休館、年末年始は休館 | 設備: 車椅子対応, オストメイト対応, おむつ交換台",#00cc00,139.800334,35.696255
すみだリバーサイドホール,東京都 墨田区吾妻橋一丁目23番20号,2F,２階車いす対応トイレ,ホールでイベント等がある際のみ使用可 | 設備: 車椅子対応,#00cc00,139.801344,35.710268
すみだトリフォニーホール,東京都 墨田区錦糸一丁目2番3号,1F,１階車いす対応トイレ,設備: 車椅子対応,#00cc00,139.810005,35.697119
すみだトリフォニーホール,東京都 墨田区錦糸一丁目2番3号,2F,２階車いす対応トイレ1,設備: 車椅子対応,#00cc00,139.810162,35.697213
すみだトリフォニーホール,東京都 墨田区錦糸一丁目2番3号,2F,２階車いす対応トイレ2,設備: 車椅子対応,#00cc00,139.810162,35.697213
すみだトリフォニーホール,東京都 墨田区錦糸一丁目2番3号,2F,２階車いす対応トイレ3,設備: 車椅子対応,#00cc00,139.810162,35.697213
すみだトリフォニーホール,東京都 墨田区錦糸一丁目2番3号,6F,６階車いす対応トイレ,設備: 車椅子対応,#00cc00,139.810162,35.697213
すみだトリフォニーホール,東京都 墨田区錦糸一丁目2番3号,B1F,地下１階車いす対応トイレ1,設備: 車椅子対応,#00cc00,139.810162,35.697213
すみだトリフォニーホール,東京都 墨田区錦糸一丁目2番3号,B1F,地下１階車いす対応トイレ2,設備: 車椅子対応,#00cc00,139.810162,35.697213
曳舟文化センター,東京都 墨田区京島一丁目38番11号,2F,2階車椅子対応トイレ,"設備: 車椅子対応, オストメイト対応, おむつ交換台",#00cc00,139.818744,35.71833
曳舟文化センター,東京都 墨田区京島一丁目38番11号,1F,1階車椅子対応トイレ（男）,"設備: 車椅子対応, オストメイト対応",#00cc00,139.818744,35.71833
曳舟文化センター,東京都 墨田区京島一丁目38番11号,1F,1階車椅子対応トイレ（女）,"設備: 車椅子対応, オストメイト対応",#00cc00,139.818744,35.71833
すみだ産業会館 (墨田区・丸井共同開発ビル8・9階),東京都 墨田区江東橋3丁目9番10号,8F,だれでもトイレ,設備: 車椅子対応,#00cc00,139.813771,35.695121
すみだ産業会館 (墨田区・丸井共同開発ビル8・9階),東京都 墨田区江東橋3丁目9番10号,9F,だれでもトイレ,設備: 車椅子対応,#00cc00,139.813771,35.695121
両国公園,東京都 墨田区両国四丁目25番3号,1F,バリアフリートイレ,"２４時間利用可能　オストメイトは簡易式 | 設備: 車椅子対応, オストメイト対応, おむつ交換台",#00cc00,139.796132,35.693745
菊川公園,東京都 墨田区立川四丁目12番21号,1F,バリアフリートイレ,"２４時間利用可能　オストメイトは簡易式 | 設備: 車椅子対応, オストメイト対応, おむつ交換台",#00cc00,139.807665,35.691195
横川公園,東京都 墨田区東駒形四丁目18番21号,1F,バリアフリートイレ,"２４時間利用可能　オストメイトは簡易式 | 設備: 車椅子対応, オストメイト対応, おむつ交換台",#00cc00,139.806817,35.706794
業平公園,東京都 墨田区業平二丁目3番2号,1F,バリアフリートイレ,"２４時間利用可能　オストメイトは簡易式 | 設備: 車椅子対応, オストメイト対応, おむつ交換台",#00cc00,139.812642,35.706125
京島南公園,東京都 墨田区京島二丁目20番17号,1F,バリアフリートイレ,"２４時間利用可能　オストメイトは簡易式 | 設備: 車椅子対応, オストメイト対応, おむつ交換台",#00cc00,139.821899,35.713018
錦糸公園(東),東京都 墨田区錦糸四丁目15番1号,1F,バリアフリートイレ,"２４時間利用可能　オストメイトは簡易式 | 設備: 車椅子対応, オストメイト対応, おむつ交換台",#00cc00,139.817821,35.699337
新平井橋公園,東京都 墨田区東墨田一丁目6番2号,1F,バリアフリートイレ,"２４時間利用可能　オストメイトは簡易式 | 設備: 車椅子対応, オストメイト対応",#00cc00,139.830435,35.715726
旧安田庭園,東京都 墨田区横網一丁目12番1号,1F,バリアフリートイレ,"２４時間利用可能　オストメイトは簡易式 | 設備: 車椅子対応, オストメイト対応, おむつ交換台",#00cc00,139.794509,35.69855
旧安田庭園,東京都 墨田区横網一丁目12番1号,1F,だれでもトイレ(心字亭内),"設備: 車椅子対応, オストメイト対応, おむつ交換台",#00cc00,139.794125,35.698793
ふじのき公園,東京都 墨田区東向島二丁目7番5号,1F,バリアフリートイレ,"２４時間利用可能　オストメイトは簡易式 | 設備: 車椅子対応, オストメイト対応, おむつ交換台",#00cc00,139.815424,35.71734
ひいらぎ公園,東京都 墨田区八広一丁目16番11号,1F,バリアフリートイレ,"２４時間利用可能　オストメイトは簡易式 | 設備: 車椅子対応, オストメイト対応, おむつ交換台",#00cc00,139.82238,35.720225
東向島北公園,東京都 墨田区東向島四丁目12番19号,1F,バリアフリートイレ,"２４時間利用可能　オストメイトは簡易式 | 設備: 車椅子対応, オストメイト対応, おむつ交換台",#00cc00,139.815881,35.725569
堤通公園,東京都 墨田区堤通一丁目8番1号,1F,バリアフリートイレ,"２４時間利用可能　オストメイトは簡易式 | 設備: 車椅子対応, オストメイト対応, おむつ交換台",#00cc00,139.810787,35.724624
隅田公園駐車場際,東京都 墨田区向島五丁目,1F,バリアフリートイレ,"２４時間利用可能　オストメイトは簡易式 | 設備: 車椅子対応, オストメイト対応, おむつ交換台",#00cc00,139.809906,35.719325
隅田公園デッキ際,東京都 墨田区向島二丁目,1F,バリアフリートイレ,"２４時間利用可能　オストメイトは簡易式 | 設備: 車椅子対応, オストメイト対応",#00cc00,139.805397,35.714365
舟原公園,東京都 墨田区八広二丁目43番16号,1F,バリアフリートイレ,"２４時間利用可能　オストメイトは簡易式 | 設備: 車椅子対応, オストメイト対応, おむつ交換台",#00cc00,139.826825,35.71517
京島西公園,東京都 墨田区京島一丁目22番3号,1F,バリアフリートイレ,"２４時間利用可能　オストメイトは簡易式 | 設備: 車椅子対応, オストメイト対応, おむつ交換台",#00cc00,139.818722,35.715682
東向島ふじ公園,東京都 墨田区東向島二丁目46番7号,1F,バリアフリートイレ,"２４時間利用可能　オストメイトは簡易式 | 設備: 車椅子対応, オストメイト対応, おむつ交換台",#00cc00,139.818513,35.720329
横川東公園,東京都 墨田区横川五丁目2番8号,1F,バリアフリートイレ,"２４時間利用可能　オストメイトは簡易式 | 設備: 車椅子対応, オストメイト対応, おむつ交換台",#00cc00,139.817622,35.703049
文花宮前橋公園,東京都 墨田区文花一丁目32番11号,1F,バリアフリートイレ,"２４時間利用可能　オストメイトは簡易式 | 設備: 車椅子対応, オストメイト対応, おむつ交換台",#00cc00,139.823931,35.708856
曳舟さくら公園,東京都 墨田区京島一丁目40番1号,1F,バリアフリートイレ,"２４時間利用可能　オストメイトは簡易式 | 設備: 車椅子対応, オストメイト対応, おむつ交換台",#00cc00,139.820194,35.71877
八広中央公園,東京都 墨田区八広三丁目13番19号,1F,バリアフリートイレ,"２４時間利用可能　オストメイトは簡易式 | 設備: 車椅子対応, オストメイト対応, おむつ交換台",#00cc00,139.827258,35.719212
千歳公園,東京都 墨田区千歳二丁目2番1号,1F,バリアフリートイレ,"２４時間利用可能　オストメイトは簡易式 | 設備: 車椅子対応, オストメイト対応, おむつ交換台",#00cc00,139.795046,35.690375
平井橋第二公園,東京都 墨田区立花六丁目8番44号,1F,バリアフリートイレ,"２４時間利用可能　オストメイトは簡易式 | 設備: 車椅子対応, オストメイト対応, おむつ交換台",#00cc00,139.836078,35.710568
八広公園,東京都 墨田区八広五丁目10番14号,1F,バリアフリートイレ,"２４時間利用可能　オストメイトは簡易式 | 設備: 車椅子対応, オストメイト対応, おむつ交換台",#00cc00,139.82486,35.725829
竪川親水公園,東京都 墨田区江東橋三丁目1番1号,1F,バリアフリートイレ,"２４時間利用可能　オストメイトは簡易式 | 設備: 車椅子対応, オストメイト対応, おむつ交換台",#00cc00,139.813365,35.693198
白鬚公園,東京都 墨田区墨田一丁目4番42号,1F,バリアフリートイレ,"２４時間利用可能　オストメイトは簡易式 | 設備: 車椅子対応, オストメイト対応, おむつ交換台",#00cc00,139.815059,35.728078
小梅児童遊園,東京都 墨田区向島一丁目33番3号,1F,バリアフリートイレ,"２４時間利用可能　オストメイトは簡易式 | 設備: 車椅子対応, オストメイト対応, 大型ベッド",#00cc00,139.808143,35.710445
露伴児童遊園,東京都 墨田区東向島一丁目7番11号,1F,バリアフリートイレ,"２４時間利用可能　オストメイトは簡易式 | 設備: 車椅子対応, オストメイト対応, おむつ交換台",#00cc00,139.813074,35.721922
隅田児童遊園,東京都 墨田区墨田四丁目23番12号,1F,バリアフリートイレ,"２４時間利用可能　オストメイトは簡易式 | 設備: 車椅子対応, オストメイト対応, おむつ交換台",#00cc00,139.823394,35.732249
さくら児童遊園,東京都 墨田区堤通一丁目18番20号,1F,バリアフリートイレ,"２４時間利用可能　オストメイトは簡易式 | 設備: 車椅子対応, オストメイト対応, おむつ交換台",#00cc00,139.81224,35.725919
どんぐり児童遊園,東京都 墨田区緑三丁目12番19号,1F,バリアフリートイレ,"２４時間利用可能　オストメイトは簡易式 | 設備: 車椅子対応, オストメイト対応, おむつ交換台",#00cc00,139.804697,35.694579
かつら児童遊園,東京都 墨田区墨田三丁目36番13号,1F,バリアフリートイレ,"２４時間利用可能　オストメイトは簡易式 | 設備: 車椅子対応, オストメイト対応, おむつ交換台",#00cc00,139.820688,35.731337
けやき児童遊園,東京都 墨田区八広一丁目7番4号,1F,バリアフリートイレ,"２４時間利用可能　オストメイトは簡易式 | 設備: 車椅子対応, オストメイト対応, おむつ交換台",#00cc00,139.821885,35.721397
立川第二児童遊園,東京都 墨田区立川三丁目15番6号,1F,バリアフリートイレ,"２４時間利用可能　オストメイトは簡易式 | 設備: 車椅子対応, オストメイト対応, おむつ交換台",#00cc00,139.803689,35.692009
請地児童遊園,東京都 墨田区向島四丁目12番11号,1F,バリアフリートイレ,"２４時間利用可能　オストメイトは簡易式 | 設備: 車椅子対応, オストメイト対応, おむつ交換台",#00cc00,139.813421,35.717004
六軒児童遊園,東京都 墨田区立花三丁目18番12号,1F,バリアフリートイレ,"２４時間利用可能　オストメイトは簡易式 | 設備: 車椅子対応, オストメイト対応, おむつ交換台",#00cc00,139.834398,35.706101
中之郷児童遊園,東京都 墨田区押上二丁目12番1号,1F,バリアフリートイレ,"２４時間利用可能　オストメイトは簡易式 | 設備: 車椅子対応, オストメイト対応, おむつ交換台",#00cc00,139.81225,35.712326
緑と花の学習園,東京都 墨田区文花二丁目12番17号,1F,１階だれでもトイレ,"祝日、年末年始休園 | 設備: 車椅子対応, オストメイト対応",#00cc00,139.825397,35.708977
わんぱく天国,東京都 墨田区押上一丁目47番8号,1F,１階だれでもトイレ,"12月31日から1月4日まで休館 | 設備: 車椅子対応, おむつ交換台",#00cc00,139.817618,35.709268
八広第一児童遊園,東京都 墨田区八広五丁目7番6号,1F,バリアフリートイレ,"２４時間利用可能　オストメイトは簡易式ケアクリック設置 | 設備: 車椅子対応, オストメイト対応, おむつ交換台",#00cc00,139.823966,35.724305
くるみ児童遊園,東京都 墨田区業平五丁目1番1号,1F,バリアフリートイレ,"２４時間利用可能　オストメイトは簡易式ケアクリック設置 | 設備: 車椅子対応, オストメイト対応, おむつ交換台",#00cc00,139.816161,35.706257
日進公園,東京都 墨田区亀沢三丁目24番3号,1F,バリアフリートイレ,"設備: 車椅子対応, オストメイト対応, おむつ交換台",#00cc00,139.804482,35.698564
隅田公園日本庭園南,東京都 墨田区向島一丁目地内,1F,バリアフリートイレ,"設備: 車椅子対応, オストメイト対応, おむつ交換台",#00cc00,139.803862,35.71134
本四三ツ目児童遊園,東京都 墨田区本所四丁目1番4号,1F,バリアフリートイレ,"設備: 車椅子対応, オストメイト対応, おむつ交換台",#00cc00,139.805011,35.702894
若宮公園,東京都 墨田区本所二丁目2番19号,1F,バリアフリートイレ,"設備: 車椅子対応, おむつ交換台",#00cc00,139.801135,35.702289
とちのき児童遊園,東京都 墨田区緑二丁目8番12号,1F,バリアフリートイレ,"設備: 車椅子対応, おむつ交換台",#00cc00,139.801373,35.693246
隅田第二児童遊園,東京都 墨田区墨田四丁目8番14号,1F,バリアフリートイレ,"設備: 車椅子対応, おむつ交換台",#00cc00,139.821937,35.732715
隅田第二児童遊園,東京都 墨田区墨田四丁目8番14号,1F,だれでもトイレ,"設備: 車椅子対応, おむつ交換台",#00cc00,139.821937,35.732715
東墨田東公園,東京都 墨田区東墨田三丁目19番2号,1F,バリアフリートイレ,"設備: 車椅子対応, オストメイト対応, おむつ交換台",#00cc00,139.837439,35.718431
立花公園,東京都 墨田区立花一丁目27番5号,1F,バリアフリートイレ,"設備: 車椅子対応, オストメイト対応, おむつ交換台",#00cc00,139.828861,35.70497
墨田二丁目児童遊園,東京都 墨田区墨田二丁目42番4,1F,バリアフリートイレ,"設備: 車椅子対応, オストメイト対応, おむつ交換台",#00cc00,139.818787,35.732113
両国第一児童遊園,東京都 墨田区両国四丁目36番16号,1F,バリアフリートイレ,"設備: 車椅子対応, オストメイト対応, おむつ交換台",#00cc00,139.795494,35.695164
なつめ公園,東京都 墨田区東向島6丁目40番2号,1F,バリアフリートイレ,"設備: 車椅子対応, オストメイト対応, おむつ交換台",#00cc00,139.8218597,35.72442086
たちばな仲よし公園,東京都 墨田区立花5丁目19番2号,1F,バリアフリートイレ,"設備: 車椅子対応, オストメイト対応, おむつ交換台",#00cc00,139.8304235,35.71238411
こでまり児童遊園,東京都 墨田区東向島5丁目24番1号,1F,バリアフリートイレ,"設備: 車椅子対応, オストメイト対応, おむつ交換台",#00cc00,139.8217633,35.72759749
両国橋際,東京都 墨田区両国一丁目11番2号,1F,バリアフリートイレ,"２４時間利用可能　オストメイトは簡易式 | 設備: 車椅子対応, オストメイト対応, おむつ交換台",#00cc00,139.789772,35.693893
江東橋際公衆便所,東京都 墨田区江東橋一丁目8番2号,1F,バリアフリートイレ,"２４時間利用可能　オストメイトは簡易式 | 設備: 車椅子対応, オストメイト対応",#00cc00,139.809163,35.694991
江東橋公園,東京都 墨田区江東橋二丁目4番11号,1F,バリアフリートイレ,"２４時間利用可能　オストメイトは簡易式 | 設備: 車椅子対応, オストメイト対応, おむつ交換台",#00cc00,139.811341,35.693908
錦糸町駅前公衆便所,東京都 墨田区江東橋三丁目14番15号,1F,バリアフリートイレ,"２４時間利用可能　オストメイトは簡易式 | 設備: 車椅子対応, オストメイト対応, おむつ交換台",#00cc00,139.814536,35.696056
錦糸堀公園,東京都 墨田区江東橋四丁目17番8号,1F,バリアフリートイレ,"２４時間利用可能　オストメイトは簡易式 | 設備: 車椅子対応, オストメイト対応, おむつ交換台",#00cc00,139.816527,35.694883
緑町公園,東京都 墨田区亀沢二丁目7番7号,1F,バリアフリートイレ,"２４時間利用可能　オストメイトは簡易式 | 設備: 車椅子対応, オストメイト対応, おむつ交換台",#00cc00,139.800654,35.696814
まち歩きトイレ業平橋,東京都 墨田区東駒形四丁目15番18号,1F,バリアフリートイレ,"２４時間利用可能　オストメイトは簡易式 | 設備: 車椅子対応, オストメイト対応, おむつ交換台",#00cc00,139.807401,35.708502
錦糸公園内,東京都 墨田区錦糸四丁目15番1号,1F,バリアフリートイレ,"２４時間利用可能　オストメイトは簡易式 | 設備: 車椅子対応, オストメイト対応, おむつ交換台",#00cc00,139.81509,35.698551
京成橋際,東京都 墨田区業平四丁目17番4号,1F,バリアフリートイレ,"２４時間利用可能　オストメイトは簡易式 | 設備: 車椅子対応, オストメイト対応, おむつ交換台",#00cc00,139.813995,35.709468
柳島橋際,東京都 墨田区業平五丁目7番8号,1F,バリアフリートイレ,"２４時間利用可能　オストメイトは簡易式 | 設備: 車椅子対応, オストメイト対応, おむつ交換台",#00cc00,139.818316,35.70778
東武橋際,東京都 墨田区向島一丁目32番12号,1F,バリアフリートイレ,"２４時間利用可能　オストメイトは簡易式 | 設備: 車椅子対応, オストメイト対応, おむつ交換台",#00cc00,139.808324,35.709669
まち歩きトイレ言問,東京都 墨田区向島二丁目1番66号,1F,バリアフリートイレ,"２４時間利用可能　オストメイトは簡易式 | 設備: 車椅子対応, オストメイト対応, おむつ交換台",#00cc00,139.80515,35.713392
両国駅西口公衆便所,東京都 墨田区横網一丁目3番19号,1F,バリアフリートイレ,"２４時間利用可能　オストメイトは簡易式 | 設備: 車椅子対応, オストメイト対応",#00cc00,139.792019,35.696124
まち歩きトイレ錦糸,東京都 墨田区錦糸一丁目1番1号,1F,バリアフリートイレ,"２４時間利用可能　オストメイトは簡易式 | 設備: 車椅子対応, オストメイト対応, おむつ交換台",#00cc00,139.808969,35.697412
押上駅前自転車駐車場内,東京都 墨田区押上一丁目8番25号,1F,バリアフリートイレ,"２４時間利用可能　オストメイトは簡易式 | 設備: 車椅子対応, オストメイト対応, おむつ交換台",#00cc00,139.813917,35.710999
東墨田一丁目,東京都 墨田区東墨田一丁目10番28号,1F,バリアフリートイレ,"２４時間利用可能　オストメイトは簡易式 | 設備: 車椅子対応, オストメイト対応, おむつ交換台",#00cc00,139.832784,35.716234
立花五丁目,東京都 墨田区立花五丁目50番19号,1F,バリアフリートイレ,"２４時間利用可能　オストメイトは簡易式 | 設備: 車椅子対応, オストメイト対応, おむつ交換台",#00cc00,139.833487,35.713365
平井橋際,東京都 墨田区立花三丁目29番11号,1F,バリアフリートイレ,"２４時間利用可能　オストメイトは簡易式 | 設備: 車椅子対応, オストメイト対応, おむつ交換台",#00cc00,139.837197,35.708485
小村井,東京都 墨田区文花二丁目1番40号,1F,バリアフリートイレ,"設備: 車椅子対応, オストメイト対応, おむつ交換台",#00cc00,139.825395,35.708249
すみだボランティアセンター,東京都 墨田区東向島二丁目17番14号,1F,1階バリアフリートイレ,"土日祝日は使用不可 | 設備: 車椅子対応, オストメイト対応, 大型ベッド",#00cc00,139.815648,35.718426
すみだボランティアセンター,東京都 墨田区東向島二丁目17番14号,3F,3階車いす対応トイレ,祝日も使用可 | 設備: 車椅子対応,#00cc00,139.815648,35.718426
すみだ福祉保健センター,東京都 墨田区向島三丁目36番7号,1F,１階車いす対応トイレ,祝日は8：30〜17：00開館、年末年始は休館 | 設備: 車椅子対応,#00cc00,139.810886,35.713311
すみだ福祉保健センター,東京都 墨田区向島三丁目36番7号,1F,１階車いす対応トイレ,設備: 車椅子対応,#00cc00,139.810885,35.713307
すみだ福祉保健センター,東京都 墨田区向島三丁目36番7号,B1F,Ｂ１階車いす対応トイレ,,#00cc00,139.810767,35.713334
墨田区社会福祉会館,東京都 墨田区東墨田二丁目7番1号,1F,１階だれでもトイレ,"祝日及び12月29日〜1月3日利用不可 | 設備: 車椅子対応, オストメイト対応, おむつ交換台",#00cc00,139.830251,35.719067
梅若ゆうゆう館,東京都 墨田区墨田一丁目4番4号,1F,車いす対応トイレ,祝日は17：00まで　年末年始休館 | 設備: 車椅子対応,#00cc00,139.815151,35.72908
立花ゆうゆう館,東京都 墨田区立花六丁目8番1号,1F,車いす対応トイレ,祝日は17：00まで　年末年始休館 | 設備: 車椅子対応,#00cc00,139.834969,35.710599
いきいきプラザ (クレストフォルム亀戸),東京都 墨田区文花一丁目32番2号,1F,車いす対応トイレ,第３水曜日、年末年始休館 | 設備: 車椅子対応,#00cc00,139.823451,35.707543
すみだ女性センター,東京都 墨田区押上二丁目12番7号111,3F,３階車いす対応トイレ,12月29日〜1月3日利用不可 | 設備: 車椅子対応,#00cc00,139.812163,35.712918
墨田区総合運動場,東京都 墨田区堤通二丁目11番1号,1F,セミナーハウス１Fだれでもトイレ,"祝日も開館（日曜日と同じ営業時間） | 設備: 車椅子対応, オストメイト対応, おむつ交換台",#00cc00,139.816077,35.737941
墨田区総合運動場,東京都 墨田区堤通二丁目11番1号,1F,観覧場１Fだれでもトイレ,"祝日も開館（日曜日と同じ営業時間） | 設備: 車椅子対応, オストメイト対応, おむつ交換台",#00cc00,139.816194,35.73826
両国屋内プール,東京都 墨田区横網一丁目8番1号,1F,だれでもトイレ,祝日も開館（日曜日と同じ営業時間） | 設備: 車椅子対応,#00cc00,139.796324,35.697672
両国屋内プール,東京都 墨田区横網一丁目8番1号,2F,だれでもトイレ,祝日も開館（日曜日と同じ営業時間） | 設備: 車椅子対応,#00cc00,139.796428,35.697926
スポーツプラザ梅若,東京都 墨田区墨田一丁目4番4号,1F,だれでもトイレ,"祝日も開館（日曜日と同じ営業時間） | 設備: 車椅子対応, おむつ交換台",#00cc00,139.81565,35.72904
両国子育てひろば保育室 (ヒューリック両国リバーセンター１階),東京都 墨田区横網一丁目２番13号,1F,多目的トイレ,"設備: 車椅子対応, オストメイト対応, おむつ交換台",#00cc00,139.792418,35.697787
両国子育てひろば (ヒューリック両国リバーセンター２階),東京都 墨田区横網一丁目２番13号,2F,多目的トイレ,"設備: 車椅子対応, オストメイト対応, おむつ交換台",#00cc00,139.792418,35.697787
文花子育てひろば,東京都 墨田区文花一丁目20番7号,1F,だれでもトイレ,"設備: 車椅子対応, オストメイト対応, おむつ交換台",#00cc00,139.822368,35.710614
墨田区総合体育館,東京都 墨田区錦糸四丁目15番1号,1F,多目的トイレ,"設備: 車椅子対応, 大型ベッド",#00cc00,139.816798,35.699324
墨田区総合体育館,東京都 墨田区錦糸四丁目15番1号,1F,多目的トイレ,設備: 車椅子対応,#00cc00,139.816784,35.699732
墨田区総合体育館,東京都 墨田区錦糸四丁目15番1号,2F,多目的トイレ,"設備: 車椅子対応, おむつ交換台",#00cc00,139.81745,35.699316
墨田区総合体育館,東京都 墨田区錦糸四丁目15番1号,2F,多目的トイレ,"設備: 車椅子対応, オストメイト対応, 大型ベッド",#00cc00,139.817374,35.699794
墨田区総合体育館,東京都 墨田区錦糸四丁目15番1号,3F,多目的トイレ,"設備: 車椅子対応, おむつ交換台",#00cc00,139.817424,35.699292
墨田区総合体育館,東京都 墨田区錦糸四丁目15番1号,3F,多目的トイレ,"設備: 車椅子対応, オストメイト対応, 大型ベッド",#00cc00,139.817067,35.699786
墨田区総合体育館,東京都 墨田区錦糸四丁目15番1号,4F,多目的トイレ,"観客席使用時のみ利用可能 | 設備: 車椅子対応, 大型ベッド",#00cc00,139.816816,35.699305
墨田区総合体育館,東京都 墨田区錦糸四丁目15番1号,4F,多目的トイレ,"設備: 車椅子対応, オストメイト対応, 大型ベッド",#00cc00,139.817421,35.699297
墨田区総合体育館,東京都 墨田区錦糸四丁目15番1号,4F,多目的トイレ,"設備: 車椅子対応, おむつ交換台",#00cc00,139.81726,35.699804
墨田区総合体育館,東京都 墨田区錦糸四丁目15番1号,5F,多目的トイレ,"設備: 車椅子対応, オストメイト対応, 大型ベッド",#00cc00,139.817335,35.699303
墨田区弓道場,東京都 墨田区江東橋四丁目1番3号,1F,多機能トイレ,"設備: 車椅子対応, オストメイト対応",#00cc00,139.817352,35.693386
荒川河川敷運動場,東京都 墨田区墨田四丁目地先,1F,1号トイレ,"設備: 車椅子対応, オストメイト対応, おむつ交換台",#00cc00,139.82236,35.736513
荒川河川敷運動場,東京都 墨田区八広六丁目地先,1F,3号トイレ,"設備: 車椅子対応, オストメイト対応, おむつ交換台",#00cc00,139.826014,35.732205
荒川河川敷運動場,東京都 墨田区東墨田三丁目地先,1F,5号トイレ,"設備: 車椅子対応, オストメイト対応",#00cc00,139.828012,35.730235
屋外体育施設管理事務所錦糸支所,東京都 墨田区錦糸四丁目15番1号,1F,だれでもトイレ,"設備: 車椅子対応, オストメイト対応, 大型ベッド",#00cc00,139.815057,35.698556
八広児童館,東京都 墨田区東墨田一丁目2番6号,1F,だれでもトイレ,"設備: 車椅子対応, オストメイト対応, おむつ交換台",#00cc00,139.8298923,35.71752147
八広児童館,東京都 墨田区東墨田一丁目2番6号,2F,だれでもトイレ,"設備: 車椅子対応, オストメイト対応, 大型ベッド, おむつ交換台",#00cc00,139.8297945,35.71764856
八広児童館,東京都 墨田区東墨田一丁目2番6号,3F,だれでもトイレ,"設備: 車椅子対応, オストメイト対応, おむつ交換台",#00cc00,139.8298923,35.71752147
すみだ保健子育て総合センター,東京都 墨田区横川五丁目7番４号,1F,バリアフリートイレ1（東手前）,"設備: 車椅子対応, オストメイト対応, おむつ交換台",#00cc00,139.8185157,35.70515227
すみだ保健子育て総合センター,東京都 墨田区横川五丁目7番４号,1F,バリアフリートイレ2（西奥）,"設備: 車椅子対応, オストメイト対応, 大型ベッド, おむつ交換台",#00cc00,139.8185157,35.70515227
すみだ保健子育て総合センター,東京都 墨田区横川五丁目7番４号,2F,バリアフリートイレ1（西手前）,"設備: 車椅子対応, オストメイト対応, おむつ交換台",#00cc00,139.8185157,35.70515227
すみだ保健子育て総合センター,東京都 墨田区横川五丁目7番４号,2F,バリアフリートイレ2（東奥）,"設備: 車椅子対応, オストメイト対応, おむつ交換台",#00cc00,139.8185157,35.70515227
すみだ保健子育て総合センター,東京都 墨田区横川五丁目7番４号,3F,バリアフリートイレ1（西手前）,"設備: 車椅子対応, オストメイト対応, おむつ交換台",#00cc00,139.8185157,35.70515227
すみだ保健子育て総合センター,東京都 墨田区横川五丁目7番４号,3F,バリアフリートイレ2（東奥）,"設備: 車椅子対応, オストメイト対応, おむつ交換台",#00cc00,139.8185157,35.70515227
すみだ保健子育て総合センター,東京都 墨田区横川五丁目7番４号,4F,バリアフリートイレ1（西手前）,"設備: 車椅子対応, オストメイト対応, おむつ交換台",#00cc00,139.8185157,35.70515227
すみだ保健子育て総合センター,東京都 墨田区横川五丁目7番４号,4F,バリアフリートイレ2（東奥）,"設備: 車椅子対応, オストメイト対応, おむつ交換台",#00cc00,139.8185157,35.70515227