name,address,floor,toilet_name,note,color,lng,lat
台東都税事務所,東京都 台東区雷門一丁目6番1号,1F,車椅子使用者対応トイレ,"設備: 車椅子対応, オストメイト対応, 大型ベッド, おむつ交換台",#00cc00,139.792145,35.709883
東京都美術館,東京都 台東区上野公園8番地36号,1F,１階企画展示室横女,トイレ利用時間は施設の開館時間による。特別展開催中の金曜日の終了時間は20:00まで。サマーナイトミュージアム時は終了時間の延長あり。第１、第３の月曜日休館（祝日・振替休日の場合は翌平日）。＊特別展・企画展：月曜日休室（祝日・振替休日の場合は翌平日）。年末年始 | 設備: 車椅子対応,#00cc00,139.7734,35.71702
東京都美術館,東京都 台東区上野公園8番地36号,1F,１階企画展示室横男,トイレ利用時間は施設の開館時間による。特別展開催中の金曜日の終了時間は20:00まで。サマーナイトミュージアム時は終了時間の延長あり。第１、第３の月曜日休館（祝日・振替休日の場合は翌平日）。＊特別展・企画展：月曜日休室（祝日・振替休日の場合は翌平日）。年末年始 | 設備: 車椅子対応,#00cc00,139.7734,35.71702
東京都美術館,東京都 台東区上野公園8番地36号,1F,１階第１公募展示室Ｂ横,"トイレ利用時間は施設の開館時間による。特別展開催中の金曜日の終了時間は20:00まで。サマーナイトミュージアム時は終了時間の延長あり。第１、第３の月曜日休館（祝日・振替休日の場合は翌平日）。＊特別展・企画展：月曜日休室（祝日・振替休日の場合は翌平日）。年末年始 | 設備: 車椅子対応, オストメイト対応",#00cc00,139.773,35.71733
東京都美術館,東京都 台東区上野公園8番地36号,1F,１階第３公募展示室Ｂ横,"トイレ利用時間は施設の開館時間による。特別展開催中の金曜日の終了時間は20:00まで。サマーナイトミュージアム時は終了時間の延長あり。第１、第３の月曜日休館（祝日・振替休日の場合は翌平日）。＊特別展・企画展：月曜日休室（祝日・振替休日の場合は翌平日）。年末年始 | 設備: 車椅子対応, オストメイト対応",#00cc00,139.7729,35.71695
東京都美術館,東京都 台東区上野公園8番地36号,1F,カフェ横,トイレ利用時間は施設の開館時間による。特別展開催中の金曜日の終了時間は20:00まで。サマーナイトミュージアム時は終了時間の延長あり。第１、第３の月曜日休館（祝日・振替休日の場合は翌平日）。＊特別展・企画展：月曜日休室（祝日・振替休日の場合は翌平日）。年末年始 | 設備: 車椅子対応,#00cc00,139.7731,35.71752
東京都美術館,東京都 台東区上野公園8番地36号,2F,２階レストラン横,"トイレ利用時間は施設の開館時間による。特別展開催中の金曜日の終了時間は20:00まで。サマーナイトミュージアム時は終了時間の延長あり。第１、第３の月曜日休館（祝日・振替休日の場合は翌平日）。＊特別展・企画展：月曜日休室（祝日・振替休日の場合は翌平日）。年末年始 | 設備: 車椅子対応, オストメイト対応",#00cc00,139.7734,35.7175
東京都美術館,東京都 台東区上野公園8番地36号,2F,２階企画展示室横女,トイレ利用時間は施設の開館時間による。特別展開催中の金曜日の終了時間は20:00まで。サマーナイトミュージアム時は終了時間の延長あり。第１、第３の月曜日休館（祝日・振替休日の場合は翌平日）。＊特別展・企画展：月曜日休室（祝日・振替休日の場合は翌平日）。年末年始 | 設備: 車椅子対応,#00cc00,139.7734,35.71702
東京都美術館,東京都 台東区上野公園8番地36号,2F,２階企画展示室横男,トイレ利用時間は施設の開館時間による。特別展開催中の金曜日の終了時間は20:00まで。サマーナイトミュージアム時は終了時間の延長あり。第１、第３の月曜日休館（祝日・振替休日の場合は翌平日）。＊特別展・企画展：月曜日休室（祝日・振替休日の場合は翌平日）。年末年始 | 設備: 車椅子対応,#00cc00,139.7734,35.71702
東京都美術館,東京都 台東区上野公園8番地36号,2F,２階第１公募展示室Ｂ横,"トイレ利用時間は施設の開館時間による。特別展開催中の金曜日の終了時間は20:00まで。サマーナイトミュージアム時は終了時間の延長あり。第１、第３の月曜日休館（祝日・振替休日の場合は翌平日）。＊特別展・企画展：月曜日休室（祝日・振替休日の場合は翌平日）。年末年始 | 設備: 車椅子対応, オストメイト対応",#00cc00,139.773,35.71733
東京都美術館,東京都 台東区上野公園8番地36号,2F,２階第３公募展示室Ｂ横,"トイレ利用時間は施設の開館時間による。特別展開催中の金曜日の終了時間は20:00まで。サマーナイトミュージアム時は終了時間の延長あり。第１、第３の月曜日休館（祝日・振替休日の場合は翌平日）。＊特別展・企画展：月曜日休室（祝日・振替休日の場合は翌平日）。年末年始 | 設備: 車椅子対応, オストメイト対応",#00cc00,139.7729,35.71695
東京都美術館,東京都 台東区上野公園8番地36号,B3F,Ｂ3ギャラリー横女,トイレ利用時間は施設の開館時間による。特別展開催中の金曜日の終了時間は20:00まで。サマーナイトミュージアム時は終了時間の延長あり。第１、第３の月曜日休館（祝日・振替休日の場合は翌平日）。＊特別展・企画展：月曜日休室（祝日・振替休日の場合は翌平日）。年末年始 | 設備: 車椅子対応,#00cc00,139.7733,35.71692
東京都美術館,東京都 台東区上野公園8番地36号,B3F,B3ギャラリー横男,トイレ利用時間は施設の開館時間による。特別展開催中の金曜日の終了時間は20:00まで。サマーナイトミュージアム時は終了時間の延長あり。第１、第３の月曜日休館（祝日・振替休日の場合は翌平日）。＊特別展・企画展：月曜日休室（祝日・振替休日の場合は翌平日）。年末年始 | 設備: 車椅子対応,#00cc00,139.7733,35.71692
東京都美術館,東京都 台東区上野公園8番地36号,LBF,ＬＢ階企画展示室横,"トイレ利用時間は施設の開館時間による。特別展開催中の金曜日の終了時間は20:00まで。サマーナイトミュージアム時は終了時間の延長あり。第１、第３の月曜日休館（祝日・振替休日の場合は翌平日）。＊特別展・企画展：月曜日休室（祝日・振替休日の場合は翌平日）。年末年始 | 設備: 車椅子対応, オストメイト対応, 大型ベッド",#00cc00,139.7734,35.71702
東京都美術館,東京都 台東区上野公園8番地36号,LBF,ＬＢ階第１公募室Ｂ横,"トイレ利用時間は施設の開館時間による。特別展開催中の金曜日の終了時間は20:00まで。サマーナイトミュージアム時は終了時間の延長あり。第１、第３の月曜日休館（祝日・振替休日の場合は翌平日）。＊特別展・企画展：月曜日休室（祝日・振替休日の場合は翌平日）。年末年始 | 設備: 車椅子対応, オストメイト対応, 大型ベッド",#00cc00,139.7731,35.71734
東京都美術館,東京都 台東区上野公園8番地36号,LBF,ＬＢ階第２公募室Ｂ横,"トイレ利用時間は施設の開館時間による。特別展開催中の金曜日の終了時間は20:00まで。サマーナイトミュージアム時は終了時間の延長あり。第１、第３の月曜日休館（祝日・振替休日の場合は翌平日）。＊特別展・企画展：月曜日休室（祝日・振替休日の場合は翌平日）。年末年始 | 設備: 車椅子対応, オストメイト対応, 大型ベッド",#00cc00,139.773,35.71715
東京都美術館,東京都 台東区上野公園8番地36号,LBF,講堂ロビーB1女,トイレ利用時間は施設の開館時間による。特別展開催中の金曜日の終了時間は20:00まで。サマーナイトミュージアム時は終了時間の延長あり。第１、第３の月曜日休館（祝日・振替休日の場合は翌平日）。＊特別展・企画展：月曜日休室（祝日・振替休日の場合は翌平日）。年末年始 | 設備: 車椅子対応,#00cc00,139.7737,35.7173
東京都美術館,東京都 台東区上野公園8番地36号,LBF,講堂ロビーB1男,トイレ利用時間は施設の開館時間による。特別展開催中の金曜日の終了時間は20:00まで。サマーナイトミュージアム時は終了時間の延長あり。第１、第３の月曜日休館（祝日・振替休日の場合は翌平日）。＊特別展・企画展：月曜日休室（祝日・振替休日の場合は翌平日）。年末年始 | 設備: 車椅子対応,#00cc00,139.7737,35.7173
東京都美術館,東京都 台東区上野公園8番地36号,LBF,授乳室内,トイレ利用時間は施設の開館時間による。特別展開催中の金曜日の終了時間は20:00まで。サマーナイトミュージアム時は終了時間の延長あり。第１、第３の月曜日休館（祝日・振替休日の場合は翌平日）。＊特別展・企画展：月曜日休室（祝日・振替休日の場合は翌平日）。年末年始 | 設備: 車椅子対応,#00cc00,139.7733,35.71749
東京文化会館,東京都 台東区上野公園5番地45号,1F,エントランスロビー横右,"トイレ利用時間は施設の開館時間による。公演がない場合は終了時間が早まることがある。 | 設備: 車椅子対応, オストメイト対応, 大型ベッド",#00cc00,139.7755,35.71428
東京文化会館,東京都 台東区上野公園5番地45号,1F,エントランスロビー横左,"トイレ利用時間は施設の開館時間による。公演がない場合は終了時間が早まることがある。 | 設備: 車椅子対応, おむつ交換台",#00cc00,139.7755,35.71428
東京都立産業貿易センター台東館,東京都 台東区花川戸二丁目6番5号,1F,１階北側多目的トイレ,"設備: 車椅子対応, オストメイト対応, おむつ交換台",#00cc00,139.798586,35.714557
上野恩賜公園,東京都 台東区上野公園2番地,1F,11号トイレ,"設備: 車椅子対応, オストメイト対応, おむつ交換台",#00cc00,139.77226,35.709934
上野恩賜公園,東京都 台東区上野公園5番地,1F,2号トイレ,"設備: 車椅子対応, オストメイト対応, おむつ交換台",#00cc00,139.774883,35.714929
上野恩賜公園,東京都 台東区上野公園5番地6号,1F,3号トイレ,"設備: 車椅子対応, オストメイト対応, おむつ交換台",#00cc00,139.774178,35.715083
上野恩賜公園,東京都 台東区上野公園8番地22号,1F,4号トイレ,"設備: 車椅子対応, オストメイト対応, おむつ交換台",#00cc00,139.774008,35.716179
上野恩賜公園,東京都 台東区上野公園8番地51号,1F,5号トイレ,"設備: 車椅子対応, オストメイト対応, おむつ交換台",#00cc00,139.774448,35.717272
上野恩賜公園,東京都 台東区上野公園8番地4号,1F,7号トイレ,"設備: 車椅子対応, オストメイト対応, おむつ交換台",#00cc00,139.775091,35.716084
上野恩賜公園,東京都 台東区上野公園5番地,1F,8号トイレ,"設備: 車椅子対応, オストメイト対応, おむつ交換台",#00cc00,139.773689,35.714369
上野恩賜公園,東京都 台東区上野公園6番地6号,1F,10号トイレ,"設備: 車椅子対応, オストメイト対応, おむつ交換台",#00cc00,139.77789,35.716127
旧岩崎邸庭園,東京都 台東区池之端一丁目3番45号,1F,入口横トイレ,"有料公園につき、開園時間のみ、入園者のみ利用可 | 設備: 車椅子対応, おむつ交換台",#00cc00,139.766936,35.71008
旧岩崎邸庭園,東京都 台東区池之端一丁目3番45号,1F,管理棟1F便所,"有料公園につき、開園時間のみ、入園者のみ利用可 | 設備: 車椅子対応, オストメイト対応, おむつ交換台",#00cc00,139.7684228,35.70903258
旧岩崎邸庭園,東京都 台東区池之端一丁目3番45号,3F,管理棟3F便所,有料公園につき、開園時間のみ、入園者のみ利用可。簡易車椅子トイレ | 設備: 車椅子対応,#00cc00,139.7684228,35.70903258
谷中霊園,東京都 台東区谷中七丁目5番24号,1F,管理所横トイレ,"設備: 車椅子対応, おむつ交換台",#00cc00,139.770446,35.724109
谷中霊園,東京都 台東区谷中七丁目5番24号,1F,派出所横トイレ,"設備: 車椅子対応, おむつ交換台",#00cc00,139.770886,35.725155
恩賜上野動物園,東京都 台東区上野公園9番地83号,1F,日本の動物舎トイレ1,利用は開園スケジュールに基づく（休園日は利用不可） | 設備: 車椅子対応,#00cc00,139.772458,35.715783
恩賜上野動物園,東京都 台東区上野公園9番地83号,1F,日本の動物舎トイレ2,"利用は開園スケジュールに基づく（休園日は利用不可） | 設備: 車椅子対応, 大型ベッド",#00cc00,139.772458,35.715783
恩賜上野動物園,東京都 台東区上野公園9番地83号,1F,ゴリラ舎横女子トイレ,利用は開園スケジュールに基づく（休園日は利用不可） | 設備: 車椅子対応,#00cc00,139.77021,35.718068
恩賜上野動物園,東京都 台東区上野公園9番地83号,1F,ゴリラ舎横男子トイレ,利用は開園スケジュールに基づく（休園日は利用不可） | 設備: 車椅子対応,#00cc00,139.77021,35.718068
恩賜上野動物園,東京都 台東区上野公園9番地83号,1F,東園見晴台トイレ,利用は開園スケジュールに基づく（休園日は利用不可） | 設備: 車椅子対応,#00cc00,139.770162,35.71558
恩賜上野動物園,東京都 台東区上野公園9番地83号,1F,旧正門前トイレ,"利用は開園スケジュールに基づく（休園日は利用不可） | 設備: 車椅子対応, 大型ベッド",#00cc00,139.772117,35.716861
恩賜上野動物園,東京都 台東区上野公園9番地83号,1F,子ども動物園エントランス棟トイレ,"利用は開園スケジュールに基づく（休園日は利用不可） | 設備: 車椅子対応, オストメイト対応, 大型ベッド",#00cc00,139.77106,35.714004
恩賜上野動物園,東京都 台東区上野公園9番地83号,1F,西園休憩所脇トイレ,利用は開園スケジュールに基づく（休園日は利用不可） | 設備: 車椅子対応,#00cc00,139.768889,35.714582
恩賜上野動物園,東京都 台東区上野公園9番地83号,1F,西園両生爬虫類館トイレ,"利用は開園スケジュールに基づく（休園日は利用不可） | 設備: 車椅子対応, 大型ベッド",#00cc00,139.768683,35.713559
恩賜上野動物園,東京都 台東区上野公園9番地83号,1F,池之端門前トイレ,"利用は開園スケジュールに基づく（休園日は利用不可） | 設備: 車椅子対応, 大型ベッド",#00cc00,139.768476,35.713928
恩賜上野動物園,東京都 台東区上野公園9番地83号,1F,東園象舎前トイレ,"利用は開園スケジュールに基づく（休園日は利用不可） | 設備: 車椅子対応, オストメイト対応",#00cc00,139.771635,35.716331
恩賜上野動物園,東京都 台東区上野公園9番地83号,1F,東園中央広場トイレ,"利用は開園スケジュールに基づく（休園日は利用不可） | 設備: 車椅子対応, 大型ベッド",#00cc00,139.771224,35.717151
恩賜上野動物園,東京都 台東区上野公園9番地83号,1F,弁天門横トイレ,"利用は開園スケジュールに基づく（休園日は利用不可） | 設備: 車椅子対応, オストメイト対応, 大型ベッド",#00cc00,139.772114,35.712962
恩賜上野動物園,東京都 台東区上野公園9番地83号,1F,弁天門横トイレ女子内,"利用は開園スケジュールに基づく（休園日は利用不可） | 設備: 車椅子対応, 大型ベッド",#00cc00,139.772114,35.712962
恩賜上野動物園,東京都 台東区上野公園9番地83号,1F,弁天門横トイレ男子内,"利用は開園スケジュールに基づく（休園日は利用不可） | 設備: 車椅子対応, 大型ベッド",#00cc00,139.772114,35.712962
恩賜上野動物園,東京都 台東区上野公園9番地83号,1F,パンダのふるさとゾーン内トイレ,"利用は開園スケジュールに基づく（休園日は利用不可） | 設備: 車椅子対応, オストメイト対応, 大型ベッド",#00cc00,139.769368,35.714609
恩賜上野動物園,東京都 台東区上野公園9番地83号,1F,カフェカメレオン売店前,"利用は開園スケジュールに基づく（休園日は利用不可） | 設備: 車椅子対応, オストメイト対応, おむつ交換台",#00cc00,139.769895,35.714161
恩賜上野動物園,東京都 台東区上野公園9番地83号,1F,東園無料休憩所,"利用は開園スケジュールに基づく（休園日は利用不可） | 設備: 車椅子対応, オストメイト対応, おむつ交換台",#00cc00,139.770341,35.716119
恩賜上野動物園,東京都 台東区上野公園9番地83号,2F,東園無料休憩所,"利用は開園スケジュールに基づく（休園日は利用不可） | 設備: 車椅子対応, オストメイト対応, おむつ交換台",#00cc00,139.770341,35.716119
都営浅草線浅草駅,東京都 台東区駒形一丁目12番14号,B1F,だれでもトイレ,"設備: 車椅子対応, オストメイト対応, おむつ交換台",#00cc00,139.795965,35.708607
都営浅草線浅草橋駅,東京都 台東区浅草橋一丁目18番11号,B1F,だれでもトイレ,"設備: 車椅子対応, オストメイト対応, おむつ交換台",#00cc00,139.786265,35.697259
都営浅草線蔵前駅,東京都 台東区蔵前二丁目3番1号,B1F,浅草線だれでもトイレ,"設備: 車椅子対応, オストメイト対応, おむつ交換台",#00cc00,139.790144,35.70245
都営大江戸線上野御徒町駅,東京都 台東区上野五丁目26番6号,B1F,だれでもトイレ,"設備: 車椅子対応, オストメイト対応, おむつ交換台",#00cc00,139.773434,35.707908
都営大江戸線新御徒町駅,東京都 台東区元浅草一丁目5番2号,B1F,だれでもトイレ,"設備: 車椅子対応, オストメイト対応, おむつ交換台",#00cc00,139.781956,35.707094
都営大江戸線蔵前駅,東京都 台東区寿三丁目3番1号,B1F,大江戸線だれでもトイレ,"設備: 車椅子対応, オストメイト対応, おむつ交換台",#00cc00,139.79241,35.705479
東京都台東区役所本庁舎,東京都 台東区東上野四丁目5番6号,10F,１０階東側だれでもトイレ,"設備: 車椅子対応, オストメイト対応, おむつ交換台",#00cc00,139.780394,35.712465
東京都台東区役所本庁舎,東京都 台東区東上野四丁目5番6号,1F,１階西側だれでもトイレ,"設備: 車椅子対応, 大型ベッド",#00cc00,139.779521,35.712604
東京都台東区役所本庁舎,東京都 台東区東上野四丁目5番6号,1F,１階東側だれでもトイレ,"設備: 車椅子対応, オストメイト対応, おむつ交換台",#00cc00,139.780394,35.712465
東京都台東区役所本庁舎,東京都 台東区東上野四丁目5番6号,2F,2階西側だれでもトイレ,"設備: 車椅子対応, おむつ交換台",#00cc00,139.779521,35.712604
東京都台東区役所本庁舎,東京都 台東区東上野四丁目5番6号,3F,３階西側だれでもトイレ,"設備: 車椅子対応, オストメイト対応, おむつ交換台",#00cc00,139.779521,35.712604
西部区民事務所（金杉区民館）,東京都 台東区下谷三丁目1番30号,1F,１階バリアフリートイレ,"設備: 車椅子対応, オストメイト対応, おむつ交換台",#00cc00,139.786116,35.723325
浅草橋地区センター（浅草橋区民館、中央図書館浅草橋分室併設）,東京都 台東区浅草橋二丁目8番7号,1F,バリアフリートイレ,"設備: 車椅子対応, おむつ交換台",#00cc00,139.783438,35.69953
南部区民事務所（寿区民館）,東京都 台東区寿一丁目10番12号,1F,１階南側バリアフリートイレ,設備: 車椅子対応,#00cc00,139.788972,35.707281
台東区雷門地区センター,東京都 台東区浅草一丁目37番3号,3F,3階バリアフリートイレ,"設備: 車椅子対応, オストメイト対応, おむつ交換台",#00cc00,139.796114,35.712536
台東区役所北部区民事務所,東京都 台東区浅草四丁目48番1号,4F,4階バリアフリートイレ,"設備: 車椅子対応, オストメイト対応, 大型ベッド",#00cc00,139.798747,35.718265
台東区北部区民事務所清川分室（台東区立清川区民館）,東京都 台東区清川一丁目23番8号,2F,2階バリアフリートイレ,"設備: 車椅子対応, オストメイト対応, 大型ベッド, おむつ交換台",#00cc00,139.803084,35.725774
東上野地区センター（東上野区民館）,東京都 台東区東上野三丁目24番6号,1F,１階バリアフリートイレ,"設備: 車椅子対応, おむつ交換台",#00cc00,139.77961,35.711247
台東地区センター（台東一丁目区民館、台東こども家庭支援センター、たいとう地域包括支援センター） (台東複合施設　いきいきプラザ),東京都 台東区台東一丁目25番5号,1F,1F西バリアフリートイレ,"設備: 車椅子対応, おむつ交換台",#00cc00,139.777731,35.701746
台東地区センター（台東一丁目区民館、台東こども家庭支援センター、たいとう地域包括支援センター） (台東複合施設　いきいきプラザ),東京都 台東区台東一丁目25番5号,2F,2F東バリアフリートイレ,設備: 車椅子対応,#00cc00,139.77809,35.701715
台東地区センター（台東一丁目区民館、台東こども家庭支援センター、たいとう地域包括支援センター） (台東複合施設　いきいきプラザ),東京都 台東区台東一丁目25番5号,B1F,B1F東(ホ)バリアフリートイレ,"設備: 車椅子対応, おむつ交換台",#00cc00,139.778162,35.701694
台東地区センター（台東一丁目区民館、台東こども家庭支援センター、たいとう地域包括支援センター） (台東複合施設　いきいきプラザ),東京都 台東区台東一丁目25番5号,B1F,B1西バリアフリートイレ,設備: 車椅子対応,#00cc00,139.777731,35.701807
上野地区センター（上野区民館）,東京都 台東区池之端一丁目1番12号,1F,バリアフリートイレ,"設備: 車椅子対応, オストメイト対応, おむつ交換台",#00cc00,139.769186,35.709462
台東区西部区民事務所谷中分室,東京都 台東区谷中五丁目6番5号,1F,バリアフリートイレ,"設備: 車椅子対応, オストメイト対応, おむつ交換台",#00cc00,139.766775,35.72567
入谷地区センター(入谷区民館),東京都 台東区入谷一丁目15番6号,1F,バリアフリートイレ,"大型ベッドとおむつ交換台は共用 | 設備: 車椅子対応, オストメイト対応, 大型ベッド, おむつ交換台",#00cc00,139.785786,35.72046
入谷地区センター(入谷区民館),東京都 台東区入谷一丁目15番6号,4F,車いす対応トイレ,"設備: 車椅子対応, おむつ交換台",#00cc00,139.785786,35.72046
金杉区民館下谷分館,東京都 台東区下谷三丁目14番3号,1F,1階バリアフリートイレ,"設備: 車椅子対応, おむつ交換台",#00cc00,139.787269,35.725768
台東区立台東区民会館 (東京都立産業貿易センター),東京都 台東区花川戸二丁目6番5号,8F,８階バリアフリートイレ,　９階男女トイレに各１基オストメイト対応便座「e-anza」設置 | 設備: 車椅子対応,#00cc00,139.798586,35.714557
台東区立台東区民会館 (東京都立産業貿易センター),東京都 台東区花川戸二丁目6番5号,9F,９階バリアフリートイレ,　９階男女トイレに各１基オストメイト対応便座「e-anza」設置 | 設備: 車椅子対応,#00cc00,139.798613,35.714551
社会教育センター,東京都 台東区東上野六丁目16番8号,1F,1階身体障害者用トイレ,設備: 車椅子対応,#00cc00,139.783333,35.713726
社会教育センター,東京都 台東区東上野六丁目16番8号,B1F,B1身体障害者用更衣室（トイレ付）,清島温水プール内（スポーツ振興課） | 設備: 車椅子対応,#00cc00,139.783154,35.713532
台東保健所 (台東区健康センター),東京都 台東区東上野四丁目22番8号,2F,2階ピクトグラム表示のみ,"設備: 車椅子対応, おむつ交換台",#00cc00,139.781461,35.714603
台東保健所 (台東区健康センター),東京都 台東区東上野四丁目22番8号,4F,4階ピクトグラム表示のみ,"設備: 車椅子対応, オストメイト対応",#00cc00,139.781461,35.714603
浅草保健相談センター,東京都 台東区花川戸二丁目11番10号,1F,1Fおやこトイレ,"設備: 車椅子対応, オストメイト対応, おむつ交換台",#00cc00,139.800534,35.714948
浅草保健相談センター,東京都 台東区花川戸二丁目11番10号,2F,2Fおやこトイレ,"設備: 車椅子対応, おむつ交換台",#00cc00,139.80052,35.714926
浅草保健相談センター,東京都 台東区花川戸二丁目11番10号,3F,3Fおやこトイレ,"設備: 車椅子対応, おむつ交換台",#00cc00,139.800513,35.714893
千束健康増進センター (千束保健福祉施設),東京都 台東区千束三丁目28番13号,1F,障害者用トイレ,月曜日・年末年始（１２／２８〜１／４）は千束健康増進センターの休館日です。 | 設備: 車椅子対応,#00cc00,139.7936,35.723104
石浜図書館 (３階・４階),東京都 台東区橋場一丁目35番16号,4F,４階だれでもトイレ,"月曜日（第３月曜日は開館）、第３月曜日の前日、祝日、第３木曜日、（祝日にあたるときはその翌日）年末年始、特別整理期間は休館日となります。 | 設備: 車椅子対応, おむつ交換台",#00cc00,139.80767,35.725439
台東区立下町風俗資料館,東京都 台東区上野公園2番地1号,1F,1階多目的トイレ,"令和5年4月から令和7年2月まで工事中のため使用不可 | 設備: 車椅子対応, おむつ交換台",#00cc00,139.772712,35.710275
台東区立旧東京音楽学校奏楽堂,東京都 台東区上野公園8番地43号,1F,1階東側女子トイレ,設備: 車椅子対応,#00cc00,139.773277,35.717934
台東区立旧東京音楽学校奏楽堂,東京都 台東区上野公園8番地43号,1F,1階東側男子トイレ,設備: 車椅子対応,#00cc00,139.773251,35.71795
台東区立書道博物館,東京都 台東区根岸二丁目10番4号,1F,１階だれでもトイレ,設備: 車椅子対応,#00cc00,139.7764,35.724629
台東区立一葉記念館,東京都 台東区竜泉三丁目18番4号,1F,バリアフリートイレ,"設備: 車椅子対応, オストメイト対応, 大型ベッド",#00cc00,139.792816,35.725584
浅草文化観光センター,東京都 台東区雷門二丁目18番9号,1F,1階だれでもトイレ,"設備: 車椅子対応, オストメイト対応, おむつ交換台",#00cc00,139.796586,35.71065
浅草文化観光センター (浅草文化観光センター),東京都 台東区雷門二丁目18番9号,4F,4階だれでもトイレ,設備: 車椅子対応,#00cc00,139.796528,35.710655
浅草文化観光センター,東京都 台東区雷門二丁目18番9号,7F,7階だれでもトイレ,設備: 車椅子対応,#00cc00,139.796444,35.710628
江戸たいとう伝統工芸館,東京都 台東区浅草二丁目22番13号,1F,1階多目的トイレ,"設備: 車椅子対応, オストメイト対応, おむつ交換台",#00cc00,139.793804,35.716375
台東区立浅草公会堂,東京都 台東区浅草一丁目38番6号,1F,1階南側バリアフリートイレ,"設備: 車椅子対応, オストメイト対応, 大型ベッド, おむつ交換台",#00cc00,139.795263,35.712415
台東区立浅草公会堂,東京都 台東区浅草一丁目38番6号,2F,2階南側ホールロビーバリアフリートイレ（女性用）,"設備: 車椅子対応, オストメイト対応, おむつ交換台",#00cc00,139.795263,35.712415
台東区立浅草公会堂,東京都 台東区浅草一丁目38番6号,2F,2階南側ホールロビーバリアフリートイレ（男性用）,"設備: 車椅子対応, オストメイト対応, おむつ交換台",#00cc00,139.795263,35.712415
台東区　生涯学習センター,東京都 台東区西浅草三丁目25番16号,1F,1階　だれでもトイレ1,"設備: 車椅子対応, おむつ交換台",#00cc00,139.790209,35.717331
台東区　生涯学習センター,東京都 台東区西浅草三丁目25番16号,1F,1階　だれでもトイレ2,"中央図書館内 | 設備: 車椅子対応, おむつ交換台",#00cc00,139.789548,35.717181
台東区　生涯学習センター,東京都 台東区西浅草三丁目25番16号,2F,2階　だれでもトイレ1,"設備: 車椅子対応, おむつ交換台",#00cc00,139.789715,35.717479
台東区　生涯学習センター,東京都 台東区西浅草三丁目25番16号,2F,2階　だれでもトイレ2,"中央図書館内 | 設備: 車椅子対応, おむつ交換台",#00cc00,139.789665,35.717248
台東区　生涯学習センター,東京都 台東区西浅草三丁目25番16号,3F,3階　だれでもトイレ,"設備: 車椅子対応, おむつ交換台",#00cc00,139.789888,35.717191
台東区　生涯学習センター,東京都 台東区西浅草三丁目25番16号,4F,4階　だれでもトイレ,"設備: 車椅子対応, おむつ交換台",#00cc00,139.78967,35.717265
台東区　生涯学習センター,東京都 台東区西浅草三丁目25番16号,5F,5階　だれでもトイレ,"設備: 車椅子対応, おむつ交換台",#00cc00,139.789665,35.717248
台東区　生涯学習センター,東京都 台東区西浅草三丁目25番16号,6F,6階　だれでもトイレ,"設備: 車椅子対応, おむつ交換台",#00cc00,139.789655,35.717187
台東区　生涯学習センター,東京都 台東区西浅草三丁目25番16号,B1F,地下1階　だれでもトイレ,"設備: 車椅子対応, おむつ交換台",#00cc00,139.789561,35.717237
台東区立　日本堤公園,東京都 台東区東浅草二丁目27番1号,1F,日本堤公園トイレ,"公園の開園時間と同じ。 | 設備: 車椅子対応, オストメイト対応, おむつ交換台",#00cc00,139.798302,35.724093
台東区立　柳北公園,東京都 台東区浅草橋五丁目1番35号,1F,柳北公園トイレ,設備: 車椅子対応,#00cc00,139.783124,35.699728
台東区立　東盛公園,東京都 台東区三ノ輪一丁目23番2号,1F,東盛公園トイレ,"設備: 車椅子対応, オストメイト対応, おむつ交換台",#00cc00,139.792865,35.728527
台東区立　西町公園,東京都 台東区東上野二丁目23番3号,1F,西町公園トイレ,設備: 車椅子対応,#00cc00,139.779855,35.709166
台東区立　石浜公園,東京都 台東区清川一丁目14番21号,1F,石浜公園トイレ,"設備: 車椅子対応, オストメイト対応, おむつ交換台",#00cc00,139.804204,35.724558
台東区立　精華公園,東京都 台東区蔵前四丁目15番9号,1F,精華公園トイレ,"設備: 車椅子対応, オストメイト対応, おむつ交換台",#00cc00,139.789001,35.703788
台東区立　松葉公園,東京都 台東区松が谷一丁目12番6号,1F,松葉公園トイレ,設備: 車椅子対応,#00cc00,139.787147,35.71192
台東区立　御徒町公園,東京都 台東区台東四丁目13番3号,1F,御徒町公園トイレ,"設備: 車椅子対応, オストメイト対応, おむつ交換台",#00cc00,139.777882,35.706221
台東区立　金杉公園,東京都 台東区下谷三丁目5番12号,1F,金杉公園トイレ,"設備: 車椅子対応, オストメイト対応, おむつ交換台",#00cc00,139.785971,35.724096
台東区立　小島公園,東京都 台東区小島二丁目9番4号,1F,小島公園トイレ,設備: 車椅子対応,#00cc00,139.784256,35.705547
台東区立　金竜公園,東京都 台東区西浅草三丁目25番7号,1F,金竜公園トイレ,"設備: 車椅子対応, オストメイト対応, おむつ交換台",#00cc00,139.789993,35.716669
台東区立　花川戸公園,東京都 台東区花川戸二丁目5番6号,1F,花川戸公園トイレ,"設備: 車椅子対応, オストメイト対応, おむつ交換台",#00cc00,139.799345,35.714127
台東区立　竹町公園,東京都 台東区台東四丁目21番3号,1F,竹町公園トイレ,設備: 車椅子対応,#00cc00,139.780465,35.705571
台東区立　入谷南公園,東京都 台東区松が谷三丁目23番7号,1F,入谷南公園トイレ,"設備: 車椅子対応, オストメイト対応, おむつ交換台",#00cc00,139.785577,35.71703
台東区立　大正公園,東京都 台東区入谷二丁目23番11号,1F,大正公園トイレ,"設備: 車椅子対応, オストメイト対応, おむつ交換台",#00cc00,139.787707,35.721125
台東区立　谷中清水町公園,東京都 台東区谷中一丁目1番32号,1F,谷中清水町公園トイレ,設備: 車椅子対応,#00cc00,139.769419,35.720402
台東区立　隅田公園,東京都 台東区花川戸二丁目1番地,1F,隅田公園2号トイレ,"設備: 車椅子対応, オストメイト対応, おむつ交換台",#00cc00,139.802278,35.71457
台東区立　隅田公園,東京都 台東区花川戸一丁目1番地,1F,隅田公園案内所トイレ,"設備: 車椅子対応, オストメイト対応, おむつ交換台",#00cc00,139.800301,35.712954
台東区立　隅田公園,東京都 台東区浅草七丁目1番地,1F,隅田公園4号トイレ,"設備: 車椅子対応, オストメイト対応, おむつ交換台",#00cc00,139.803709,35.716707
台東区立　隅田公園,東京都 台東区花川戸一丁目1番地,1F,隅田公園1号トイレ,"設備: 車椅子対応, オストメイト対応",#00cc00,139.798564,35.710816
台東区立　山谷堀公園,東京都 台東区浅草六丁目45番12号,1F,山谷堀公園トイレ,"設備: 車椅子対応, オストメイト対応, おむつ交換台",#00cc00,139.801685,35.719174
台東区立　金曽木公園,東京都 台東区根岸四丁目16番14号,1F,金曽木公園トイレ,設備: 車椅子対応,#00cc00,139.784555,35.725733
台東区立　御蔵前公園,東京都 台東区蔵前一丁目4番8号,1F,御蔵前公園トイレ,"7‾9時に開錠 16〜18時に施錠 | 設備: 車椅子対応, オストメイト対応, おむつ交換台",#00cc00,139.789263,35.700469
台東区立　黒門児童遊園,東京都 台東区上野一丁目19番3号,1F,黒門児童遊園トイレ,"設備: 車椅子対応, オストメイト対応, おむつ交換台",#00cc00,139.772231,35.706647
台東区立　千束公園,東京都 台東区浅草四丁目24番7号,1F,千束公園トイレ,"設備: 車椅子対応, オストメイト対応, おむつ交換台",#00cc00,139.793792,35.718532
台東区立　根岸公園,東京都 台東区根岸四丁目１６番２３号,1F,根岸公園トイレ,"設備: 車椅子対応, オストメイト対応, おむつ交換台",#00cc00,139.785561,35.72565
台東区立　浅草橋公園,東京都 台東区浅草橋一丁目１番１５号,1F,浅草橋公園トイレ,"設備: 車椅子対応, オストメイト対応",#00cc00,139.785263,35.696161
寛永寺前公衆トイレ,東京都 台東区上野桜木二丁目6番20号前,1F,寛永寺前公衆トイレ,"設備: 車椅子対応, オストメイト対応, おむつ交換台",#00cc00,139.773811,35.722391
西郷銅像下公衆トイレ,東京都 台東区上野四丁目10番8号前,1F,西郷銅像下公衆トイレ,"設備: 車椅子対応, オストメイト対応, おむつ交換台",#00cc00,139.773818,35.710886
千束１丁目公衆トイレ,東京都 台東区千束一丁目19番8号,1F,千束一丁目公衆トイレ,"設備: 車椅子対応, オストメイト対応, おむつ交換台",#00cc00,139.791382,35.720657
木馬館前公衆トイレ,東京都 台東区浅草二丁目3番28号,1F,木馬館前公衆トイレ,"設備: 車椅子対応, オストメイト対応, おむつ交換台",#00cc00,139.795141,35.714293
駒形橋際公衆トイレ,東京都 台東区雷門2丁目1番1号,1F,駒形橋際公衆トイレ,"設備: 車椅子対応, オストメイト対応, おむつ交換台",#00cc00,139.796763,35.708777
日本堤子ども家庭支援センター,東京都 台東区日本堤二丁目25番8号,1F,だれでもトイレ,"設備: 車椅子対応, オストメイト対応, おむつ交換台",#00cc00,139.797246,35.728048
台東区立寿子ども家庭支援センター,東京都 台東区寿一丁目10番10号,3F,だれでもトイレ,"設備: 車椅子対応, おむつ交換台",#00cc00,139.78903,35.70715
台東区立環境ふれあい館ひまわり,東京都 台東区蔵前四丁目14番6号,1F,1階だれでもトイレ,"設備: 車椅子対応, おむつ交換台",#00cc00,139.789787,35.703714
東京都台東区立老人福祉センター (東京都台東区立老人福祉センター),東京都 台東区東上野二丁目25番14号,4F,４階だれでもトイレ,設備: 車椅子対応,#00cc00,139.781388,35.709605
東京都台東区立老人福祉センター (東京都台東区立老人福祉センター),東京都 台東区東上野二丁目25番14号,5F,５階だれでもトイレ,設備: 車椅子対応,#00cc00,139.781388,35.709605
谷中子ども家庭支援センター,東京都 台東区谷中二丁目９番２１号,1F,だれでもトイレ,設備: 車椅子対応,#00cc00,139.765459,35.723598
田中スポーツプラザ,東京都 台東区日本堤二丁目25番4号,1F,ピクトグラム表示,"設備: 車椅子対応, オストメイト対応, おむつ交換台",#00cc00,139.797233,35.72795
台東リバーサイドスポーツセンター (体育館),東京都 台東区今戸１丁目１番１０号,1F,ピクトグラム表示,"設備: 車椅子対応, オストメイト対応, おむつ交換台",#00cc00,139.804561,35.717563
台東リバーサイドスポーツセンター (体育館),東京都 台東区今戸１丁目１番１０号,1F,ピクトグラム表示,"設備: 車椅子対応, オストメイト対応, おむつ交換台",#00cc00,139.804561,35.717563
台東リバーサイドスポーツセンター (体育館),東京都 台東区今戸１丁目１番１０号,4F,ピクトグラム表示,設備: 車椅子対応,#00cc00,139.804561,35.717563
台東リバーサイドスポーツセンター (体育館),東京都 台東区今戸１丁目１番１０号,4F,ピクトグラム表示,設備: 車椅子対応,#00cc00,139.804561,35.717563
台東リバーサイドスポーツセンター (陸上競技場),東京都 台東区今戸１丁目１番１０号,1F,バリアフリートイレ,設備: 車椅子対応,#00cc00,139.804882,35.718299
台東リバーサイドスポーツセンター (陸上競技場),東京都 台東区今戸１丁目１番１０号,1F,バリアフリートイレ,設備: 車椅子対応,#00cc00,139.804882,35.718299
柳北スポーツプラザ,東京都 台東区浅草橋５ー１−８,1F,だれでもトイレ,設備: 車椅子対応,#00cc00,139.782194,35.699268