name,address,floor,toilet_name,note,color,lng,lat
千住大橋駅 (本線),東京都 足立区千住橋戸町11番地1,1F,バリアフリートイレ,"鉄道会社: 京成電鉄 | 路線: 本線 | 設備: 車椅子対応, オストメイト対応, おむつ交換台",#0066cc,139.796477,35.742519
京成関屋駅 (本線),東京都 足立区千住曙町2番地2,1F,バリアフリートイレ,"鉄道会社: 京成電鉄 | 路線: 本線 | 設備: 車椅子対応, オストメイト対応, おむつ交換台",#0066cc,139.811564,35.743911
北千住駅 (つくばエクスプレス),東京都 足立区千住旭町42番3号,3F,多機能トイレ,"鉄道会社: 首都圏新都市鉄道 | 路線: つくばエクスプレス | 設備: 車椅子対応, オストメイト対応, 大型ベッド",#0066cc,139.805006,35.749319
青井駅 (つくばエクスプレス),東京都 足立区青井3丁目24番1号,B1F,多機能トイレ,"鉄道会社: 首都圏新都市鉄道 | 路線: つくばエクスプレス | 設備: 車椅子対応, オストメイト対応, 大型ベッド",#0066cc,139.82032,35.771769
六町駅 (つくばエクスプレス),東京都 足立区六町4丁目1番1号,B1F,多機能トイレ,"鉄道会社: 首都圏新都市鉄道 | 路線: つくばエクスプレス | 設備: 車椅子対応, オストメイト対応, 大型ベッド",#0066cc,139.821767,35.784845
北千住駅 (2号線日比谷線/9号線千代田線),東京都 足立区千住2丁目63番地,B1F,バリアフリートイレ,"鉄道会社: 東京地下鉄 | 路線: 2号線日比谷線/9号線千代田線 | 設備: 車椅子対応, オストメイト対応, おむつ交換台",#0066cc,139.8044,35.74895
北綾瀬駅 (9号線千代田線),東京都 足立区谷中2丁目6番21号,1F,バリアフリートイレ,"鉄道会社: 東京地下鉄 | 路線: 9号線千代田線 | 設備: 車椅子対応, オストメイト対応, おむつ交換台",#0066cc,139.832055,35.777149
北綾瀬駅 (9号線千代田線),東京都 足立区谷中2丁目6番21号,2F,バリアフリートイレ,"鉄道会社: 東京地下鉄 | 路線: 9号線千代田線 | 設備: 車椅子対応, オストメイト対応, おむつ交換台",#0066cc,139.832073,35.775938
綾瀬駅 (9号線千代田線),東京都 足立区綾瀬3丁目1番1号,1F,多機能トイレ,"点字ブロックはトイレの場所の説明が文章で書かれた触知板へ誘導 | 鉄道会社: 東京地下鉄 | 路線: 9号線千代田線 | 設備: 車椅子対応, オストメイト対応, おむつ交換台",#0066cc,139.82604,35.762245
綾瀬駅 (9号線千代田線),東京都 足立区綾瀬3丁目1番1号,1F,多機能トイレ,"鉄道会社: 東京地下鉄 | 路線: 9号線千代田線 | 設備: 車椅子対応, オストメイト対応, おむつ交換台",#0066cc,139.82358,35.762007
牛田駅 (伊勢崎線),東京都 足立区千住曙町1番地1号,1F,多機能トイレ,"鉄道会社: 東武鉄道 | 路線: 伊勢崎線 | 設備: 車椅子対応, オストメイト対応, おむつ交換台",#0066cc,139.811278,35.744404
北千住駅 (伊勢崎線),東京都 足立区千住旭町42番地1号,2F,多機能トイレ,"鉄道会社: 東武鉄道 | 路線: 伊勢崎線 | 設備: 車椅子対応, オストメイト対応, 大型ベッド",#0066cc,139.805738,35.750132
北千住駅 (伊勢崎線),東京都 足立区千住旭町42番地1号,2F,多機能トイレ,"鉄道会社: 東武鉄道 | 路線: 伊勢崎線 | 設備: 車椅子対応, オストメイト対応, 大型ベッド",#0066cc,139.805135,35.748995
小菅駅 (伊勢崎線),東京都 足立区足立2丁目46番11号,1F,多機能トイレ,"鉄道会社: 東武鉄道 | 路線: 伊勢崎線 | 設備: 車椅子対応, オストメイト対応, 大型ベッド",#0066cc,139.812662,35.758672
五反野駅 (伊勢崎線),東京都 足立区足立3丁目34番6号,M2F,多機能トイレ,"鉄道会社: 東武鉄道 | 路線: 伊勢崎線 | 設備: 車椅子対応, オストメイト対応, 大型ベッド",#0066cc,139.809346,35.766044
梅島駅 (伊勢崎線),東京都 足立区梅田7丁目37番1号,1F,多機能トイレ,"鉄道会社: 東武鉄道 | 路線: 伊勢崎線 | 設備: 車椅子対応, オストメイト対応, 大型ベッド, おむつ交換台",#0066cc,139.798028,35.772362
梅島駅 (伊勢崎線),東京都 足立区梅田7丁目37番1号,1F,女子トイレ内多機能トイレ,"鉄道会社: 東武鉄道 | 路線: 伊勢崎線 | 設備: 車椅子対応, オストメイト対応, おむつ交換台",#0066cc,139.798028,35.772362
梅島駅 (伊勢崎線),東京都 足立区梅田7丁目37番1号,1F,男子トイレ内多機能トイレ,"鉄道会社: 東武鉄道 | 路線: 伊勢崎線 | 設備: 車椅子対応, オストメイト対応, おむつ交換台",#0066cc,139.798028,35.772362
西新井駅 (伊勢崎線/大師線),東京都 足立区西新井栄町2丁目1番1号,3F,多機能トイレ,"鉄道会社: 東武鉄道 | 路線: 伊勢崎線/大師線 | 設備: 車椅子対応, オストメイト対応, 大型ベッド",#0066cc,139.790409,35.777246
竹ノ塚駅 (伊勢崎線),東京都 足立区竹の塚6丁目6番1号,1F,多機能トイレ,"鉄道会社: 東武鉄道 | 路線: 伊勢崎線 | 設備: 車椅子対応, オストメイト対応, 大型ベッド, おむつ交換台",#0066cc,139.790724,35.794151
大師前駅 (大師線),東京都 足立区西新井1丁目3番1号,1F,多機能トイレ,"鉄道会社: 東武鉄道 | 路線: 大師線 | 設備: 車椅子対応, オストメイト対応",#0066cc,139.781495,35.778854
堀切駅 (伊勢崎線),東京都 足立区千住曙町34-1,1F,多機能トイレ,"鉄道会社: 東武鉄道 | 路線: 伊勢崎線 | 設備: 車椅子対応, オストメイト対応, 大型ベッド",#0066cc,139.817669,35.743088
北千住駅 (常磐線),東京都 足立区千住旭町,2F,多機能トイレ,"鉄道会社: 東日本旅客鉄道 | 路線: 常磐線 | 設備: 車椅子対応, オストメイト対応, おむつ交換台",#0066cc,139.8049,35.74941