name,address,floor,toilet_name,note,color,lng,lat
豊洲駅 (8号線有楽町線),東京都 江東区豊洲4丁目1番1号,B1F,バリアフリートイレ,"鉄道会社: 東京地下鉄 | 路線: 8号線有楽町線 | 設備: 車椅子対応, オストメイト対応, おむつ交換台",#0066cc,139.79568,35.655273
豊洲駅 (8号線有楽町線),東京都 江東区豊洲4丁目1番1号,B1F,バリアフリートイレ,"鉄道会社: 東京地下鉄 | 路線: 8号線有楽町線 | 設備: 車椅子対応, オストメイト対応, おむつ交換台",#0066cc,139.79613,35.654903
東陽町駅 (5号線東西線),東京都 江東区東陽4丁目2番1号,B2F,バリアフリートイレ,"鉄道会社: 東京地下鉄 | 路線: 5号線東西線 | 設備: 車椅子対応, オストメイト対応, おむつ交換台",#0066cc,139.8185,35.66961
東陽町駅 (5号線東西線),東京都 江東区東陽4丁目2番1号,B1F,バリアフリートイレ,"鉄道会社: 東京地下鉄 | 路線: 5号線東西線 | 設備: 車椅子対応, オストメイト対応, おむつ交換台",#0066cc,139.8168,35.66945
門前仲町駅 (5号線東西線),東京都 江東区門前仲町1丁目4番8号,B1F,バリアフリートイレ,"鉄道会社: 東京地下鉄 | 路線: 5号線東西線 | 設備: 車椅子対応, オストメイト対応, おむつ交換台",#0066cc,139.797,35.67147
門前仲町駅 (5号線東西線),東京都 江東区門前仲町1丁目4番8号,B1F,バリアフリートイレ,"鉄道会社: 東京地下鉄 | 路線: 5号線東西線 | 設備: 車椅子対応, オストメイト対応, おむつ交換台",#0066cc,139.7944,35.67252
新木場駅 (8号線有楽町線),東京都 江東区新木場1丁目6番地先,3F,バリアフリートイレ,"鉄道会社: 東京地下鉄 | 路線: 8号線有楽町線 | 設備: 車椅子対応, オストメイト対応, おむつ交換台",#0066cc,139.82602,35.64588
南砂町駅 (5号線東西線),東京都 江東区南砂3丁目11番85号,B1F,バリアフリートイレ,"鉄道会社: 東京地下鉄 | 路線: 5号線東西線 | 設備: 車椅子対応, オストメイト対応, おむつ交換台",#0066cc,139.8307417,35.66852382
南砂町駅 (5号線東西線),東京都 江東区南砂3丁目11番85号,B1F,バリアフリートイレ,"鉄道会社: 東京地下鉄 | 路線: 5号線東西線 | 設備: 車椅子対応, オストメイト対応, おむつ交換台",#0066cc,139.8307417,35.66852382
住吉駅 (11号線半蔵門線),東京都 江東区猿江2丁目9番10号,B2F,バリアフリートイレ,"鉄道会社: 東京地下鉄 | 路線: 11号線半蔵門線 | 設備: 車椅子対応, オストメイト対応, おむつ交換台",#0066cc,139.8158,35.688487
清澄白河駅 (11号線半蔵門線),東京都 江東区白河1丁目6番13号,B1F,バリアフリートイレ,"鉄道会社: 東京地下鉄 | 路線: 11号線半蔵門線 | 設備: 車椅子対応, オストメイト対応, おむつ交換台",#0066cc,139.79951,35.682064
清澄白河駅 (11号線半蔵門線),東京都 江東区白河1丁目6番13号,B1F,バリアフリートイレ,"鉄道会社: 東京地下鉄 | 路線: 11号線半蔵門線 | 設備: 車椅子対応, オストメイト対応, おむつ交換台",#0066cc,139.80157,35.682164
辰巳駅 (8号線有楽町線),東京都 江東区辰巳1丁目1番44号,B2F,バリアフリートイレ,"鉄道会社: 東京地下鉄 | 路線: 8号線有楽町線 | 設備: 車椅子対応, オストメイト対応, おむつ交換台",#0066cc,139.80996,35.646041
新木場駅 (りんかい線),東京都 江東区新木場1丁目6番地,3F,多目的トイレ,"最終当駅止まりあり | 鉄道会社: 東京臨海高速鉄道 | 路線: りんかい線 | 設備: 車椅子対応, オストメイト対応, 大型ベッド",#0066cc,139.827232,35.646164
新木場駅 (りんかい線),東京都 江東区新木場1丁目6番地,3F,多目的トイレ,"最終当駅止まりあり | 鉄道会社: 東京臨海高速鉄道 | 路線: りんかい線 | 設備: 車椅子対応, オストメイト対応, 大型ベッド",#0066cc,139.827232,35.646161
東雲駅 (りんかい線),東京都 江東区東雲2丁目8番10号,1F,多目的トイレ,"最終当駅止まりあり | 鉄道会社: 東京臨海高速鉄道 | 路線: りんかい線 | 設備: 車椅子対応, オストメイト対応, 大型ベッド",#0066cc,139.803555,35.640725
東雲駅 (りんかい線),東京都 江東区東雲2丁目8番10号,1F,多目的トイレ,"最終当駅止まりあり | 鉄道会社: 東京臨海高速鉄道 | 路線: りんかい線 | 設備: 車椅子対応, オストメイト対応, 大型ベッド",#0066cc,139.803555,35.640725
国際展示場駅 (りんかい線),東京都 江東区有明3丁目7番3号,1F,だれでもトイレ,"鉄道会社: 東京臨海高速鉄道 | 路線: りんかい線 | 設備: 車椅子対応, オストメイト対応, 大型ベッド",#0066cc,139.791894,35.634746
国際展示場駅 (りんかい線),東京都 江東区有明3丁目7番3号,1F,だれでもトイレ,"鉄道会社: 東京臨海高速鉄道 | 路線: りんかい線 | 設備: 車椅子対応, オストメイト対応, 大型ベッド",#0066cc,139.791909,35.634723
東京テレポート駅 (りんかい線),東京都 江東区青海1丁目2番1号,B1F,だれでもトイレ,"最終当駅止まりあり | 鉄道会社: 東京臨海高速鉄道 | 路線: りんかい線 | 設備: 車椅子対応, オストメイト対応, 大型ベッド",#0066cc,139.779162,35.627762
東京テレポート駅 (りんかい線),東京都 江東区青海1丁目2番1号,B1F,多機能トイレ,"最終当駅止まりあり | 鉄道会社: 東京臨海高速鉄道 | 路線: りんかい線 | 設備: 車椅子対応, オストメイト対応, 大型ベッド",#0066cc,139.779158,35.627759
亀戸水神駅 (亀戸線),東京都 江東区亀戸8丁目5番1号,1F,多機能トイレ,"鉄道会社: 東武鉄道 | 路線: 亀戸線 | 設備: 車椅子対応, オストメイト対応, 大型ベッド",#0066cc,139.833645,35.700229
亀戸駅 (亀戸線),東京都 江東区亀戸5丁目1番1号,1F,多機能トイレ,"鉄道会社: 東武鉄道 | 路線: 亀戸線 | 設備: 車椅子対応, オストメイト対応",#0066cc,139.826952,35.69773
越中島駅 (京葉線),東京都 江東区越中島2丁目,1F,多機能化粧室,"鉄道会社: 東日本旅客鉄道 | 路線: 京葉線 | 設備: 車椅子対応, オストメイト対応, おむつ交換台",#0066cc,139.792592,35.667919
亀戸駅 (総武線),東京都 江東区亀戸5丁目,1F,多機能トイレ,"鉄道会社: 東日本旅客鉄道 | 路線: 総武線 | 設備: 車椅子対応, オストメイト対応, おむつ交換台",#0066cc,139.825976,35.697267
潮見駅 (京葉線),東京都 江東区潮見2丁目,1F,多機能トイレ,"鉄道会社: 東日本旅客鉄道 | 路線: 京葉線 | 設備: 車椅子対応, オストメイト対応, おむつ交換台",#0066cc,139.817263,35.658896
新木場駅 (京葉線),東京都 江東区新木場1丁目,3F,多機能トイレ,"鉄道会社: 東日本旅客鉄道 | 路線: 京葉線 | 設備: 車椅子対応, オストメイト対応, おむつ交換台",#0066cc,139.826434,35.646038
東京国際クルーズターミナル駅 (東京臨海新交通臨海線),東京都 江東区青海1丁目1番49号先,2F,多機能トイレ,"鉄道会社: ゆりかもめ | 路線: 東京臨海新交通臨海線 | 設備: 車椅子対応, オストメイト対応, おむつ交換台",#0066cc,139.773125,35.621395
テレコムセンター駅 (東京臨海新交通臨海線),東京都 江東区青海2丁目5番8号先,2F,多機能トイレ,"鉄道会社: ゆりかもめ | 路線: 東京臨海新交通臨海線 | 設備: 車椅子対応, オストメイト対応, おむつ交換台",#0066cc,139.779521,35.617571
青海駅 (東京臨海新交通臨海線),東京都 江東区青海1丁目3番14号先,2F,多機能トイレ,"鉄道会社: ゆりかもめ | 路線: 東京臨海新交通臨海線 | 設備: 車椅子対応, オストメイト対応, おむつ交換台",#0066cc,139.78103,35.624569
東京ビッグサイト駅 (東京臨海新交通臨海線),東京都 江東区有明3丁目6番15号先,2F,多機能トイレ1 南側(管理番号71),"鉄道会社: ゆりかもめ | 路線: 東京臨海新交通臨海線 | 設備: 車椅子対応, オストメイト対応, 大型ベッド, おむつ交換台",#0066cc,139.791509,35.630115
東京ビッグサイト駅 (東京臨海新交通臨海線),東京都 江東区有明3丁目6番15号先,2F,多機能トイレ2中央,"鉄道会社: ゆりかもめ | 路線: 東京臨海新交通臨海線 | 設備: 車椅子対応, オストメイト対応, 大型ベッド, おむつ交換台",#0066cc,139.791434,35.630211
東京ビッグサイト駅 (東京臨海新交通臨海線),東京都 江東区有明3丁目6番15号先,2F,男女共用一般トイレ1 北入口(管理番号92),鉄道会社: ゆりかもめ | 路線: 東京臨海新交通臨海線 | 設備: オストメイト対応,#0066cc,139.791327,35.630281
東京ビッグサイト駅 (東京臨海新交通臨海線),東京都 江東区有明3丁目6番15号先,2F,男女共用一般トイレ2 北奥(管理番号91),"鉄道会社: ゆりかもめ | 路線: 東京臨海新交通臨海線 | 設備: 車椅子対応, おむつ交換台",#0066cc,139.791209,35.630307
東京ビッグサイト駅 (東京臨海新交通臨海線),東京都 江東区有明3丁目6番15号先,2F,男子トイレ(管理番号33),"鉄道会社: ゆりかもめ | 路線: 東京臨海新交通臨海線 | 設備: オストメイト対応, おむつ交換台",#0066cc,139.791552,35.630499
東京ビッグサイト駅 (東京臨海新交通臨海線),東京都 江東区有明3丁目6番15号先,2F,女子トイレ(管理番号34),"鉄道会社: ゆりかもめ | 路線: 東京臨海新交通臨海線 | 設備: オストメイト対応, おむつ交換台",#0066cc,139.791391,35.630386
有明駅 (東京臨海新交通臨海線),東京都 江東区有明3丁目7番5号先,2F,多機能トイレ,"鉄道会社: ゆりかもめ | 路線: 東京臨海新交通臨海線 | 設備: 車椅子対応, オストメイト対応, おむつ交換台",#0066cc,139.793318,35.63471
有明駅 (東京臨海新交通臨海線),東京都 江東区有明3丁目7番5号先,2F,多機能トイレ,"個室前の女性トイレ内では回転可・乳幼児用おむつ交換台は個室前の女性トイレ内に設置 | 鉄道会社: ゆりかもめ | 路線: 東京臨海新交通臨海線 | 設備: 車椅子対応, オストメイト対応",#0066cc,139.793333,35.6345
有明駅 (東京臨海新交通臨海線),東京都 江東区有明3丁目7番5号先,2F,多機能トイレ,"個室前の男性トイレ内では回転可・乳幼児用おむつ交換台は個室前の男性トイレ内に設置 | 鉄道会社: ゆりかもめ | 路線: 東京臨海新交通臨海線 | 設備: 車椅子対応, オストメイト対応",#0066cc,139.793385,35.634535
有明テニスの森駅 (東京臨海新交通臨海線),東京都 江東区有明1丁目8番14号先,2F,多機能トイレ,"鉄道会社: ゆりかもめ | 路線: 東京臨海新交通臨海線 | 設備: 車椅子対応, オストメイト対応, おむつ交換台",#0066cc,139.788824,35.64003
市場前駅 (東京臨海新交通臨海線),東京都 江東区豊洲6丁目3番12号先,2F,多機能トイレ,"鉄道会社: ゆりかもめ | 路線: 東京臨海新交通臨海線 | 設備: 車椅子対応, オストメイト対応, おむつ交換台",#0066cc,139.785604,35.645721
新豊洲駅 (東京臨海新交通臨海線),東京都 江東区豊洲6丁目2番20号先,2F,多機能トイレ,"鉄道会社: ゆりかもめ | 路線: 東京臨海新交通臨海線 | 設備: 車椅子対応, オストメイト対応, おむつ交換台",#0066cc,139.79013,35.64876
豊洲駅 (東京臨海新交通臨海線),東京都 江東区豊洲2丁目2番14号先,2F,多機能トイレ,"鉄道会社: ゆりかもめ | 路線: 東京臨海新交通臨海線 | 設備: 車椅子対応, オストメイト対応, 大型ベッド",#0066cc,139.795371,35.653786
豊洲駅 (東京臨海新交通臨海線),東京都 江東区豊洲2丁目2番14号先,2F,多機能トイレ,"新規/個室前の女性トイレ内では回転可・乳幼児用おむつ交換台は個室前の女性トイレ内に設置 | 鉄道会社: ゆりかもめ | 路線: 東京臨海新交通臨海線 | 設備: 車椅子対応, オストメイト対応, おむつ交換台",#0066cc,139.795324,35.653753
豊洲駅 (東京臨海新交通臨海線),東京都 江東区豊洲2丁目2番14号先,2F,多機能トイレ,"新規/個室前の男性トイレ内では回転可・乳幼児用おむつ交換台は個室前の男性トイレ内に設置 | 鉄道会社: ゆりかもめ | 路線: 東京臨海新交通臨海線 | 設備: 車椅子対応, オストメイト対応, おむつ交換台",#0066cc,139.795413,35.653818