name,address,floor,toilet_name,note,color,lng,lat
京成上野駅 (本線),東京都 台東区上野公園1番60号,B1F,バリアフリートイレ,"鉄道会社: 京成電鉄 | 路線: 本線 | 設備: 車椅子対応, オストメイト対応, おむつ交換台",#0066cc,139.773501,35.711297
京成上野駅 (本線),東京都 台東区上野公園1番60号,B1F,バリアフリートイレ,"改札外コンコース | 鉄道会社: 京成電鉄 | 路線: 本線 | 設備: 車椅子対応, オストメイト対応, 大型ベッド",#0066cc,139.773464,35.711244
京成上野駅 (本線),東京都 台東区上野公園1番60号,B2F,バリアフリートイレ,"ホーム階 | 鉄道会社: 京成電鉄 | 路線: 本線 | 設備: 車椅子対応, オストメイト対応",#0066cc,139.773498,35.71112
新御徒町駅 (つくばエクスプレス),東京都 台東区小島2丁目21番18号,B1F,多機能トイレ,"鉄道会社: 首都圏新都市鉄道 | 路線: つくばエクスプレス | 設備: 車椅子対応, オストメイト対応, 大型ベッド",#0066cc,139.782706,35.70697
浅草駅 (つくばエクスプレス),東京都 台東区西浅草3丁目1番11号,B1F,多機能トイレ,"鉄道会社: 首都圏新都市鉄道 | 路線: つくばエクスプレス | 設備: 車椅子対応, オストメイト対応, 大型ベッド",#0066cc,139.792477,35.713671
浅草駅 (つくばエクスプレス),東京都 台東区西浅草3丁目1番11号,B1F,多機能トイレ,"鉄道会社: 首都圏新都市鉄道 | 路線: つくばエクスプレス | 設備: 車椅子対応, オストメイト対応, 大型ベッド",#0066cc,139.792476,35.71366
上野駅 (3号線銀座線/2号線日比谷線),東京都 台東区東上野3丁目19番6号,B1F,バリアフリートイレ,"鉄道会社: 東京地下鉄 | 路線: 3号線銀座線/2号線日比谷線 | 設備: 車椅子対応, オストメイト対応, おむつ交換台",#0066cc,139.776305,35.711726
上野駅 (3号線銀座線/2号線日比谷線),東京都 台東区東上野3丁目19番6号,B1F,バリアフリートイレ,"鉄道会社: 東京地下鉄 | 路線: 3号線銀座線/2号線日比谷線 | 設備: 車椅子対応, オストメイト対応, おむつ交換台",#0066cc,139.777275,35.711555
浅草駅 (3号線銀座線),東京都 台東区浅草1丁目1番3号,B2F,バリアフリートイレ（1番線ホーム）,"鉄道会社: 東京地下鉄 | 路線: 3号線銀座線 | 設備: 車椅子対応, オストメイト対応, おむつ交換台",#0066cc,139.797873,35.710634
浅草駅 (3号線銀座線),東京都 台東区浅草1丁目1番3号,B2F,バリアフリートイレ（2番線ホーム）,"鉄道会社: 東京地下鉄 | 路線: 3号線銀座線 | 設備: 車椅子対応, オストメイト対応, おむつ交換台",#0066cc,139.7971204,35.71003406
仲御徒町駅 (2号線日比谷線),東京都 台東区上野5丁目24番12号,B1F,バリアフリートイレ,"鉄道会社: 東京地下鉄 | 路線: 2号線日比谷線 | 設備: 車椅子対応, オストメイト対応, おむつ交換台",#0066cc,139.7764,35.7073
仲御徒町駅 (2号線日比谷線),東京都 台東区上野5丁目24番12号,B2F,バリアフリートイレ,"鉄道会社: 東京地下鉄 | 路線: 2号線日比谷線 | 設備: 車椅子対応, オストメイト対応, おむつ交換台",#0066cc,139.776295,35.706584
三ノ輪駅 (2号線日比谷線),東京都 台東区根岸5丁目19番6号,1F,バリアフリートイレ,"鉄道会社: 東京地下鉄 | 路線: 2号線日比谷線 | 設備: 車椅子対応, オストメイト対応, おむつ交換台",#0066cc,139.7921,35.73018
三ノ輪駅 (2号線日比谷線),東京都 台東区根岸5丁目19番6号,B1F,バリアフリートイレ,"鉄道会社: 東京地下鉄 | 路線: 2号線日比谷線 | 設備: 車椅子対応, オストメイト対応, おむつ交換台",#0066cc,139.7908,35.72919
入谷駅 (2号線日比谷線),東京都 台東区下谷2丁目15番1号,B1F,バリアフリートイレ,"鉄道会社: 東京地下鉄 | 路線: 2号線日比谷線 | 設備: 車椅子対応, オストメイト対応, おむつ交換台",#0066cc,139.785,35.72145
入谷駅 (2号線日比谷線),東京都 台東区下谷2丁目15番1号,B1F,バリアフリートイレ,"鉄道会社: 東京地下鉄 | 路線: 2号線日比谷線 | 設備: 車椅子対応, オストメイト対応, おむつ交換台",#0066cc,139.7846,35.72061
田原町駅 (3号線銀座線),東京都 台東区西浅草1丁目1番18号,B1F,バリアフリートイレ,"鉄道会社: 東京地下鉄 | 路線: 3号線銀座線 | 設備: 車椅子対応, オストメイト対応, おむつ交換台",#0066cc,139.790422,35.70981
田原町駅 (3号線銀座線),東京都 台東区西浅草1丁目1番18号,B1F,バリアフリートイレ,"鉄道会社: 東京地下鉄 | 路線: 3号線銀座線 | 設備: 車椅子対応, オストメイト対応, おむつ交換台",#0066cc,139.790587,35.710009
上野広小路駅 (3号線銀座線),東京都 台東区上野3丁目29番3号,B1F,多機能トイレ,"鉄道会社: 東京地下鉄 | 路線: 3号線銀座線 | 設備: 車椅子対応, オストメイト対応, おむつ交換台",#0066cc,139.772888,35.707665
稲荷町駅 (3号線銀座線),東京都 台東区東上野3丁目33番11号,B1F,多機能トイレ,"鉄道会社: 東京地下鉄 | 路線: 3号線銀座線 | 設備: 車椅子対応, オストメイト対応, おむつ交換台",#0066cc,139.78254,35.711286
稲荷町駅 (3号線銀座線),東京都 台東区東上野3丁目33番11号,B1F,多機能トイレ,"鉄道会社: 東京地下鉄 | 路線: 3号線銀座線 | 設備: 車椅子対応, オストメイト対応, おむつ交換台",#0066cc,139.782574,35.711452
浅草駅 (伊勢崎線),東京都 台東区花川戸1丁目4番1号,2F,多機能トイレ,"鉄道会社: 東武鉄道 | 路線: 伊勢崎線 | 設備: 車椅子対応, オストメイト対応, 大型ベッド",#0066cc,139.797934,35.711596
御徒町駅 (東北線),東京都 台東区上野5丁目,1F,多機能トイレ,"鉄道会社: 東日本旅客鉄道 | 路線: 東北線 | 設備: 車椅子対応, オストメイト対応, おむつ交換台",#0066cc,139.7749,35.70748
御徒町駅 (東北線),東京都 台東区上野5丁目,1F,多機能トイレ,"鉄道会社: 東日本旅客鉄道 | 路線: 東北線 | 設備: 車椅子対応, オストメイト対応, おむつ交換台",#0066cc,139.7746,35.70662
上野駅 (東北線),東京都 台東区上野7丁目,1F,多機能トイレ,"鉄道会社: 東日本旅客鉄道 | 路線: 東北線 | 設備: 車椅子対応, オストメイト対応",#0066cc,139.7777,35.71366
上野駅 (東北線),東京都 台東区上野7丁目,1F,多機能化粧室,"鉄道会社: 東日本旅客鉄道 | 路線: 東北線 | 設備: 車椅子対応, オストメイト対応, おむつ交換台",#0066cc,139.7767,35.71285
上野駅 (東北線),東京都 台東区上野7丁目,3F,多機能トイレ,"鉄道会社: 東日本旅客鉄道 | 路線: 東北線 | 設備: 車椅子対応, オストメイト対応",#0066cc,139.777839,35.713803
上野駅 (東北線),東京都 台東区上野7丁目,3F,多機能トイレ,"鉄道会社: 東日本旅客鉄道 | 路線: 東北線 | 設備: 車椅子対応, オストメイト対応, おむつ交換台",#0066cc,139.775931,35.713614
鶯谷駅 (東北線),東京都 台東区根岸1丁目,1F,多機能化粧室,"鉄道会社: 東日本旅客鉄道 | 路線: 東北線 | 設備: 車椅子対応, オストメイト対応, おむつ交換台",#0066cc,139.7788,35.72051
浅草橋駅 (総武線),東京都 台東区浅草橋1丁目,2F,多機能トイレ,"鉄道会社: 東日本旅客鉄道 | 路線: 総武線 | 設備: 車椅子対応, オストメイト対応, おむつ交換台",#0066cc,139.783714,35.697451